{"type": "FeatureCollection", "features": [{"id": "0", "type": "Feature", "properties": {"x": 5001649.64164401, "y": 2752225.5060108565, "bearings": {"0_2_0": -83.49144488992606, "0_18_0": 95.4809198058101, "0_1_0": 77.31679550568694}, "angles": {"0_2_0": 181.02763530426384, "0_1_0": 160.80824039561298, "0_18_0": 18.164124300123163}, "adj_sorted": [[0, 2, 0], [0, 1, 0], [0, 18, 0]], "type": "Y", "n_corners": 2}, "geometry": {"type": "Point", "coordinates": [19.0550517, 47.50824800000006]}}, {"id": "2", "type": "Feature", "properties": {"x": 5001675.01125583, "y": 2752090.936630409, "bearings": {"2_0_0": 146.67800150801705, "2_3_0": -100.20941094424228, "2_25_0": 35.370044254878124}, "angles": {"2_3_0": 113.11258754774067, "2_25_0": 135.5794551991204, "2_0_0": 111.30795725313892}, "adj_sorted": [[2, 3, 0], [2, 25, 0], [2, 0, 0]], "type": "Y", "n_corners": 3}, "geometry": {"type": "Point", "coordinates": [19.055174701250493, 47.507019301603634]}}, {"id": "3", "type": "Feature", "properties": {"x": 5001676.291566012, "y": 2752072.502212758, "bearings": {"3_2_0": 106.44691423830213, "3_4_0": -105.21315118628405, "3_14_0": -12.59310734440771}, "angles": {"3_4_0": 148.33993457541382, "3_14_0": 92.62004384187634, "3_2_0": 119.04002158270984}, "adj_sorted": [[3, 4, 0], [3, 14, 0], [3, 2, 0]], "type": "Y", "n_corners": 3}, "geometry": {"type": "Point", "coordinates": [19.0551626066053, 47.50685339691913]}}, {"id": "25", "type": "Feature", "properties": {"x": 5001830.958452898, "y": 2752279.029736526, "bearings": {"25_2_0": -128.52786419470306, "25_30_0": 50.18514866732722, "25_36_0": -41.08158004353255, "25_12_0": 138.5939081020625}, "angles": {"25_2_0": 92.87822770323442, "25_36_0": 87.44628415117052, "25_30_0": 91.26672871085977, "25_12_0": 88.40875943473529}, "adj_sorted": [[25, 2, 0], [25, 36, 0], [25, 30, 0], [25, 12, 0]], "type": "X", "n_corners": 4}, "geometry": {"type": "Point", "coordinates": [19.0575268, 47.508526300000014]}}, {"id": "4", "type": "Feature", "properties": {"x": 5001676.422044559, "y": 2751971.4584237295, "bearings": {"4_3_0": 95.88652827116148, "4_7_0": -84.22254055802034, "4_20_0": -43.96861131371786}, "angles": {"4_7_0": 179.8909311708182, "4_20_0": 40.25392924430248, "4_3_0": 139.85513958487934}, "adj_sorted": [[4, 7, 0], [4, 20, 0], [4, 3, 0]], "type": "Y", "n_corners": 2}, "geometry": {"type": "Point", "coordinates": [19.0550055, 47.50595160000002]}}, {"id": "14", "type": "Feature", "properties": {"x": 5001740.928294281, "y": 2752032.859026247, "bearings": {"14_3_0": 140.74990077821008, "14_36_0": 52.64321442300447, "14_21_0": -37.970614340106636}, "angles": {"14_21_0": 181.2794848816833, "14_36_0": 90.61382876311112, "14_3_0": 88.1066863552056}, "adj_sorted": [[14, 21, 0], [14, 36, 0], [14, 3, 0]], "type": "T", "n_corners": 2}, "geometry": {"type": "Point", "coordinates": [19.055952599999998, 47.50642860000006]}}, {"id": "7", "type": "Feature", "properties": {"x": 5001700.6800487125, "y": 2751731.6913154665, "bearings": {"7_4_0": 95.78400752146916, "7_20_0": 52.78081227281916, "7_8_0": -84.34235087106173}, "angles": {"7_8_0": 179.8736416074691, "7_20_0": 137.1231631438809, "7_4_0": 43.00319524865}, "adj_sorted": [[7, 8, 0], [7, 20, 0], [7, 4, 0]], "type": "Y", "n_corners": 2}, "geometry": {"type": "Point", "coordinates": [19.0549485, 47.5037854]}}, {"id": "20", "type": "Feature", "properties": {"x": 5001796.1652581375, "y": 2751855.921316059, "bearings": {"20_4_0": 136.02319391627086, "20_7_0": -127.56191712867296, "20_27_0": 52.59252523752791, "20_26_0": -44.00792849778785}, "angles": {"20_7_0": 96.4148889550562, "20_26_0": 83.5539886308851, "20_27_0": 96.60045373531577, "20_4_0": 83.43066867874295}, "adj_sorted": [[20, 7, 0], [20, 26, 0], [20, 27, 0], [20, 4, 0]], "type": "X", "n_corners": 4}, "geometry": {"type": "Point", "coordinates": [19.056402799999997, 47.50478900000004]}}, {"id": "36", "type": "Feature", "properties": {"x": 5001889.139804073, "y": 2752226.747350933, "bearings": {"36_25_0": 137.98628745839065, "36_14_0": -127.33918555813396, "36_47_0": -41.89773652966359}, "angles": {"36_14_0": 94.6745269834754, "36_47_0": 85.44144902847037, "36_25_0": 179.88402398805425}, "adj_sorted": [[36, 14, 0], [36, 47, 0], [36, 25, 0]], "type": "T", "n_corners": 2}, "geometry": {"type": "Point", "coordinates": [19.05821179999999, 47.50799580000002]}}, {"id": "21", "type": "Feature", "properties": {"x": 5001800.740458096, "y": 2751986.1780238464, "bearings": {"21_14_0": 142.02938565989336, "21_49_0": 52.59526744743755, "21_27_0": -37.991532501362975}, "angles": {"21_27_0": 179.97908183874367, "21_49_0": 90.58679994880052, "21_14_0": 89.43411821245581}, "adj_sorted": [[21, 27, 0], [21, 49, 0], [21, 14, 0]], "type": "T", "n_corners": 2}, "geometry": {"type": "Point", "coordinates": [19.056667899999997, 47.50594630000002]}}, {"id": "30", "type": "Feature", "properties": {"x": 5001866.893408074, "y": 2752322.489709142, "bearings": {"30_25_0": -130.4691750753753, "30_32_0": 3.985486598429647, "30_12_0": 140.0770718168558}, "angles": {"30_25_0": 89.45375310776888, "30_32_0": 134.45466167380494, "30_12_0": 136.09158521842616}, "adj_sorted": [[30, 25, 0], [30, 32, 0], [30, 12, 0]], "type": "Y", "n_corners": 3}, "geometry": {"type": "Point", "coordinates": [19.058068999999996, 47.50887460000006]}}, {"id": "54", "type": "Feature", "properties": {"x": 5001966.568258861, "y": 2752332.295112167, "bearings": {"54_46_0": -128.6464436079942, "54_42_0": 138.36912970939997, "54_60_0": 51.17407336290664}, "angles": {"54_46_0": 92.98442668260583, "54_60_0": 179.82051697090083, "54_42_0": 87.19505634649333}, "adj_sorted": [[54, 46, 0], [54, 60, 0], [54, 42, 0]], "type": "T", "n_corners": 2}, "geometry": {"type": "Point", "coordinates": [19.059398800000007, 47.508852499999996]}}, {"id": "46", "type": "Feature", "properties": {"x": 5001926.637545626, "y": 2752282.355951179, "bearings": {"46_54_0": 51.37565860901285, "46_56_0": -38.906865921927, "46_32_0": 141.1351251919355}, "angles": {"46_56_0": 179.95800888613752, "46_54_0": 90.28252453093985, "46_32_0": 89.75946658292264}, "adj_sorted": [[46, 56, 0], [46, 54, 0], [46, 32, 0]], "type": "T", "n_corners": 2}, "geometry": {"type": "Point", "coordinates": [19.05879371147623, 47.508450784437954]}}, {"id": "42", "type": "Feature", "properties": {"x": 5001915.417410338, "y": 2752377.766480005, "bearings": {"42_54_0": -41.674534759403144, "42_52_0": 48.941928714107185, "42_31_0": -131.04932279564457}, "angles": {"42_31_0": 180.00874849024825, "42_54_0": 89.37478803624143, "42_52_0": 90.61646347351032}, "adj_sorted": [[42, 31, 0], [42, 54, 0], [42, 52, 0]], "type": "T", "n_corners": 2}, "geometry": {"type": "Point", "coordinates": [19.058795799999995, 47.509314500000016]}}, {"id": "60", "type": "Feature", "properties": {"x": 5002011.690580933, "y": 2752388.3639885895, "bearings": {"60_54_0": -128.82592663709337, "60_52_0": 138.04028972537458, "60_69_0": -40.71645265920337}, "angles": {"60_54_0": 93.13378363753202, "60_69_0": 88.10947397789, "60_52_0": 178.75674238457793}, "adj_sorted": [[60, 54, 0], [60, 69, 0], [60, 52, 0]], "type": "T", "n_corners": 2}, "geometry": {"type": "Point", "coordinates": [19.06008200000001, 47.509303199999984]}}, {"id": "56", "type": "Feature", "properties": {"x": 5001982.895979498, "y": 2752236.9499856224, "bearings": {"56_46_0": 141.093134078073, "56_69_0": 47.93328554795444, "56_47_0": -138.01470330338555, "56_66_0": -37.843538301762024}, "angles": {"56_47_0": 80.89216261854142, "56_66_0": 100.17116500162352, "56_69_0": 85.77682384971646, "56_46_0": 93.15984853011857}, "adj_sorted": [[56, 47, 0], [56, 66, 0], [56, 69, 0], [56, 46, 0]], "type": "X", "n_corners": 4}, "geometry": {"type": "Point", "coordinates": [19.05946415590601, 47.5079837515719]}}, {"id": "32", "type": "Feature", "properties": {"x": 5001876.045552229, "y": 2752323.1273598117, "bearings": {"32_30_0": -176.01451340157038, "32_46_0": -38.86487480806451, "32_31_0": 93.37613765283827}, "angles": {"32_30_0": 90.60934894559136, "32_46_0": 137.14963859350587, "32_31_0": 132.24101246090277}, "adj_sorted": [[32, 30, 0], [32, 46, 0], [32, 31, 0]], "type": "Y", "n_corners": 3}, "geometry": {"type": "Point", "coordinates": [19.05819068918213, 47.508870227463746]}}, {"id": "47", "type": "Feature", "properties": {"x": 5001933.816999267, "y": 2752186.6639820933, "bearings": {"47_36_0": 138.1022634703364, "47_56_0": 46.64243982311346, "47_49_0": -44.718415064469106}, "angles": {"47_49_0": 177.1793214651945, "47_56_0": 91.36085488758258, "47_36_0": 91.45982364722293}, "adj_sorted": [[47, 49, 0], [47, 56, 0], [47, 36, 0]], "type": "T", "n_corners": 2}, "geometry": {"type": "Point", "coordinates": [19.0587379, 47.50758900000007]}}, {"id": "49", "type": "Feature", "properties": {"x": 5001945.331161192, "y": 2752175.2624422223, "bearings": {"49_21_0": -127.40473255256246, "49_47_0": 135.2815849355309, "49_58_0": -42.32512443086695}, "angles": {"49_21_0": 97.31368251190662, "49_58_0": 85.07960812169551, "49_47_0": 177.60670936639787}, "adj_sorted": [[49, 21, 0], [49, 58, 0], [49, 47, 0]], "type": "T", "n_corners": 2}, "geometry": {"type": "Point", "coordinates": [19.058871799999988, 47.507474600000045]}}, {"id": "69", "type": "Feature", "properties": {"x": 5002077.0249621095, "y": 2752332.1349062338, "bearings": {"69_60_0": 139.28354734079662, "69_56_0": -134.4059523659971, "69_94_0": -43.078936076698554, "69_77_0": 44.41658640350048}, "angles": {"69_56_0": 86.31050029320625, "69_94_0": 91.32701628929856, "69_77_0": 87.49552248019904, "69_60_0": 94.86696093729614}, "adj_sorted": [[69, 56, 0], [69, 94, 0], [69, 77, 0], [69, 60, 0]], "type": "X", "n_corners": 4}, "geometry": {"type": "Point", "coordinates": [19.060855099999998, 47.50872960000003]}}, {"id": "66", "type": "Feature", "properties": {"x": 5002048.712487692, "y": 2752185.817316566, "bearings": {"66_56_0": 142.156461698238, "66_73_0": -38.12119322988513, "66_58_0": -127.60776291929369}, "angles": {"66_58_0": 90.23577538246832, "66_73_0": 89.48656968940855, "66_56_0": 180.27765492812313}, "adj_sorted": [[66, 58, 0], [66, 73, 0], [66, 56, 0]], "type": "T", "n_corners": 2}, "geometry": {"type": "Point", "coordinates": [19.060251617456295, 47.50745510238337]}}, {"id": "94", "type": "Feature", "properties": {"x": 5002279.025497891, "y": 2752143.245393571, "bearings": {"94_69_0": 136.92106392330146, "94_104_0": -41.91183393207963, "94_101_0": 48.94333325793749, "94_87_0": -131.3663545754148}, "angles": {"94_87_0": 91.71258150128375, "94_104_0": 89.45452064333516, "94_101_0": 90.85516719001711, "94_69_0": 87.97773066536396}, "adj_sorted": [[94, 87, 0], [94, 104, 0], [94, 101, 0], [94, 69, 0]], "type": "X", "n_corners": 4}, "geometry": {"type": "Point", "coordinates": [19.063221600000002, 47.506821900000006]}}, {"id": "77", "type": "Feature", "properties": {"x": 5002143.133490597, "y": 2752396.9440827193, "bearings": {"77_69_0": -135.56733494329802, "77_101_0": -42.62651468332553, "77_86_0": 45.0089320473511, "77_62_0": 137.83450364271266}, "angles": {"77_69_0": 86.59816141398932, "77_101_0": 92.9408202599725, "77_86_0": 87.63544673067663, "77_62_0": 92.82557159536157}, "adj_sorted": [[77, 69, 0], [77, 101, 0], [77, 86, 0], [77, 62, 0]], "type": "X", "n_corners": 4}, "geometry": {"type": "Point", "coordinates": [19.061828800000004, 47.50923520000005]}}, {"id": "58", "type": "Feature", "properties": {"x": 5002001.433814118, "y": 2752124.3385816445, "bearings": {"58_49_0": 138.9375331597858, "58_66_0": 52.44358193174716, "58_27_0": -127.40659120711112, "58_65_0": -43.19979218562423}, "angles": {"58_27_0": 93.65587563310305, "58_65_0": 84.20679902148689, "58_66_0": 95.6433741173714, "58_49_0": 86.49395122803864}, "adj_sorted": [[58, 27, 0], [58, 65, 0], [58, 66, 0], [58, 49, 0]], "type": "X", "n_corners": 4}, "geometry": {"type": "Point", "coordinates": [19.059531499999995, 47.506958500000074]}}, {"id": "27", "type": "Feature", "properties": {"x": 5001860.24052759, "y": 2751939.7056338717, "bearings": {"27_20_0": -127.40747476247208, "27_21_0": 142.00846749863703, "27_58_0": 52.579285949263365, "27_43_0": -38.685377441019526}, "angles": {"27_20_0": 90.58405773889092, "27_43_0": 88.72209732145255, "27_58_0": 91.26466339028289, "27_21_0": 89.42918154937367}, "adj_sorted": [[27, 20, 0], [27, 43, 0], [27, 58, 0], [27, 21, 0]], "type": "X", "n_corners": 4}, "geometry": {"type": "Point", "coordinates": [19.057379399999995, 47.50546620000003]}}, {"id": "65", "type": "Feature", "properties": {"x": 5002045.825979199, "y": 2752082.6518668626, "bearings": {"65_58_0": 136.80020781437577, "65_73_0": 45.179570797188994, "65_68_0": -42.89401536838935}, "angles": {"65_68_0": 180.3057768172349, "65_73_0": 88.07358616557835, "65_58_0": 91.62063701718677}, "adj_sorted": [[65, 68, 0], [65, 73, 0], [65, 58, 0]], "type": "T", "n_corners": 2}, "geometry": {"type": "Point", "coordinates": [19.060051299999994, 47.50653770000005]}}, {"id": "73", "type": "Feature", "properties": {"x": 5002104.083383397, "y": 2752142.3679055325, "bearings": {"73_66_0": 141.87880677011486, "73_65_0": -128.49055609021192, "73_87_0": -38.704080953633905}, "angles": {"73_65_0": 89.63063713967324, "73_87_0": 89.78647513657802, "73_66_0": 180.58288772374877}, "adj_sorted": [[73, 65, 0], [73, 87, 0], [73, 66, 0]], "type": "T", "n_corners": 2}, "geometry": {"type": "Point", "coordinates": [19.060913411207444, 47.50700649569156]}}, {"id": "68", "type": "Feature", "properties": {"x": 5002057.689645136, "y": 2752071.6297771647, "bearings": {"68_65_0": 137.10598463161068, "68_74_0": -42.664574955871416, "68_43_0": -127.70667688798818}, "angles": {"68_43_0": 95.18733848040114, "68_74_0": 85.04210193211676, "68_65_0": 179.7705595874821}, "adj_sorted": [[68, 43, 0], [68, 74, 0], [68, 65, 0]], "type": "T", "n_corners": 2}, "geometry": {"type": "Point", "coordinates": [19.060190400000003, 47.50642630000004]}}, {"id": "87", "type": "Feature", "properties": {"x": 5002206.128909221, "y": 2752060.60208918, "bearings": {"87_94_0": 47.9498488676338, "87_73_0": 141.29591904636612, "87_78_0": -131.85101606435884, "87_98_0": -39.417978465751794}, "angles": {"87_78_0": 86.85306488927506, "87_98_0": 92.43303759860706, "87_94_0": 87.36782733338559, "87_73_0": 93.34607017873233}, "adj_sorted": [[87, 78, 0], [87, 98, 0], [87, 94, 0], [87, 73, 0]], "type": "X", "n_corners": 4}, "geometry": {"type": "Point", "coordinates": [19.062130372095833, 47.506164639101755]}}, {"id": "78", "type": "Feature", "properties": {"x": 5002144.076960969, "y": 2751992.220394734, "bearings": {"78_87_0": 47.742580469523794, "78_81_0": -42.801303390486744, "78_74_0": 137.55072961548825}, "angles": {"78_81_0": 179.647966994025, "78_87_0": 90.54388386001054, "78_74_0": 89.80814914596445}, "adj_sorted": [[78, 81, 0], [78, 87, 0], [78, 74, 0]], "type": "T", "n_corners": 2}, "geometry": {"type": "Point", "coordinates": [19.061204599999996, 47.50562270000007]}}, {"id": "81", "type": "Feature", "properties": {"x": 5002164.99911332, "y": 2751972.8453851417, "bearings": {"81_78_0": 137.19869660951326, "81_91_0": -42.17845353037479, "81_80_0": -127.33500876546753}, "angles": {"81_80_0": 95.4662946250192, "81_91_0": 85.15655523509275, "81_78_0": 179.37715013988804}, "adj_sorted": [[81, 80, 0], [81, 91, 0], [81, 78, 0]], "type": "T", "n_corners": 2}, "geometry": {"type": "Point", "coordinates": [19.061450000000004, 47.5054268]}}, {"id": "74", "type": "Feature", "properties": {"x": 5002107.097814828, "y": 2752026.0453550057, "bearings": {"74_68_0": 137.3028787574141, "74_78_0": -42.44927038451176, "74_55_0": -127.08391514189618}, "angles": {"74_55_0": 95.6132061006897, "74_78_0": 84.63464475738442, "74_68_0": 179.75214914192588}, "adj_sorted": [[74, 55, 0], [74, 78, 0], [74, 68, 0]], "type": "T", "n_corners": 2}, "geometry": {"type": "Point", "coordinates": [19.060770200000004, 47.50596520000004]}}, {"id": "98", "type": "Feature", "properties": {"x": 5002312.503448552, "y": 2751973.1691435482, "bearings": {"98_87_0": 140.5820215342482, "98_104_0": 50.39387180937672, "98_111_0": -41.07906527230677, "98_91_0": -127.99404635963862}, "angles": {"98_91_0": 91.42393210611317, "98_111_0": 86.91498108733185, "98_104_0": 91.47293708168348, "98_87_0": 90.1881497248715}, "adj_sorted": [[98, 91, 0], [98, 111, 0], [98, 104, 0], [98, 87, 0]], "type": "X", "n_corners": 4}, "geometry": {"type": "Point", "coordinates": [19.063395460368355, 47.50526743753602]}}, {"id": "104", "type": "Feature", "properties": {"x": 5002377.164290478, "y": 2752054.865791558, "bearings": {"104_94_0": 137.27924131119073, "104_98_0": -128.03014411676534, "104_108_0": 51.37913762768315, "104_119_0": -41.042969770001164}, "angles": {"104_98_0": 94.69061457204396, "104_119_0": 86.98717434676418, "104_108_0": 92.42210739768431, "104_94_0": 85.90010368350758}, "adj_sorted": [[104, 98, 0], [104, 119, 0], [104, 108, 0], [104, 94, 0]], "type": "X", "n_corners": 4}, "geometry": {"type": "Point", "coordinates": [19.064376600000003, 47.50592530000005]}}, {"id": "101", "type": "Feature", "properties": {"x": 5002341.216564367, "y": 2752214.6452888953, "bearings": {"101_94_0": -131.0566667420625, "101_77_0": 137.37775868282944, "101_108_0": -41.64467048024901, "101_107_0": 48.08185270313436}, "angles": {"101_94_0": 91.56557457510803, "101_108_0": 89.4119962618135, "101_107_0": 89.72652318338336, "101_77_0": 89.29590597969508}, "adj_sorted": [[101, 94, 0], [101, 108, 0], [101, 107, 0], [101, 77, 0]], "type": "X", "n_corners": 4}, "geometry": {"type": "Point", "coordinates": [19.064154000000002, 47.507390600000015]}}, {"id": "91", "type": "Feature", "properties": {"x": 5002251.400269579, "y": 2751895.187244252, "bearings": {"91_81_0": 139.3962219347717, "91_98_0": 51.19371001460603, "91_89_0": -129.39682950452755}, "angles": {"91_89_0": 91.20694856070077, "91_98_0": 180.59053951913359, "91_81_0": 88.20251192016565}, "adj_sorted": [[91, 89, 0], [91, 98, 0], [91, 81, 0]], "type": "T", "n_corners": 2}, "geometry": {"type": "Point", "coordinates": [19.062467100000003, 47.50463880000003]}}, {"id": "89", "type": "Feature", "properties": {"x": 5002235.122365421, "y": 2751874.9922999484, "bearings": {"89_91_0": 52.16349741882649, "89_76_0": -128.08873121412373, "89_80_0": 142.69241677529402, "89_90_0": -37.003001131565036}, "angles": {"89_76_0": 89.21885201058228, "89_90_0": 91.08573008255868, "89_91_0": 89.16649855039152, "89_80_0": 90.52891935646753}, "adj_sorted": [[89, 76, 0], [89, 90, 0], [89, 91, 0], [89, 80, 0]], "type": "X", "n_corners": 4}, "geometry": {"type": "Point", "coordinates": [19.0622207, 47.504476500000024]}}, {"id": "111", "type": "Feature", "properties": {"x": 5002446.697450466, "y": 2751846.08658617, "bearings": {"111_98_0": 135.08144851269583, "111_115_0": -45.62235021441009, "111_119_0": 60.002103104557484, "111_105_0": -120.69772673232306}, "angles": {"111_105_0": 104.2208247549811, "111_115_0": 75.07537651791297, "111_119_0": 105.62445331896757, "111_98_0": 75.07934540813835}, "adj_sorted": [[111, 105, 0], [111, 115, 0], [111, 119, 0], [111, 98, 0]], "type": "X", "n_corners": 4}, "geometry": {"type": "Point", "coordinates": [19.064964930627475, 47.50398580978372]}}, {"id": "108", "type": "Feature", "properties": {"x": 5002436.284465609, "y": 2752128.8690746445, "bearings": {"108_104_0": -128.62086237231685, "108_101_0": 134.9941049468356, "108_113_0": 51.46484198239992, "108_116_0": -44.976407478595846}, "angles": {"108_104_0": 96.38503268084753, "108_116_0": 83.644454893721, "108_113_0": 96.44124946099576, "108_101_0": 83.52926296443567}, "adj_sorted": [[108, 104, 0], [108, 116, 0], [108, 113, 0], [108, 101, 0]], "type": "X", "n_corners": 4}, "geometry": {"type": "Point", "coordinates": [19.06527259999999, 47.506520600000016]}}, {"id": "119", "type": "Feature", "properties": {"x": 5002517.44530735, "y": 2751930.3091846025, "bearings": {"119_104_0": 138.34929995013144, "119_111_0": -130.87548065431557, "119_125_0": 47.592773466213714, "119_127_0": -41.109654580227804}, "angles": {"119_111_0": 90.775219395553, "119_127_0": 89.76582607408776, "119_125_0": 88.70242804644153, "119_104_0": 90.75652648391772}, "adj_sorted": [[119, 111, 0], [119, 127, 0], [119, 125, 0], [119, 104, 0]], "type": "X", "n_corners": 4}, "geometry": {"type": "Point", "coordinates": [19.06603029999999, 47.50465950000003]}}, {"id": "115", "type": "Feature", "properties": {"x": 5002502.520336368, "y": 2751789.0376313035, "bearings": {"115_111_0": 134.3776497855899, "115_127_0": 0.979140850303889, "115_102_0": -89.2627207416449}, "angles": {"115_102_0": 136.3596294727652, "115_127_0": 90.24186159194879, "115_111_0": 133.39850893528603}, "adj_sorted": [[115, 102, 0], [115, 127, 0], [115, 111, 0]], "type": "Y", "n_corners": 3}, "geometry": {"type": "Point", "coordinates": [19.065611202949338, 47.50341532565635]}}, {"id": "125", "type": "Feature", "properties": {"x": 5002579.630870795, "y": 2751998.3938187547, "bearings": {"125_119_0": -132.4072265337863, "125_132_0": 48.82921126265729, "125_133_0": -44.51787403001209, "125_116_0": 137.43811045027587}, "angles": {"125_119_0": 90.15466301593784, "125_133_0": 87.8893525037742, "125_132_0": 93.34708529266938, "125_116_0": 88.60889918761859}, "adj_sorted": [[125, 119, 0], [125, 133, 0], [125, 132, 0], [125, 116, 0]], "type": "X", "n_corners": 4}, "geometry": {"type": "Point", "coordinates": [19.066957399999996, 47.50519860000003]}}, {"id": "127", "type": "Feature", "properties": {"x": 5002586.442476659, "y": 2751870.098640521, "bearings": {"127_119_0": 138.89034541977222, "127_115_0": -130.77694169193586, "127_133_0": 48.310007389794485}, "angles": {"127_115_0": 90.3327128882919, "127_133_0": 179.08694908173035, "127_119_0": 90.58033802997772}, "adj_sorted": [[127, 115, 0], [127, 133, 0], [127, 119, 0]], "type": "T", "n_corners": 2}, "geometry": {"type": "Point", "coordinates": [19.066845299999997, 47.504046300000034]}}, {"id": "102", "type": "Feature", "properties": {"x": 5002353.233375042, "y": 2751648.732873371, "bearings": {"102_115_0": 42.35737656733112, "102_96_0": -136.01251860283853, "102_99_0": 136.8467299213944}, "angles": {"102_96_0": 87.14075147576705, "102_115_0": 178.36989517016966, "102_99_0": 94.48935335406327}, "adj_sorted": [[102, 96, 0], [102, 115, 0], [102, 99, 0]], "type": "T", "n_corners": 2}, "geometry": {"type": "Point", "coordinates": [19.0634221, 47.502327600000015]}}, {"id": "96", "type": "Feature", "properties": {"x": 5002290.859630119, "y": 2751586.108701377, "bearings": {"96_102_0": 45.52182681339969, "96_84_0": -128.46035518693424, "96_93_0": 138.22730188215925}, "angles": {"96_84_0": 93.31234293090654, "96_102_0": 173.98218200033392, "96_93_0": 92.70547506875957}, "adj_sorted": [[96, 84, 0], [96, 102, 0], [96, 93, 0]], "type": "T", "n_corners": 2}, "geometry": {"type": "Point", "coordinates": [19.062501199999996, 47.50183740000004]}}, {"id": "99", "type": "Feature", "properties": {"x": 5002319.681338543, "y": 2751680.1888762238, "bearings": {"99_102_0": -43.15327007860561, "99_93_0": -133.50790538270303, "99_90_0": 139.39089303894454}, "angles": {"99_93_0": 87.1012015783524, "99_102_0": 90.35463530409743, "99_90_0": 182.54416311755014}, "adj_sorted": [[99, 93, 0], [99, 102, 0], [99, 90, 0]], "type": "T", "n_corners": 2}, "geometry": {"type": "Point", "coordinates": [19.063029199999992, 47.50264520000004]}}, {"id": "133", "type": "Feature", "properties": {"x": 5002644.178747605, "y": 2751934.9232027372, "bearings": {"133_125_0": 135.48212596998792, "133_127_0": -131.6899926102055, "133_139_0": 49.121878093097095}, "angles": {"133_127_0": 92.82788141980654, "133_139_0": 180.8118707033026, "133_125_0": 86.36024787689082}, "adj_sorted": [[133, 127, 0], [133, 139, 0], [133, 125, 0]], "type": "T", "n_corners": 2}, "geometry": {"type": "Point", "coordinates": [19.067708599999996, 47.50456120000003]}}, {"id": "35", "type": "Feature", "properties": {"x": 5001886.522286708, "y": 2753069.666481404, "bearings": {"35_18_0": -110.52318382793564, "35_82_0": 77.10558087065677, "35_88_0": -18.115148475470175}, "angles": {"35_18_0": 172.37123530140758, "35_88_0": 92.40803535246546, "35_82_0": 95.22072934612694}, "adj_sorted": [[35, 18, 0], [35, 88, 0], [35, 82, 0]], "type": "T", "n_corners": 2}, "geometry": {"type": "Point", "coordinates": [19.059503000000003, 47.51552030000003]}}, {"id": "88", "type": "Feature", "properties": {"x": 5002218.189414544, "y": 2752806.90311095, "bearings": {"88_35_0": 144.47820123631615, "88_79_0": -64.44131416049007, "88_103_0": -11.812802185541367}, "angles": {"88_79_0": 151.08048460319378, "88_103_0": 52.6285119749487, "88_35_0": 156.2910034218575}, "adj_sorted": [[88, 79, 0], [88, 103, 0], [88, 35, 0]], "type": "Y", "n_corners": 3}, "geometry": {"type": "Point", "coordinates": [19.063463599999995, 47.51281080000001]}}, {"id": "79", "type": "Feature", "properties": {"x": 5002145.768022047, "y": 2752642.2691182583, "bearings": {"79_88_0": 137.8063516640451, "79_85_0": 48.50942387208814, "79_95_0": -40.99069853742788, "79_70_0": -131.0204145695464}, "angles": {"79_70_0": 91.17323376640849, "79_95_0": 90.02971603211853, "79_85_0": 89.50012240951602, "79_88_0": 89.29692779195696}, "adj_sorted": [[79, 70, 0], [79, 95, 0], [79, 85, 0], [79, 88, 0]], "type": "X", "n_corners": 4}, "geometry": {"type": "Point", "coordinates": [19.062249499999993, 47.511421400000025]}}, {"id": "103", "type": "Feature", "properties": {"x": 5002365.183670506, "y": 2752890.262340651, "bearings": {"103_88_0": 135.5403361856517, "103_97_0": -130.68079990049512, "103_114_0": -44.71658837395397, "103_109_0": 48.181696425005434}, "angles": {"103_97_0": 93.77886391385317, "103_114_0": 85.96421152654115, "103_109_0": 92.8982847989594, "103_88_0": 87.35863976064627}, "adj_sorted": [[103, 97, 0], [103, 114, 0], [103, 109, 0], [103, 88, 0]], "type": "X", "n_corners": 4}, "geometry": {"type": "Point", "coordinates": [19.06553329999999, 47.51339290000003]}}, {"id": "45", "type": "Feature", "properties": {"x": 5001923.330692235, "y": 2752497.4643479655, "bearings": {"45_23_0": -132.28717218170794, "45_41_0": 127.445627034076, "45_53_0": -43.55619441465695}, "angles": {"45_23_0": 100.26720078421607, "45_53_0": 88.730977767051, "45_41_0": 171.00182144873295}, "adj_sorted": [[45, 23, 0], [45, 53, 0], [45, 41, 0]], "type": "T", "n_corners": 2}, "geometry": {"type": "Point", "coordinates": [19.05908839999999, 47.51037390000005]}}, {"id": "23", "type": "Feature", "properties": {"x": 5001815.240844423, "y": 2752398.695724718, "bearings": {"23_45_0": -42.64082009903581, "23_31_0": -133.90906491152856, "23_34_0": 46.841553516904696}, "angles": {"23_31_0": 179.24938157156674, "23_45_0": 91.26824481249275, "23_34_0": 89.4823736159405}, "adj_sorted": [[23, 31, 0], [23, 45, 0], [23, 34, 0]], "type": "T", "n_corners": 2}, "geometry": {"type": "Point", "coordinates": [19.05750769999999, 47.50961140000003]}}, {"id": "41", "type": "Feature", "properties": {"x": 5001913.698549115, "y": 2752509.1762240306, "bearings": {"41_45_0": -43.3905071030044, "41_37_0": -132.45077049529087, "41_33_0": 136.519414989183}, "angles": {"41_37_0": 91.02981451552614, "41_45_0": 89.06026339228646, "41_33_0": 179.9099220921874}, "adj_sorted": [[41, 37, 0], [41, 45, 0], [41, 33, 0]], "type": "T", "n_corners": 2}, "geometry": {"type": "Point", "coordinates": [19.058979799999992, 47.510489000000035]}}, {"id": "31", "type": "Feature", "properties": {"x": 5001875.53247522, "y": 2752331.824610575, "bearings": {"31_42_0": 49.573624888894955, "31_32_0": -86.62386234716173, "31_23_0": 140.35622498238257}, "angles": {"31_32_0": 133.0199126704557, "31_42_0": 136.1974872360567, "31_23_0": 90.78260009348762}, "adj_sorted": [[31, 32, 0], [31, 42, 0], [31, 23, 0]], "type": "Y", "n_corners": 3}, "geometry": {"type": "Point", "coordinates": [19.058197599999996, 47.50894840000002]}}, {"id": "145", "type": "Feature", "properties": {"x": 5002762.273658236, "y": 2753299.356096708, "bearings": {"145_158_0": 43.552953887153045, "145_131_0": -135.76243147341964, "145_160_0": -42.84514337083492}, "angles": {"145_131_0": 180.6846146394273, "145_160_0": 92.91728810258472, "145_158_0": 86.39809725798796}, "adj_sorted": [[145, 131, 0], [145, 160, 0], [145, 158, 0]], "type": "T", "n_corners": 2}, "geometry": {"type": "Point", "coordinates": [19.071414299999994, 47.51660620000003]}}, {"id": "158", "type": "Feature", "properties": {"x": 5002899.00365729, "y": 2753431.5214258535, "bearings": {"158_145_0": -135.71710528007827, "158_150_0": 134.2828948109939, "158_169_0": -45.71710527981007}, "angles": {"158_145_0": 89.99999990892786, "158_169_0": 90.0000000002682, "158_150_0": 180.00000009080395}, "adj_sorted": [[158, 145, 0], [158, 169, 0], [158, 150, 0]], "type": "T", "n_corners": 2}, "geometry": {"type": "Point", "coordinates": [19.07342577664871, 47.51763494638858]}}, {"id": "131", "type": "Feature", "properties": {"x": 5002631.879524166, "y": 2753172.419920493, "bearings": {"131_145_0": 44.22431340502971, "131_118_0": -135.78461700918695, "131_148_0": -42.777659225692005}, "angles": {"131_118_0": 179.99106958578335, "131_148_0": 93.00695778349494, "131_145_0": 87.00197263072172}, "adj_sorted": [[131, 118, 0], [131, 148, 0], [131, 145, 0]], "type": "T", "n_corners": 2}, "geometry": {"type": "Point", "coordinates": [19.069494699999996, 47.515617100000014]}}, {"id": "160", "type": "Feature", "properties": {"x": 5002904.299716026, "y": 2753166.318560387, "bearings": {"160_145_0": 136.10699548845935, "160_148_0": -135.64493096261072, "160_169_0": 44.34925058759832, "160_168_0": -43.3457589410129}, "angles": {"160_148_0": 88.24807354892994, "160_168_0": 92.29917202159781, "160_169_0": 87.69500952861122, "160_145_0": 91.75774490086103}, "adj_sorted": [[160, 148, 0], [160, 168, 0], [160, 169, 0], [160, 145, 0]], "type": "X", "n_corners": 4}, "geometry": {"type": "Point", "coordinates": [19.073077799999997, 47.515262700000044]}}, {"id": "169", "type": "Feature", "properties": {"x": 5003034.261559827, "y": 2753292.8387033227, "bearings": {"169_158_0": 134.38935503351783, "169_160_0": -137.29906236275247, "169_173_0": -45.61809130602936}, "angles": {"169_160_0": 88.31158260372968, "169_173_0": 91.68097105672311, "169_158_0": 180.0074463395472}, "adj_sorted": [[169, 160, 0], [169, 173, 0], [169, 158, 0]], "type": "T", "n_corners": 2}, "geometry": {"type": "Point", "coordinates": [19.07499109999999, 47.51624850000003]}}, {"id": "173", "type": "Feature", "properties": {"x": 5003139.766225762, "y": 2753185.7809985434, "bearings": {"173_169_0": 135.631545148788, "173_177_0": -43.88668047552858, "173_168_0": -130.68992572668495}, "angles": {"173_168_0": 93.67852912452702, "173_177_0": 86.80324525115637, "173_169_0": 179.51822562431659}, "adj_sorted": [[173, 168, 0], [173, 177, 0], [173, 169, 0]], "type": "T", "n_corners": 2}, "geometry": {"type": "Point", "coordinates": [19.076213799999998, 47.515177]}}, {"id": "174", "type": "Feature", "properties": {"x": 5003147.669203064, "y": 2752456.5661650333, "bearings": {"174_165_0": -144.11338459359936, "174_181_0": 40.83441475294012, "174_164_0": -140.27904959921102, "174_167_0": 144.80418489634474}, "angles": {"174_165_0": 71.08243051005593, "174_164_0": 3.8343349943883425, "174_181_0": 181.11346435215114, "174_167_0": 103.96977014340462}, "adj_sorted": [[174, 165, 0], [174, 164, 0], [174, 181, 0], [174, 167, 0]], "type": "other", "n_corners": 3}, "geometry": {"type": "Point", "coordinates": [19.075168999999995, 47.50866150000002]}}, {"id": "181", "type": "Feature", "properties": {"x": 5003371.902205242, "y": 2752943.269387694, "bearings": {"181_174_0": -46.3142930466204, "181_180_0": 133.3962631558216, "181_178_0": -143.5237596294318}, "angles": {"181_178_0": 83.07997721474658, "181_174_0": 97.20946658281139, "181_180_0": 179.710556202442}, "adj_sorted": [[181, 178, 0], [181, 174, 0], [181, 180, 0]], "type": "T", "n_corners": 2}, "geometry": {"type": "Point", "coordinates": [19.078892900000007, 47.51275730000005]}}, {"id": "164", "type": "Feature", "properties": {"x": 5002974.00198202, "y": 2752311.8319132854, "bearings": {"164_174_0": 40.092926876534534, "164_162_0": -129.87385788305843, "164_157_0": 137.06874889355518}, "angles": {"164_162_0": 93.05739322338638, "164_174_0": 169.96678475959297, "164_157_0": 96.97582201702065}, "adj_sorted": [[164, 162, 0], [164, 174, 0], [164, 157, 0]], "type": "T", "n_corners": 2}, "geometry": {"type": "Point", "coordinates": [19.072650999999997, 47.50756130000001]}}, {"id": "167", "type": "Feature", "properties": {"x": 5003000.052817555, "y": 2752625.198050329, "bearings": {"167_174_0": -49.79622689805015, "167_172_0": 41.02828313182476, "167_163_0": 137.9917710597746, "167_151_0": -139.26289098667522}, "angles": {"167_151_0": 82.74533795355018, "167_174_0": 89.46666408862507, "167_172_0": 90.82451002987492, "167_163_0": 96.96348792794984}, "adj_sorted": [[167, 151, 0], [167, 174, 0], [167, 172, 0], [167, 163, 0]], "type": "X", "n_corners": 4}, "geometry": {"type": "Point", "coordinates": [19.073488100000002, 47.51032880000004]}}, {"id": "162", "type": "Feature", "properties": {"x": 5002929.586229766, "y": 2752258.665407022, "bearings": {"162_164_0": 50.122543243233274, "162_154_0": -132.41776218815832, "162_153_0": 143.53678674150626}, "angles": {"162_154_0": 84.04545107033539, "162_164_0": 182.5403054313916, "162_153_0": 93.41424349827298}, "adj_sorted": [[162, 154, 0], [162, 164, 0], [162, 153, 0]], "type": "T", "n_corners": 2}, "geometry": {"type": "Point", "coordinates": [19.0719816, 47.507135800000015]}}, {"id": "157", "type": "Feature", "properties": {"x": 5002879.9174964195, "y": 2752400.231530794, "bearings": {"157_164_0": -43.42439223414837, "157_153_0": -129.88105225844632, "157_151_0": 136.35151035141587}, "angles": {"157_153_0": 93.76743739013784, "157_164_0": 86.45666002429795, "157_151_0": 179.77590258556424}, "adj_sorted": [[157, 153, 0], [157, 164, 0], [157, 151, 0]], "type": "T", "n_corners": 2}, "geometry": {"type": "Point", "coordinates": [19.0715496, 47.508453700000025]}}, {"id": "172", "type": "Feature", "properties": {"x": 5003122.640662258, "y": 2752731.868324661, "bearings": {"172_167_0": -138.97171686817524, "172_176_0": 41.1578436769118, "172_170_0": 138.7924041683797}, "angles": {"172_167_0": 82.23587896344509, "172_176_0": 180.12956054508703, "172_170_0": 97.63456049146791}, "adj_sorted": [[172, 167, 0], [172, 176, 0], [172, 170, 0]], "type": "T", "n_corners": 2}, "geometry": {"type": "Point", "coordinates": [19.075272700000003, 47.51114560000004]}}, {"id": "163", "type": "Feature", "properties": {"x": 5002968.8752920935, "y": 2752653.278529437, "bearings": {"163_167_0": -42.00822894022541, "163_159_0": 139.04917792708414, "163_170_0": 48.66801559584156}, "angles": {"163_167_0": 178.94259313269043, "163_170_0": 90.67624453606697, "163_159_0": 90.38116233124259}, "adj_sorted": [[163, 167, 0], [163, 170, 0], [163, 159, 0]], "type": "T", "n_corners": 2}, "geometry": {"type": "Point", "coordinates": [19.073121199999992, 47.510613700000036]}}, {"id": "151", "type": "Feature", "properties": {"x": 5002813.098443146, "y": 2752464.1811334626, "bearings": {"151_167_0": 40.73710901332477, "151_157_0": -44.057397814573726, "151_144_0": 135.74121052651782}, "angles": {"151_157_0": 180.20139165890845, "151_167_0": 84.79450682789849, "151_144_0": 95.00410151319305}, "adj_sorted": [[151, 157, 0], [151, 167, 0], [151, 144, 0]], "type": "T", "n_corners": 2}, "geometry": {"type": "Point", "coordinates": [19.070769199999997, 47.50909790000001]}}, {"id": "180", "type": "Feature", "properties": {"x": 5003292.590686813, "y": 2753026.1346478714, "bearings": {"180_181_0": -45.74387925445264, "180_175_0": -132.6637116328106, "180_177_0": 136.10088899415413}, "angles": {"180_175_0": 91.2353993730353, "180_181_0": 86.91983237835795, "180_177_0": 181.84476824860678}, "adj_sorted": [[180, 175, 0], [180, 181, 0], [180, 177, 0]], "type": "T", "n_corners": 2}, "geometry": {"type": "Point", "coordinates": [19.0779776, 47.513584100000024]}}, {"id": "178", "type": "Feature", "properties": {"x": 5003248.220777701, "y": 2752839.034766043, "bearings": {"178_181_0": 40.38153196001588, "178_175_0": 137.2989294968269, "178_176_0": -140.54558827106877}, "angles": {"178_176_0": 82.1554822321043, "178_181_0": 180.92712023108464, "178_175_0": 96.91739753681102}, "adj_sorted": [[178, 176, 0], [178, 181, 0], [178, 175, 0]], "type": "T", "n_corners": 2}, "geometry": {"type": "Point", "coordinates": [19.077097600000005, 47.51196350000002]}}, {"id": "8", "type": "Feature", "properties": {"x": 5001710.67131218, "y": 2751624.712176711, "bearings": {"8_7_0": 95.27172340701023, "8_9_0": -84.72201247703019, "8_26_0": 51.789015593352055}, "angles": {"8_9_0": 180.0062641159596, "8_26_0": 136.51102807038225, "8_7_0": 43.48270781365817}, "adj_sorted": [[8, 9, 0], [8, 26, 0], [8, 7, 0]], "type": "Y", "n_corners": 2}, "geometry": {"type": "Point", "coordinates": [19.0549121, 47.50281980000004]}}, {"id": "9", "type": "Feature", "properties": {"x": 5001716.614781095, "y": 2751567.4058997296, "bearings": {"9_8_0": 96.08311084088888, "9_15_0": 6.964308028820735, "9_10_0": -83.57642639574857}, "angles": {"9_10_0": 180.34046276336255, "9_15_0": 90.54073442456931, "9_8_0": 89.11880281206814}, "adj_sorted": [[9, 10, 0], [9, 15, 0], [9, 8, 0]], "type": "T", "n_corners": 2}, "geometry": {"type": "Point", "coordinates": [19.054900400000005, 47.50230190000005]}}, {"id": "26", "type": "Feature", "properties": {"x": 5001850.420509197, "y": 2751803.5131180505, "bearings": {"26_20_0": 135.99207150221213, "26_8_0": -127.66737713079813, "26_43_0": 52.29726096860729, "26_39_0": -43.93206897666642}, "angles": {"26_8_0": 96.34055136698976, "26_39_0": 83.7353081541317, "26_43_0": 96.22932994527372, "26_20_0": 83.69481053360484}, "adj_sorted": [[26, 8, 0], [26, 39, 0], [26, 43, 0], [26, 20, 0]], "type": "X", "n_corners": 4}, "geometry": {"type": "Point", "coordinates": [19.057035800000005, 47.50426170000003]}}, {"id": "15", "type": "Feature", "properties": {"x": 5001745.942784771, "y": 2751572.5646719993, "bearings": {"15_9_0": -168.22428834004182, "15_19_0": -23.49494970478972, "15_39_0": 50.56848141420684}, "angles": {"15_9_0": 141.20723024575133, "15_19_0": 144.7293386352521, "15_39_0": 74.06343111899656}, "adj_sorted": [[15, 9, 0], [15, 19, 0], [15, 39, 0]], "type": "Y", "n_corners": 3}, "geometry": {"type": "Point", "coordinates": [19.05529519999999, 47.50231570000007]}}, {"id": "10", "type": "Feature", "properties": {"x": 5001727.977577381, "y": 2751466.47916737, "bearings": {"10_9_0": 96.42357360425144, "10_11_0": -83.96438524920474, "10_19_0": 51.26121922213892}, "angles": {"10_11_0": 179.61204114654382, "10_19_0": 135.22560447134367, "10_9_0": 45.162354382112525}, "adj_sorted": [[10, 11, 0], [10, 19, 0], [10, 9, 0]], "type": "Y", "n_corners": 2}, "geometry": {"type": "Point", "coordinates": [19.054891599999998, 47.50138880000006]}}, {"id": "61", "type": "Feature", "properties": {"x": 5002014.676780438, "y": 2751256.7896295274, "bearings": {"61_17_0": -132.02513888879258, "61_44_0": 133.37041137668135, "61_75_0": 44.518849030879956}, "angles": {"61_17_0": 94.60444973452604, "61_75_0": 176.54398791967253, "61_44_0": 88.8515623458014}, "adj_sorted": [[61, 17, 0], [61, 75, 0], [61, 44, 0]], "type": "T", "n_corners": 2}, "geometry": {"type": "Point", "coordinates": [19.058342, 47.49920250000002]}}, {"id": "17", "type": "Feature", "properties": {"x": 5001752.5270414315, "y": 2751222.8487178152, "bearings": {"17_61_0": -84.8331494093855, "17_16_0": 95.32913214390219, "17_44_0": 5.974284771864086}, "angles": {"17_61_0": 179.8377184467123, "17_44_0": 90.80743418124959, "17_16_0": 89.3548473720381}, "adj_sorted": [[17, 61, 0], [17, 44, 0], [17, 16, 0]], "type": "T", "n_corners": 2}, "geometry": {"type": "Point", "coordinates": [19.05483239999999, 47.49918780000004]}}, {"id": "44", "type": "Feature", "properties": {"x": 5001919.983022692, "y": 2751354.0390530517, "bearings": {"44_61_0": -29.859160979688777, "44_17_0": -137.38037351618422, "44_28_0": 152.6666340324892, "44_59_0": 43.17476742909072}, "angles": {"44_17_0": 69.95299245132657, "44_61_0": 107.52121253649544, "44_59_0": 73.0339284087795, "44_28_0": 109.49186660339849}, "adj_sorted": [[44, 17, 0], [44, 61, 0], [44, 59, 0], [44, 28, 0]], "type": "X", "n_corners": 4}, "geometry": {"type": "Point", "coordinates": [19.057246399999993, 47.500174400000006]}}, {"id": "75", "type": "Feature", "properties": {"x": 5002121.198330582, "y": 2751362.616010459, "bearings": {"75_61_0": -135.1091199933715, "75_84_0": 46.33509305665664, "75_59_0": 137.36044096318744}, "angles": {"75_61_0": 87.53043904344105, "75_84_0": 181.44421305002814, "75_59_0": 91.02534790653081}, "adj_sorted": [[75, 61, 0], [75, 84, 0], [75, 59, 0]], "type": "T", "n_corners": 2}, "geometry": {"type": "Point", "coordinates": [19.059912799999996, 47.500029700000034]}}, {"id": "16", "type": "Feature", "properties": {"x": 5001749.196669592, "y": 2751258.68019042, "bearings": {"16_17_0": -84.73476308438151, "16_13_0": 95.83594660486172, "16_28_0": 54.89829277764435}, "angles": {"16_17_0": 179.42929031075676, "16_28_0": 139.63305586202586, "16_13_0": 40.93765382721737}, "adj_sorted": [[16, 17, 0], [16, 28, 0], [16, 13, 0]], "type": "Y", "n_corners": 2}, "geometry": {"type": "Point", "coordinates": [19.054844799999994, 47.49951120000001]}}, {"id": "84", "type": "Feature", "properties": {"x": 5002200.2793319905, "y": 2751469.6128015774, "bearings": {"84_96_0": 54.08437052022216, "84_75_0": -125.77771598063303, "84_71_0": 139.3948442649492}, "angles": {"84_75_0": 94.82743975441775, "84_96_0": 179.86208650085518, "84_71_0": 85.31047374472703}, "adj_sorted": [[84, 75, 0], [84, 96, 0], [84, 71, 0]], "type": "T", "n_corners": 2}, "geometry": {"type": "Point", "coordinates": [19.0611237, 47.50089750000001]}}, {"id": "59", "type": "Feature", "properties": {"x": 5002009.685303234, "y": 2751465.299680789, "bearings": {"59_44_0": -126.7923393433732, "59_75_0": -42.63955903681256, "59_67_0": 54.61794157446545, "59_50_0": 139.8456326667969}, "angles": {"59_44_0": 93.36202798982993, "59_75_0": 84.15278030656064, "59_67_0": 97.257500611278, "59_50_0": 85.22769109233144}, "adj_sorted": [[59, 44, 0], [59, 75, 0], [59, 67, 0], [59, 50, 0]], "type": "X", "n_corners": 4}, "geometry": {"type": "Point", "coordinates": [19.058603999999995, 47.50106860000002]}}, {"id": "71", "type": "Feature", "properties": {"x": 5002085.779209936, "y": 2751567.7691490413, "bearings": {"71_84_0": -40.60515573505083, "71_72_0": 51.695175319569884, "71_67_0": -128.3025285353193}, "angles": {"71_67_0": 180.0022961451108, "71_84_0": 87.69737280026848, "71_72_0": 92.30033105462071}, "adj_sorted": [[71, 67, 0], [71, 84, 0], [71, 72, 0]], "type": "T", "n_corners": 2}, "geometry": {"type": "Point", "coordinates": [19.059768399999992, 47.50189930000002]}}, {"id": "93", "type": "Feature", "properties": {"x": 5002260.8895078795, "y": 2751612.907577164, "bearings": {"93_96_0": -41.80861920673248, "93_99_0": 49.59658236465108, "93_83_0": 137.7826984281553}, "angles": {"93_96_0": 180.4086823651122, "93_99_0": 91.40520157138356, "93_83_0": 88.18611606350422}, "adj_sorted": [[93, 96, 0], [93, 99, 0], [93, 83, 0]], "type": "T", "n_corners": 2}, "geometry": {"type": "Point", "coordinates": [19.062148199999996, 47.50210950000005]}}, {"id": "146", "type": "Feature", "properties": {"x": 5002770.773421439, "y": 2752371.1533659156, "bearings": {"146_137_0": 147.5355930134203, "146_153_0": -32.4109082392401, "146_138_0": -130.94060169812482}, "angles": {"146_138_0": 81.52380528845487, "146_153_0": 98.52969345888472, "146_137_0": 179.94650125266043}, "adj_sorted": [[146, 138, 0], [146, 153, 0], [146, 137, 0]], "type": "T", "n_corners": 2}, "geometry": {"type": "Point", "coordinates": [19.070064599999995, 47.508314399999996]}}, {"id": "137", "type": "Feature", "properties": {"x": 5002675.673806713, "y": 2752431.761009594, "bearings": {"137_146_0": -32.868376790905096, "137_129_0": -128.57357327055286, "137_126_0": 147.19402793288896, "137_144_0": 51.88619704806441}, "angles": {"137_129_0": 84.23239879655819, "137_146_0": 95.70519647964775, "137_144_0": 84.7545738389695, "137_126_0": 95.30783088482454}, "adj_sorted": [[137, 129, 0], [137, 146, 0], [137, 144, 0], [137, 126, 0]], "type": "X", "n_corners": 4}, "geometry": {"type": "Point", "coordinates": [19.068906000000002, 47.50895990000004]}}, {"id": "153", "type": "Feature", "properties": {"x": 5002826.211383567, "y": 2752335.9565582518, "bearings": {"153_162_0": -36.89999461969336, "153_157_0": 50.11894774155367, "153_146_0": 147.5890917607599, "153_143_0": -129.88064892538864}, "angles": {"153_143_0": 82.53025931385145, "153_162_0": 92.98065430569528, "153_157_0": 87.01894236124703, "153_146_0": 97.47014401920624}, "adj_sorted": [[153, 143, 0], [153, 162, 0], [153, 157, 0], [153, 146, 0]], "type": "X", "n_corners": 4}, "geometry": {"type": "Point", "coordinates": [19.07074019999999, 47.50793930000002]}}, {"id": "138", "type": "Feature", "properties": {"x": 5002695.786269456, "y": 2752284.7096851864, "bearings": {"138_146_0": 49.059398301875184, "138_143_0": -39.83576322220961, "138_129_0": 138.69839964966638}, "angles": {"138_143_0": 181.465837128124, "138_146_0": 88.89516152408478, "138_129_0": 89.63900134779121}, "adj_sorted": [[138, 143, 0], [138, 146, 0], [138, 129, 0]], "type": "T", "n_corners": 2}, "geometry": {"type": "Point", "coordinates": [19.068939700000005, 47.5076256]}}, {"id": "129", "type": "Feature", "properties": {"x": 5002614.97615814, "y": 2752355.6544100484, "bearings": {"129_137_0": 51.42642672944714, "129_138_0": -40.6863554306313, "129_122_0": -128.30823085501538, "129_120_0": 141.95226744427848}, "angles": {"129_122_0": 89.73950170070611, "129_138_0": 87.62187542438409, "129_137_0": 92.11278216007844, "129_120_0": 90.52584071483133}, "adj_sorted": [[129, 122, 0], [129, 138, 0], [129, 137, 0], [129, 120, 0]], "type": "X", "n_corners": 4}, "geometry": {"type": "Point", "coordinates": [19.067985800000002, 47.50834760000002]}}, {"id": "126", "type": "Feature", "properties": {"x": 5002583.76098694, "y": 2752490.2751847035, "bearings": {"126_137_0": -32.431256604443455, "126_117_0": 138.71392186810883, "126_130_0": 49.62198014070247, "126_120_0": -130.00519332187204}, "angles": {"126_120_0": 91.28088481001913, "126_137_0": 97.57393671742858, "126_130_0": 82.05323674514592, "126_117_0": 89.09194172740635}, "adj_sorted": [[126, 120, 0], [126, 137, 0], [126, 130, 0], [126, 117, 0]], "type": "X", "n_corners": 4}, "geometry": {"type": "Point", "coordinates": [19.0677861, 47.50958320000003]}}, {"id": "144", "type": "Feature", "properties": {"x": 5002749.532003139, "y": 2752524.083538638, "bearings": {"144_151_0": -43.939176830571924, "144_137_0": -127.6173877539242, "144_159_0": 52.47128599120062, "144_136_0": 136.52294836367162}, "angles": {"144_137_0": 95.85966388240416, "144_151_0": 83.67821092335228, "144_159_0": 96.41046282177254, "144_136_0": 84.051662372471}, "adj_sorted": [[144, 137, 0], [144, 151, 0], [144, 159, 0], [144, 136, 0]], "type": "X", "n_corners": 4}, "geometry": {"type": "Point", "coordinates": [19.0700253, 47.509702400000066]}}, {"id": "161", "type": "Feature", "properties": {"x": 5002912.133255412, "y": 2752918.6820192947, "bearings": {"161_166_0": -41.88173530391999, "161_152_0": -126.81118933805018, "161_168_0": 49.82054143600957, "161_156_0": 138.29405763372907}, "angles": {"161_152_0": 94.89475302822075, "161_166_0": 84.9294540341302, "161_168_0": 91.70227673992956, "161_156_0": 88.4735161977195}, "adj_sorted": [[161, 152, 0], [161, 166, 0], [161, 168, 0], [161, 156, 0]], "type": "X", "n_corners": 4}, "geometry": {"type": "Point", "coordinates": [19.072791000000002, 47.51304440000002]}}, {"id": "166", "type": "Feature", "properties": {"x": 5002999.49771941, "y": 2752839.327550073, "bearings": {"166_161_0": 135.2107279338558, "166_170_0": -40.18599725473705, "166_159_0": -128.3383862372966, "166_171_0": 51.44069314913759}, "angles": {"166_159_0": 96.45088582884762, "166_170_0": 88.15238898255953, "166_171_0": 91.62669040387465, "166_161_0": 83.7700347847182}, "adj_sorted": [[166, 159, 0], [166, 170, 0], [166, 171, 0], [166, 161, 0]], "type": "X", "n_corners": 4}, "geometry": {"type": "Point", "coordinates": [19.07381809999999, 47.51224010000004]}}, {"id": "168", "type": "Feature", "properties": {"x": 5003024.990895368, "y": 2753052.3468920295, "bearings": {"168_160_0": 136.6394002418051, "168_173_0": 49.29950523595219, "168_161_0": -130.1019033679532, "168_171_0": -43.34107709825113}, "angles": {"168_161_0": 93.25869639024165, "168_171_0": 86.76082626970208, "168_173_0": 92.64058233420332, "168_160_0": 87.33989500585292}, "adj_sorted": [[168, 161, 0], [168, 171, 0], [168, 173, 0], [168, 160, 0]], "type": "X", "n_corners": 4}, "geometry": {"type": "Point", "coordinates": [19.074489900000003, 47.5141128]}}, {"id": "156", "type": "Feature", "properties": {"x": 5002850.319714209, "y": 2752973.767376685, "bearings": {"156_161_0": -41.70594236627095, "156_142_0": -132.08229736428873, "156_148_0": 138.6773118459233}, "angles": {"156_142_0": 89.24039078978797, "156_161_0": 90.37635499801777, "156_148_0": 180.38325421219426}, "adj_sorted": [[156, 142, 0], [156, 161, 0], [156, 148, 0]], "type": "T", "n_corners": 2}, "geometry": {"type": "Point", "coordinates": [19.07206259999999, 47.51360400000004]}}, {"id": "170", "type": "Feature", "properties": {"x": 5003074.823067472, "y": 2752773.7406633846, "bearings": {"170_172_0": -41.20759583162029, "170_163_0": -131.33198440415845, "170_166_0": 138.78884295076887, "170_175_0": 49.69876600168827}, "angles": {"170_163_0": 89.87917264507269, "170_172_0": 90.12438857253815, "170_175_0": 90.90636183330855, "170_166_0": 89.0900769490806}, "adj_sorted": [[170, 163, 0], [170, 172, 0], [170, 175, 0], [170, 166, 0]], "type": "X", "n_corners": 4}, "geometry": {"type": "Point", "coordinates": [19.0747081, 47.51157190000001]}}, {"id": "159", "type": "Feature", "properties": {"x": 5002900.243094521, "y": 2752713.6859257054, "bearings": {"159_163_0": -42.67938861011486, "159_144_0": -128.68479021256812, "159_166_0": 52.217340458897844}, "angles": {"159_144_0": 179.09786932853405, "159_163_0": 86.00540160245325, "159_166_0": 94.89672906901271}, "adj_sorted": [[159, 144, 0], [159, 163, 0], [159, 166, 0]], "type": "T", "n_corners": 2}, "geometry": {"type": "Point", "coordinates": [19.0723113, 47.511228300000056]}}, {"id": "171", "type": "Feature", "properties": {"x": 5003106.765478463, "y": 2752973.895459321, "bearings": {"171_166_0": -128.5593068508624, "171_168_0": 133.28264254974457, "171_177_0": 52.8911422141764, "171_175_0": -46.71809395072663}, "angles": {"171_166_0": 98.15805059939305, "171_175_0": 81.84121290013579, "171_177_0": 99.60923616490302, "171_168_0": 80.39150033556817}, "adj_sorted": [[171, 166, 0], [171, 175, 0], [171, 177, 0], [171, 168, 0]], "type": "X", "n_corners": 4}, "geometry": {"type": "Point", "coordinates": [19.075444700000002, 47.513322700000046]}}, {"id": "175", "type": "Feature", "properties": {"x": 5003182.014265621, "y": 2752900.130667356, "bearings": {"175_180_0": 48.853150030516176, "175_178_0": -42.70107050317312, "175_170_0": -130.30123399831174, "175_171_0": 135.95002923413438}, "angles": {"175_170_0": 93.74873676755385, "175_178_0": 87.60016349513862, "175_180_0": 91.55422053368929, "175_171_0": 87.0968792036182}, "adj_sorted": [[175, 170, 0], [175, 178, 0], [175, 180, 0], [175, 171, 0]], "type": "X", "n_corners": 4}, "geometry": {"type": "Point", "coordinates": [19.076320799999994, 47.51258160000004]}}, {"id": "177", "type": "Feature", "properties": {"x": 5003216.179751237, "y": 2753112.0934309233, "bearings": {"177_173_0": 136.02397454387705, "177_180_0": -43.08798941478218, "177_171_0": -128.19768828725313}, "angles": {"177_171_0": 95.77833716886983, "177_180_0": 85.10969887247094, "177_173_0": 179.11196395865923}, "adj_sorted": [[177, 171, 0], [177, 180, 0], [177, 173, 0]], "type": "T", "n_corners": 2}, "geometry": {"type": "Point", "coordinates": [19.077105399999997, 47.5144353]}}, {"id": "176", "type": "Feature", "properties": {"x": 5003197.226731807, "y": 2752797.0666195047, "bearings": {"176_172_0": -138.8421563230882, "176_178_0": 39.45441172893124, "176_179_0": -49.23897531737172}, "angles": {"176_172_0": 181.70343194798056, "176_179_0": 89.6031810057165, "176_178_0": 88.69338704630296}, "adj_sorted": [[176, 172, 0], [176, 179, 0], [176, 178, 0]], "type": "T", "n_corners": 2}, "geometry": {"type": "Point", "coordinates": [19.076359000000004, 47.51164519999999]}}, {"id": "13", "type": "Feature", "properties": {"x": 5001738.900864613, "y": 2751359.502898998, "bearings": {"13_16_0": -84.17244269480697, "13_22_0": 20.050114462950305, "13_11_0": 95.71674784265447}, "angles": {"13_16_0": 180.11080946253855, "13_22_0": 104.22255715775728, "13_11_0": 75.66663337970417}, "adj_sorted": [[13, 16, 0], [13, 22, 0], [13, 11, 0]], "type": "T", "n_corners": 2}, "geometry": {"type": "Point", "coordinates": [19.0548675, 47.50042220000001]}}, {"id": "22", "type": "Feature", "properties": {"x": 5001806.480547566, "y": 2751430.246802669, "bearings": {"22_13_0": -130.0133638437182, "22_24_0": 50.67179202076544, "22_11_0": -178.6738279960989}, "angles": {"22_11_0": 130.65437998313564, "22_13_0": 48.66046415238071, "22_24_0": 180.68515586448365}, "adj_sorted": [[22, 11, 0], [22, 13, 0], [22, 24, 0]], "type": "Y", "n_corners": 2}, "geometry": {"type": "Point", "coordinates": [19.05586970000001, 47.50097920000007]}}, {"id": "11", "type": "Feature", "properties": {"x": 5001731.982964778, "y": 2751428.61277435, "bearings": {"11_10_0": 96.08777298406963, "11_13_0": -84.28724929059935, "11_22_0": 0.877076675696328}, "angles": {"11_13_0": 179.624977725331, "11_22_0": 85.16432596629568, "11_10_0": 95.2106963083733}, "adj_sorted": [[11, 13, 0], [11, 22, 0], [11, 10, 0]], "type": "T", "n_corners": 2}, "geometry": {"type": "Point", "coordinates": [19.054884900000005, 47.50104650000001]}}, {"id": "28", "type": "Feature", "properties": {"x": 5001863.295033973, "y": 2751408.881773909, "bearings": {"28_44_0": -43.5217884192766, "28_16_0": -128.699213448781, "28_24_0": 139.23797088661865, "28_40_0": 51.4743174283903}, "angles": {"28_16_0": 92.06281566460035, "28_44_0": 85.1774250295044, "28_40_0": 94.9961058476669, "28_24_0": 87.76365345822836}, "adj_sorted": [[28, 16, 0], [28, 44, 0], [28, 40, 0], [28, 24, 0]], "type": "X", "n_corners": 4}, "geometry": {"type": "Point", "coordinates": [19.0565852, 47.500726100000016]}}, {"id": "24", "type": "Feature", "properties": {"x": 5001819.736070543, "y": 2751446.4256295003, "bearings": {"24_22_0": -129.32820797923458, "24_28_0": -40.75221268726976, "24_29_0": 49.82936185657466}, "angles": {"24_22_0": 180.84243016419077, "24_28_0": 88.57599529196482, "24_29_0": 90.58157454384443}, "adj_sorted": [[24, 22, 0], [24, 28, 0], [24, 29, 0]], "type": "T", "n_corners": 2}, "geometry": {"type": "Point", "coordinates": [19.056069899999994, 47.50110900000002]}}, {"id": "40", "type": "Feature", "properties": {"x": 5001908.430382116, "y": 2751465.566195133, "bearings": {"40_28_0": -128.54674225441389, "40_50_0": 50.8577325872857, "40_29_0": 142.3347352244354}, "angles": {"40_28_0": 89.11852252115068, "40_50_0": 179.4044748416996, "40_29_0": 91.4770026371497}, "adj_sorted": [[40, 28, 0], [40, 50, 0], [40, 29, 0]], "type": "T", "n_corners": 2}, "geometry": {"type": "Point", "coordinates": [19.057269399999992, 47.50118230000002]}}, {"id": "29", "type": "Feature", "properties": {"x": 5001865.686092435, "y": 2751500.8566930094, "bearings": {"29_24_0": -130.17063814342535, "29_40_0": -40.10634286648908, "29_51_0": 49.32907329542943}, "angles": {"29_24_0": 180.50028856114523, "29_40_0": 90.06429527693626, "29_51_0": 89.43541616191851}, "adj_sorted": [[29, 24, 0], [29, 40, 0], [29, 51, 0]], "type": "T", "n_corners": 2}, "geometry": {"type": "Point", "coordinates": [19.056761300000005, 47.50154420000003]}}, {"id": "50", "type": "Feature", "properties": {"x": 5001949.464882079, "y": 2751516.0529622105, "bearings": {"50_59_0": -39.99007122820708, "50_40_0": -129.1460015772476, "50_57_0": 50.9360588261399}, "angles": {"50_40_0": 179.91793959661248, "50_59_0": 89.15593034904052, "50_57_0": 90.92613005434697}, "adj_sorted": [[50, 40, 0], [50, 59, 0], [50, 57, 0]], "type": "T", "n_corners": 2}, "geometry": {"type": "Point", "coordinates": [19.05788979999999, 47.501587700000016]}}, {"id": "149", "type": "Feature", "properties": {"x": 5002787.451436119, "y": 2752097.5904494124, "bearings": {"149_154_0": 48.7565389343975, "149_140_0": 139.92147021348066, "149_139_0": -131.7804428937656}, "angles": {"149_139_0": 88.29808689275376, "149_154_0": 180.5369818281631, "149_140_0": 91.16493127908316}, "adj_sorted": [[149, 139, 0], [149, 154, 0], [149, 140, 0]], "type": "T", "n_corners": 2}, "geometry": {"type": "Point", "coordinates": [19.069853799999997, 47.50585500000004]}}, {"id": "154", "type": "Feature", "properties": {"x": 5002839.862639957, "y": 2752157.3677339847, "bearings": {"154_162_0": 48.567218662598364, "154_149_0": -131.2434610656025, "154_147_0": 137.62868979586676}, "angles": {"154_149_0": 91.12784913853073, "154_162_0": 179.81067972820085, "154_147_0": 89.0614711332684}, "adj_sorted": [[154, 149, 0], [154, 162, 0], [154, 147, 0]], "type": "T", "n_corners": 2}, "geometry": {"type": "Point", "coordinates": [19.070638999999996, 47.506330700000035]}}, {"id": "140", "type": "Feature", "properties": {"x": 5002719.166921972, "y": 2752155.129585283, "bearings": {"140_149_0": -40.121451774140155, "140_147_0": 48.48160319385964, "140_122_0": 139.64339248876132, "140_132_0": -131.9994644433428}, "angles": {"140_132_0": 88.35714306789589, "140_149_0": 91.87801266920263, "140_147_0": 88.6030549679998, "140_122_0": 91.16178929490168}, "adj_sorted": [[140, 132, 0], [140, 149, 0], [140, 147, 0], [140, 122, 0]], "type": "X", "n_corners": 4}, "geometry": {"type": "Point", "coordinates": [19.069043999999998, 47.50644360000002]}}, {"id": "139", "type": "Feature", "properties": {"x": 5002708.43476191, "y": 2752009.1596348286, "bearings": {"139_133_0": -130.87812190690292, "139_149_0": 48.16902691937904, "139_132_0": 137.28174991872302}, "angles": {"139_133_0": 91.84012817437406, "139_149_0": 179.04714882628195, "139_132_0": 89.11272299934399}, "adj_sorted": [[139, 133, 0], [139, 149, 0], [139, 132, 0]], "type": "T", "n_corners": 2}, "geometry": {"type": "Point", "coordinates": [19.068672699999997, 47.50515290000005]}}, {"id": "147", "type": "Feature", "properties": {"x": 5002774.186423816, "y": 2752217.323703731, "bearings": {"147_154_0": -42.39384696075128, "147_140_0": -131.4963178100115, "147_143_0": 137.75234073953067}, "angles": {"147_140_0": 90.75134145045786, "147_154_0": 89.10247084926021, "147_143_0": 180.14618770028196}, "adj_sorted": [[147, 140, 0], [147, 154, 0], [147, 143, 0]], "type": "T", "n_corners": 2}, "geometry": {"type": "Point", "coordinates": [19.069867399999996, 47.506937999999984]}}, {"id": "143", "type": "Feature", "properties": {"x": 5002747.408692033, "y": 2752241.6448862543, "bearings": {"143_153_0": 50.11935107461136, "143_138_0": 140.1642367777904, "143_147_0": -42.24765926046935}, "angles": {"143_147_0": 177.58810396174027, "143_153_0": 92.3670103350807, "143_138_0": 90.04488570317903}, "adj_sorted": [[143, 147, 0], [143, 153, 0], [143, 138, 0]], "type": "T", "n_corners": 2}, "geometry": {"type": "Point", "coordinates": [19.069552600000005, 47.50718450000002]}}, {"id": "122", "type": "Feature", "properties": {"x": 5002561.709345461, "y": 2752287.3573958236, "bearings": {"122_129_0": 51.14921893816239, "122_140_0": -42.2748253940126, "122_113_0": -128.14288009774995, "122_112_0": 137.75877773494275}, "angles": {"122_113_0": 94.0983421673073, "122_140_0": 85.86805470373736, "122_129_0": 93.42404433217499, "122_112_0": 86.60955879678036}, "adj_sorted": [[122, 113, 0], [122, 140, 0], [122, 129, 0], [122, 112, 0]], "type": "X", "n_corners": 4}, "geometry": {"type": "Point", "coordinates": [19.06717589999999, 47.50779680000005]}}, {"id": "132", "type": "Feature", "properties": {"x": 5002642.38564335, "y": 2752070.1469712066, "bearings": {"132_125_0": -131.17306412661986, "132_140_0": 47.89922642965012, "132_139_0": -42.718250081276985, "132_123_0": 138.7260756519518}, "angles": {"132_125_0": 90.10086022142832, "132_139_0": 88.45481404534289, "132_140_0": 90.6174765109271, "132_123_0": 90.82684922230166}, "adj_sorted": [[132, 125, 0], [132, 139, 0], [132, 140, 0], [132, 123, 0]], "type": "X", "n_corners": 4}, "geometry": {"type": "Point", "coordinates": [19.067897800000004, 47.50576980000001]}}, {"id": "120", "type": "Feature", "properties": {"x": 5002531.000033124, "y": 2752427.408701642, "bearings": {"120_129_0": -40.76942725557826, "120_126_0": 49.99480667812796, "120_112_0": -131.55528293182647, "120_100_0": 139.33387585038952}, "angles": {"120_112_0": 89.11084121778401, "120_129_0": 90.78585567624822, "120_126_0": 90.76423393370621, "120_100_0": 89.33906917226156}, "adj_sorted": [[120, 112, 0], [120, 129, 0], [120, 126, 0], [120, 100, 0]], "type": "X", "n_corners": 4}, "geometry": {"type": "Point", "coordinates": [19.0669914, 47.50908030000007]}}, {"id": "113", "type": "Feature", "properties": {"x": 5002493.525577534, "y": 2752200.747570349, "bearings": {"113_108_0": -128.64320645090567, "113_122_0": 52.15863213141743, "113_107_0": 137.29789620198062, "113_123_0": -42.700380684932256}, "angles": {"113_108_0": 94.05889734711371, "113_123_0": 85.94282576597341, "113_122_0": 94.85901281634969, "113_107_0": 85.1392640705632}, "adj_sorted": [[113, 108, 0], [113, 123, 0], [113, 122, 0], [113, 107, 0]], "type": "X", "n_corners": 4}, "geometry": {"type": "Point", "coordinates": [19.066140499999992, 47.50709900000003]}}, {"id": "112", "type": "Feature", "properties": {"x": 5002473.71536048, "y": 2752362.7859067116, "bearings": {"112_122_0": -40.27782363809725, "112_120_0": 48.444717068173546, "112_107_0": -131.71680072003318, "112_95_0": 138.58000098332914}, "angles": {"112_107_0": 89.70319829663765, "112_122_0": 91.43897708193592, "112_120_0": 88.72254070627079, "112_95_0": 90.1352839151556}, "adj_sorted": [[112, 107, 0], [112, 122, 0], [112, 120, 0], [112, 95, 0]], "type": "X", "n_corners": 4}, "geometry": {"type": "Point", "coordinates": [19.06613430000001, 47.508566700000046]}}, {"id": "100", "type": "Feature", "properties": {"x": 5002337.830404963, "y": 2752593.362187485, "bearings": {"100_120_0": -40.66612414961048, "100_95_0": -134.5683373661923, "100_85_0": 138.97230443136493, "100_106_0": 46.095797003851224}, "angles": {"100_95_0": 86.45935820244279, "100_120_0": 93.90221321658183, "100_106_0": 86.76192115346171, "100_85_0": 92.8765074275137}, "adj_sorted": [[100, 95, 0], [100, 120, 0], [100, 106, 0], [100, 85, 0]], "type": "X", "n_corners": 4}, "geometry": {"type": "Point", "coordinates": [19.064705299999996, 47.51077370000001]}}, {"id": "136", "type": "Feature", "properties": {"x": 5002674.477052184, "y": 2752596.062228959, "bearings": {"136_144_0": -45.83260711903373, "136_141_0": 45.390266568234686, "136_130_0": -130.83580864342062, "136_128_0": 136.6116811335494}, "angles": {"136_130_0": 92.55251022302997, "136_144_0": 85.0032015243869, "136_141_0": 91.22287368726842, "136_128_0": 91.22141456531472}, "adj_sorted": [[136, 130, 0], [136, 144, 0], [136, 141, 0], [136, 128, 0]], "type": "X", "n_corners": 4}, "geometry": {"type": "Point", "coordinates": [19.069148900000005, 47.510427300000046]}}, {"id": "117", "type": "Feature", "properties": {"x": 5002510.763643173, "y": 2752554.3734983304, "bearings": {"117_126_0": -41.286078131891195, "117_106_0": 139.6329131356226, "117_121_0": 52.915091019653495}, "angles": {"117_126_0": 179.0810087324862, "117_121_0": 94.20116915154469, "117_106_0": 86.71782211596911}, "adj_sorted": [[117, 126, 0], [117, 121, 0], [117, 106, 0]], "type": "T", "n_corners": 2}, "geometry": {"type": "Point", "coordinates": [19.0669244, 47.51023550000003]}}, {"id": "130", "type": "Feature", "properties": {"x": 5002627.457085024, "y": 2752541.6578504075, "bearings": {"130_126_0": -130.37801985929755, "130_136_0": 49.16419135657936, "130_121_0": 140.14381691638792}, "angles": {"130_126_0": 89.47816322431453, "130_136_0": 179.5422112158769, "130_121_0": 90.97962555980857}, "adj_sorted": [[130, 126, 0], [130, 136, 0], [130, 121, 0]], "type": "T", "n_corners": 2}, "geometry": {"type": "Point", "coordinates": [19.068443200000008, 47.50999360000003]}}, {"id": "107", "type": "Feature", "properties": {"x": 5002402.573046061, "y": 2752282.9846478854, "bearings": {"107_101_0": -131.91814729686567, "107_113_0": -42.170728492212675, "107_112_0": 48.28319927996683, "107_86_0": 138.03962163007336}, "angles": {"107_101_0": 90.04223107306098, "107_113_0": 89.747418804653, "107_112_0": 90.4539277721795, "107_86_0": 89.75642235010653}, "adj_sorted": [[107, 101, 0], [107, 113, 0], [107, 112, 0], [107, 86, 0]], "type": "X", "n_corners": 4}, "geometry": {"type": "Point", "coordinates": [19.065070600000002, 47.50793290000002]}}, {"id": "123", "type": "Feature", "properties": {"x": 5002565.845816106, "y": 2752137.327158704, "bearings": {"123_132_0": -41.27392434804824, "123_113_0": 138.83243302674956, "123_116_0": -131.03905537606119}, "angles": {"123_116_0": 90.12851159718923, "123_132_0": 89.76513102801295, "123_113_0": 180.1063573747978}, "adj_sorted": [[123, 116, 0], [123, 132, 0], [123, 113, 0]], "type": "T", "n_corners": 2}, "geometry": {"type": "Point", "coordinates": [19.0669943, 47.50645350000001]}}, {"id": "95", "type": "Feature", "properties": {"x": 5002279.314684784, "y": 2752534.293789825, "bearings": {"95_79_0": 141.20330824908194, "95_112_0": -41.41999901667086, "95_100_0": 44.27476645899758, "95_86_0": -134.52982289334636}, "angles": {"95_86_0": 84.2668688575717, "95_112_0": 93.1098238766755, "95_100_0": 85.69476547566845, "95_79_0": 96.92854179008435}, "adj_sorted": [[95, 86, 0], [95, 112, 0], [95, 100, 0], [95, 79, 0]], "type": "X", "n_corners": 4}, "geometry": {"type": "Point", "coordinates": [19.063840700000007, 47.51031100000003]}}, {"id": "85", "type": "Feature", "properties": {"x": 5002204.863151981, "y": 2752709.061746992, "bearings": {"85_79_0": -131.51025292743532, "85_100_0": -41.027695568635096, "85_92_0": 48.499539044301606}, "angles": {"85_79_0": 179.99020802826308, "85_100_0": 90.48255735880022, "85_92_0": 89.5272346129367}, "adj_sorted": [[85, 79, 0], [85, 100, 0], [85, 92, 0]], "type": "T", "n_corners": 2}, "geometry": {"type": "Point", "coordinates": [19.063133899999993, 47.511952400000034]}}, {"id": "92", "type": "Feature", "properties": {"x": 5002256.4876082735, "y": 2752767.4032117967, "bearings": {"92_85_0": -131.54585884866316, "92_106_0": -39.57812093997873, "92_97_0": 48.47496784503607}, "angles": {"92_85_0": 179.97917330630077, "92_106_0": 91.96773790868443, "92_97_0": 88.05308878501481}, "adj_sorted": [[92, 85, 0], [92, 106, 0], [92, 97, 0]], "type": "T", "n_corners": 2}, "geometry": {"type": "Point", "coordinates": [19.063906499999995, 47.51241620000001]}}, {"id": "106", "type": "Feature", "properties": {"x": 5002395.021230679, "y": 2752652.783523739, "bearings": {"106_100_0": -133.90420299614877, "106_117_0": -40.373713554086166, "106_92_0": 140.377709237121, "106_110_0": 48.203347778095164}, "angles": {"106_100_0": 85.71808776673026, "106_117_0": 93.5304894420626, "106_110_0": 88.57706133218133, "106_92_0": 92.17436145902583}, "adj_sorted": [[106, 100, 0], [106, 117, 0], [106, 110, 0], [106, 92, 0]], "type": "X", "n_corners": 4}, "geometry": {"type": "Point", "coordinates": [19.065552999999994, 47.51124100000001]}}, {"id": "97", "type": "Feature", "properties": {"x": 5002304.863934094, "y": 2752822.072448571, "bearings": {"97_103_0": 48.50927799157691, "97_92_0": -131.50022060399547, "97_110_0": -40.7620931413505}, "angles": {"97_92_0": 179.99050140442762, "97_110_0": 90.73812746264497, "97_103_0": 89.27137113292741}, "adj_sorted": [[97, 92, 0], [97, 110, 0], [97, 103, 0]], "type": "T", "n_corners": 2}, "geometry": {"type": "Point", "coordinates": [19.064630499999996, 47.51285080000002]}}, {"id": "70", "type": "Feature", "properties": {"x": 5002084.549918008, "y": 2752571.9657370406, "bearings": {"70_79_0": 48.95758424644049, "70_86_0": -42.36012125882581, "70_62_0": -131.3668171347507}, "angles": {"70_62_0": 179.6755986188088, "70_86_0": 89.00669587592489, "70_79_0": 91.3177055052663}, "adj_sorted": [[70, 62, 0], [70, 86, 0], [70, 79, 0]], "type": "T", "n_corners": 2}, "geometry": {"type": "Point", "coordinates": [19.061331600000003, 47.51086140000003]}}, {"id": "86", "type": "Feature", "properties": {"x": 5002205.976139516, "y": 2752459.749118393, "bearings": {"86_77_0": -134.99030541068106, "86_107_0": -41.93217333184611, "86_95_0": 45.4421177965049, "86_70_0": 137.2256115135606}, "angles": {"86_77_0": 87.7840830757583, "86_107_0": 93.05813207883494, "86_95_0": 87.37429112835102, "86_70_0": 91.7834937170557}, "adj_sorted": [[86, 77, 0], [86, 107, 0], [86, 95, 0], [86, 70, 0]], "type": "X", "n_corners": 4}, "geometry": {"type": "Point", "coordinates": [19.062756299999993, 47.5097265]}}, {"id": "110", "type": "Feature", "properties": {"x": 5002441.289243511, "y": 2752704.470699015, "bearings": {"110_106_0": -131.83682651544666, "110_97_0": 139.2379068586495, "110_121_0": -42.07686521348399, "110_114_0": 45.49861691542678}, "angles": {"110_106_0": 88.92526662590387, "110_121_0": 89.75996130196268, "110_114_0": 87.57548212891078, "110_97_0": 93.73928994322272}, "adj_sorted": [[110, 106, 0], [110, 121, 0], [110, 114, 0], [110, 97, 0]], "type": "X", "n_corners": 4}, "geometry": {"type": "Point", "coordinates": [19.0662445, 47.51165130000004]}}, {"id": "62", "type": "Feature", "properties": {"x": 5002025.170164752, "y": 2752503.7837660112, "bearings": {"62_77_0": -42.19119539078685, "62_70_0": 49.11809761264944, "62_52_0": -131.43095381482735}, "angles": {"62_52_0": 179.4509485725232, "62_77_0": 89.2397584240405, "62_70_0": 91.3092930034363}, "adj_sorted": [[62, 52, 0], [62, 77, 0], [62, 70, 0]], "type": "T", "n_corners": 2}, "geometry": {"type": "Point", "coordinates": [19.060441300000004, 47.51031830000002]}}, {"id": "116", "type": "Feature", "properties": {"x": 5002504.7087080525, "y": 2752067.208808868, "bearings": {"116_108_0": 138.55549571983636, "116_125_0": -42.568819041847405, "116_123_0": 48.90132787841092}, "angles": {"116_125_0": 178.87568523831624, "116_123_0": 91.47014692025832, "116_108_0": 89.65416784142545}, "adj_sorted": [[116, 125, 0], [116, 123, 0], [116, 108, 0]], "type": "T", "n_corners": 2}, "geometry": {"type": "Point", "coordinates": [19.066077799999995, 47.5058951]}}, {"id": "114", "type": "Feature", "properties": {"x": 5002498.060916008, "y": 2752762.239183178, "bearings": {"114_103_0": 136.14367685121871, "114_110_0": -134.50138308457323, "114_128_0": -43.21136866989927, "114_124_0": 46.05451891958287}, "angles": {"114_110_0": 89.35494006420805, "114_128_0": 91.29001441467396, "114_124_0": 89.26588758948213, "114_103_0": 90.08915793163584}, "adj_sorted": [[114, 110, 0], [114, 128, 0], [114, 124, 0], [114, 103, 0]], "type": "X", "n_corners": 4}, "geometry": {"type": "Point", "coordinates": [19.0670841, 47.51210430000006]}}, {"id": "109", "type": "Feature", "properties": {"x": 5002438.1610545525, "y": 2752971.82616218, "bearings": {"109_103_0": -131.81552591261655, "109_124_0": -44.882921088245986, "109_118_0": 48.182643776168845}, "angles": {"109_103_0": 180.0018303112146, "109_124_0": 86.93260482437057, "109_118_0": 93.06556486441482}, "adj_sorted": [[109, 103, 0], [109, 124, 0], [109, 118, 0]], "type": "T", "n_corners": 2}, "geometry": {"type": "Point", "coordinates": [19.0666241, 47.51404039999999]}}, {"id": "52", "type": "Feature", "properties": {"x": 5001963.855190769, "y": 2752433.69439254, "bearings": {"52_42_0": -129.9101030545504, "52_60_0": -45.2277781060086, "52_62_0": 49.58932215150556}, "angles": {"52_42_0": 180.50057479394403, "52_60_0": 84.6823249485418, "52_62_0": 94.81710025751417}, "adj_sorted": [[52, 42, 0], [52, 60, 0], [52, 62, 0]], "type": "T", "n_corners": 2}, "geometry": {"type": "Point", "coordinates": [19.0595225, 47.50976030000003]}}, {"id": "63", "type": "Feature", "properties": {"x": 5002036.106925967, "y": 2751803.7884235713, "bearings": {"63_76_0": -39.14019656194897, "63_80_0": 53.5338969213313, "63_55_0": 144.25138169220753}, "angles": {"63_76_0": 176.6084217458435, "63_80_0": 92.67409348328027, "63_55_0": 90.71748477087624}, "adj_sorted": [[63, 76, 0], [63, 80, 0], [63, 55, 0]], "type": "T", "n_corners": 2}, "geometry": {"type": "Point", "coordinates": [19.059484599999998, 47.50406000000004]}}, {"id": "76", "type": "Feature", "properties": {"x": 5002123.239768528, "y": 2751733.155347844, "bearings": {"76_89_0": 51.29561576373044, "76_63_0": 141.81471202706734, "76_83_0": -38.92175791802543, "76_64_0": -128.79317814401097}, "angles": {"76_64_0": 89.39210982892166, "76_83_0": 89.87142022598553, "76_89_0": 90.21737368175587, "76_63_0": 90.5190962633369}, "adj_sorted": [[76, 64, 0], [76, 83, 0], [76, 89, 0], [76, 63, 0]], "type": "X", "n_corners": 4}, "geometry": {"type": "Point", "coordinates": [19.060522399999996, 47.50333390000002]}}, {"id": "80", "type": "Feature", "properties": {"x": 5002145.935437696, "y": 2751947.903132478, "bearings": {"80_81_0": 52.595720750028846, "80_89_0": -39.57137563502972, "80_63_0": -127.38723018002207}, "angles": {"80_63_0": 180.01704906994908, "80_89_0": 87.81585454499236, "80_81_0": 92.16709638505856}, "adj_sorted": [[80, 63, 0], [80, 89, 0], [80, 81, 0]], "type": "T", "n_corners": 2}, "geometry": {"type": "Point", "coordinates": [19.061159400000005, 47.50522520000004]}}, {"id": "55", "type": "Feature", "properties": {"x": 5001973.287318245, "y": 2751849.009770036, "bearings": {"55_74_0": 52.952475423221784, "55_63_0": -35.748618307792476, "55_43_0": 141.20141582044192, "55_39_0": -129.31477914662173}, "angles": {"55_39_0": 89.48380503293635, "55_63_0": 93.56616083882926, "55_74_0": 88.70109373101425, "55_43_0": 88.24894039722014}, "adj_sorted": [[55, 39, 0], [55, 63, 0], [55, 74, 0], [55, 43, 0]], "type": "X", "n_corners": 4}, "geometry": {"type": "Point", "coordinates": [19.058727400000006, 47.50453260000001]}}, {"id": "83", "type": "Feature", "properties": {"x": 5002180.016902389, "y": 2751686.282889764, "bearings": {"83_93_0": -42.2173015718447, "83_76_0": 140.3004689795185, "83_72_0": -128.97570163877475, "83_90_0": 47.122284634041044}, "angles": {"83_72_0": 90.72382938170676, "83_93_0": 86.75840006693005, "83_90_0": 89.33958620588575, "83_76_0": 93.17818434547746}, "adj_sorted": [[83, 72, 0], [83, 93, 0], [83, 90, 0], [83, 76, 0]], "type": "X", "n_corners": 4}, "geometry": {"type": "Point", "coordinates": [19.061197300000003, 47.50285320000003]}}, {"id": "64", "type": "Feature", "properties": {"x": 5002040.447104038, "y": 2751630.0947032273, "bearings": {"64_76_0": 51.251460402924245, "64_48_0": 144.09958971766002, "64_72_0": -40.5397876849091, "64_57_0": -127.84622517166656}, "angles": {"64_57_0": 88.05418511067342, "64_72_0": 87.30643748675746, "64_76_0": 91.79124808783334, "64_48_0": 92.84812931473579}, "adj_sorted": [[64, 57, 0], [64, 72, 0], [64, 76, 0], [64, 48, 0]], "type": "X", "n_corners": 4}, "geometry": {"type": "Point", "coordinates": [19.0592687, 47.50250530000002]}}, {"id": "72", "type": "Feature", "properties": {"x": 5002095.340571459, "y": 2751579.873836823, "bearings": {"72_71_0": -128.3048246804301, "72_83_0": 51.53976715592999, "72_64_0": 137.20107707502262}, "angles": {"72_71_0": 94.49409824454727, "72_83_0": 179.84459183636008, "72_64_0": 85.66130991909264}, "adj_sorted": [[72, 71, 0], [72, 83, 0], [72, 64, 0]], "type": "T", "n_corners": 2}, "geometry": {"type": "Point", "coordinates": [19.059913500000004, 47.50199680000006]}}, {"id": "90", "type": "Feature", "properties": {"x": 5002236.041584618, "y": 2751751.899879214, "bearings": {"90_89_0": 49.910853993530004, "90_99_0": -40.60910696105547, "90_83_0": -129.65084397845638}, "angles": {"90_83_0": 180.43830202801362, "90_99_0": 89.04173701740092, "90_89_0": 90.51996095458547}, "adj_sorted": [[90, 83, 0], [90, 99, 0], [90, 89, 0]], "type": "T", "n_corners": 2}, "geometry": {"type": "Point", "coordinates": [19.062039199999997, 47.503377100000016]}}, {"id": "48", "type": "Feature", "properties": {"x": 5001937.519915095, "y": 2751722.4512723866, "bearings": {"48_64_0": -41.733501601940226, "48_39_0": 136.07269600702463, "48_38_0": -130.6475587069661}, "angles": {"48_38_0": 93.2797452860093, "48_64_0": 88.91405710502588, "48_39_0": 177.80619760896485}, "adj_sorted": [[48, 38, 0], [48, 64, 0], [48, 39, 0]], "type": "T", "n_corners": 2}, "geometry": {"type": "Point", "coordinates": [19.058056800000003, 47.50344260000006]}}, {"id": "57", "type": "Feature", "properties": {"x": 5001997.978177897, "y": 2751575.687263366, "bearings": {"57_50_0": -129.13453615736353, "57_64_0": 52.02588039822998, "57_67_0": -40.24029739332794, "57_51_0": 137.09818351601626}, "angles": {"57_50_0": 93.76728032662021, "57_67_0": 88.89423876403558, "57_64_0": 92.26617779155792, "57_51_0": 85.07230311778628}, "adj_sorted": [[57, 50, 0], [57, 67, 0], [57, 64, 0], [57, 51, 0]], "type": "X", "n_corners": 4}, "geometry": {"type": "Point", "coordinates": [19.0586232, 47.50206650000003]}}, {"id": "43", "type": "Feature", "properties": {"x": 5001919.200143637, "y": 2751892.4947744296, "bearings": {"43_27_0": 141.31462255898046, "43_68_0": 52.29167183310079, "43_26_0": -127.70273903139272, "43_55_0": -38.79858417955807}, "angles": {"43_26_0": 90.98263840962682, "43_55_0": 88.90415485183465, "43_68_0": 91.09025601265887, "43_27_0": 89.02295072587967}, "adj_sorted": [[43, 26, 0], [43, 55, 0], [43, 68, 0], [43, 27, 0]], "type": "X", "n_corners": 4}, "geometry": {"type": "Point", "coordinates": [19.0580826, 47.50498010000003]}}, {"id": "39", "type": "Feature", "properties": {"x": 5001898.274658422, "y": 2751757.4104250195, "bearings": {"39_26_0": 136.06793102333359, "39_15_0": -129.59600695452278, "39_55_0": 50.685220853378276, "39_48_0": -41.280352652293885}, "angles": {"39_15_0": 94.33606202214366, "39_48_0": 88.3156543022289, "39_55_0": 91.96557350567215, "39_26_0": 85.38271016995532}, "adj_sorted": [[39, 15, 0], [39, 48, 0], [39, 55, 0], [39, 26, 0]], "type": "X", "n_corners": 4}, "geometry": {"type": "Point", "coordinates": [19.0575943, 47.50379770000002]}}, {"id": "38", "type": "Feature", "properties": {"x": 5001893.201924357, "y": 2751670.8313627513, "bearings": {"38_48_0": 49.352441293033905, "38_19_0": -129.11094772379673, "38_51_0": -42.55915760637497}, "angles": {"38_19_0": 181.53661098316937, "38_51_0": 86.55179011742176, "38_48_0": 91.91159889940887}, "adj_sorted": [[38, 19, 0], [38, 51, 0], [38, 48, 0]], "type": "T", "n_corners": 2}, "geometry": {"type": "Point", "coordinates": [19.057391299999995, 47.50303070000007]}}, {"id": "67", "type": "Feature", "properties": {"x": 5002052.929330634, "y": 2751526.190310352, "bearings": {"67_59_0": -125.38205842553457, "67_71_0": 51.676409677104, "67_57_0": 137.65946330765746}, "angles": {"67_59_0": 96.95847826680796, "67_71_0": 177.05846810263856, "67_57_0": 85.98305363055346}, "adj_sorted": [[67, 59, 0], [67, 71, 0], [67, 57, 0]], "type": "T", "n_corners": 2}, "geometry": {"type": "Point", "coordinates": [19.0592699, 47.50156440000002]}}, {"id": "51", "type": "Feature", "properties": {"x": 5001959.939380588, "y": 2751609.550867068, "bearings": {"51_29_0": -140.08997200739321, "51_57_0": -17.536852689451806, "51_38_0": 137.44084239362505}, "angles": {"51_29_0": 82.46918559898177, "51_57_0": 122.55311931794141, "51_38_0": 154.97769508307687}, "adj_sorted": [[51, 29, 0], [51, 57, 0], [51, 38, 0]], "type": "Y", "n_corners": 3}, "geometry": {"type": "Point", "coordinates": [19.05817489999999, 47.50241050000004]}}, {"id": "141", "type": "Feature", "properties": {"x": 5002742.459926151, "y": 2752664.977590999, "bearings": {"141_136_0": -134.60973343176533, "141_134_0": 135.12657675920164, "141_155_0": 44.79154818236551}, "angles": {"141_136_0": 90.26368980903305, "141_155_0": 179.40128161413085, "141_134_0": 90.33502857683612}, "adj_sorted": [[141, 136, 0], [141, 155, 0], [141, 134, 0]], "type": "T", "n_corners": 2}, "geometry": {"type": "Point", "coordinates": [19.070153900000005, 47.510967399999984]}}, {"id": "128", "type": "Feature", "properties": {"x": 5002598.109813394, "y": 2752668.249650101, "bearings": {"128_136_0": -43.38831886645059, "128_114_0": 136.78863133010074, "128_121_0": -127.82482782471362, "128_134_0": 54.102698131577036}, "angles": {"128_121_0": 95.38654084518566, "128_136_0": 84.43650895826303, "128_134_0": 97.49101699802762, "128_114_0": 82.68593319852371}, "adj_sorted": [[128, 121, 0], [128, 136, 0], [128, 134, 0], [128, 114, 0]], "type": "X", "n_corners": 4}, "geometry": {"type": "Point", "coordinates": [19.068255500000006, 47.51115550000004]}}, {"id": "134", "type": "Feature", "properties": {"x": 5002657.189063839, "y": 2752749.8725256193, "bearings": {"134_141_0": -44.87342324079836, "134_128_0": -125.89730186842297, "134_124_0": 133.6913213733909, "134_142_0": 50.416263167076075}, "angles": {"134_128_0": 100.41137675818612, "134_141_0": 81.02387862762461, "134_142_0": 95.28968640787443, "134_124_0": 83.27505820631484}, "adj_sorted": [[134, 128, 0], [134, 141, 0], [134, 142, 0], [134, 124, 0]], "type": "X", "n_corners": 4}, "geometry": {"type": "Point", "coordinates": [19.069163100000004, 47.51181880000004]}}, {"id": "121", "type": "Feature", "properties": {"x": 5002550.018430558, "y": 2752606.306056549, "bearings": {"121_117_0": -127.08490898034651, "121_130_0": -39.8561830836121, "121_110_0": 137.92313478651604, "121_128_0": 52.17517217528638}, "angles": {"121_117_0": 94.99195623313744, "121_130_0": 87.2287258967344, "121_128_0": 92.03135525889849, "121_110_0": 85.74796261122967}, "adj_sorted": [[121, 117, 0], [121, 130, 0], [121, 128, 0], [121, 110, 0]], "type": "X", "n_corners": 4}, "geometry": {"type": "Point", "coordinates": [19.067523800000004, 47.51065570000002]}}, {"id": "124", "type": "Feature", "properties": {"x": 5002572.044877886, "y": 2752838.9978503976, "bearings": {"124_114_0": -133.94548108041712, "124_109_0": 135.32677419788396, "124_134_0": -46.3086786266091, "124_135_0": 45.09617630926548}, "angles": {"124_114_0": 90.72774472169891, "124_134_0": 87.63680245380803, "124_135_0": 91.40485493587458, "124_109_0": 90.23059788861849}, "adj_sorted": [[124, 114, 0], [124, 134, 0], [124, 135, 0], [124, 109, 0]], "type": "X", "n_corners": 4}, "geometry": {"type": "Point", "coordinates": [19.0681806, 47.51270780000003]}}, {"id": "142", "type": "Feature", "properties": {"x": 5002743.645986181, "y": 2752854.4414111213, "bearings": {"142_156_0": 52.41757324232611, "142_134_0": -129.58373683292393, "142_135_0": 138.21996740535}, "angles": {"142_134_0": 92.1962957617261, "142_156_0": 182.00131007525005, "142_135_0": 85.80239416302388}, "adj_sorted": [[142, 134, 0], [142, 156, 0], [142, 135, 0]], "type": "T", "n_corners": 2}, "geometry": {"type": "Point", "coordinates": [19.0704679, 47.512656700000015]}}, {"id": "19", "type": "Feature", "properties": {"x": 5001795.719663741, "y": 2751550.926285901, "bearings": {"19_15_0": 156.50505029521028, "19_10_0": -128.73532855412088, "19_38_0": 50.889052276203266}, "angles": {"19_10_0": 74.75962115066886, "19_38_0": 179.62438083032416, "19_15_0": 105.61599801900701}, "adj_sorted": [[19, 10, 0], [19, 38, 0], [19, 15, 0]], "type": "T", "n_corners": 2}, "geometry": {"type": "Point", "coordinates": [19.055917500000003, 47.50206789999998]}}, {"id": "118", "type": "Feature", "properties": {"x": 5002516.882690417, "y": 2753059.8153044577, "bearings": {"118_131_0": 44.62638160158135, "118_109_0": -131.82301212468445, "118_135_0": -40.3364573991167}, "angles": {"118_109_0": 183.5506062737342, "118_135_0": 91.48655472556774, "118_131_0": 84.96283900069805}, "adj_sorted": [[118, 109, 0], [118, 135, 0], [118, 131, 0]], "type": "T", "n_corners": 2}, "geometry": {"type": "Point", "coordinates": [19.0678008, 47.51473890000001]}}, {"id": "135", "type": "Feature", "properties": {"x": 5002661.259743834, "y": 2752928.5299188746, "bearings": {"135_124_0": -134.79999789630492, "135_142_0": -42.15993123559857, "135_118_0": 137.0159257338307, "135_148_0": 44.69081657529791}, "angles": {"135_124_0": 88.18407636986439, "135_142_0": 92.64006666070634, "135_148_0": 86.85074781089648, "135_118_0": 92.3251091585328}, "adj_sorted": [[135, 124, 0], [135, 142, 0], [135, 148, 0], [135, 118, 0]], "type": "X", "n_corners": 4}, "geometry": {"type": "Point", "coordinates": [19.0694981, 47.51340849999999]}}, {"id": "148", "type": "Feature", "properties": {"x": 5002775.049986037, "y": 2753039.946276449, "bearings": {"148_131_0": 137.222340774308, "148_160_0": 44.35506903738929, "148_156_0": -41.322688154076715, "148_135_0": -135.61860739529635}, "angles": {"148_135_0": 87.15905183039564, "148_156_0": 94.29591924121964, "148_160_0": 85.67775719146601, "148_131_0": 92.86727173691872}, "adj_sorted": [[148, 135, 0], [148, 156, 0], [148, 160, 0], [148, 131, 0]], "type": "X", "n_corners": 4}, "geometry": {"type": "Point", "coordinates": [19.071174199999998, 47.51427739999999]}}]}