{"type": "FeatureCollection", "features": [{"id": "2", "type": "Feature", "properties": {"index": 2, "n_sides": 5, "edges": "[(3, 2, 0), (2, 25, 0), (25, 36, 0), (36, 14, 0), (14, 3, 0)]", "area": 19881.918848101657, "roundabout": false}, "geometry": {"type": "Polygon", "coordinates": [[[19.0551626066053, 47.50685339691913], [19.055140144751217, 47.506942903854394], [19.055174701250493, 47.507019301603634], [19.05542397458125, 47.507110549424205], [19.0555806, 47.50721100000003], [19.0556958, 47.50728990000002], [19.056090299999994, 47.50756020000005], [19.0571118, 47.50824720000005], [19.057454699999994, 47.508478700000026], [19.057478800000002, 47.508494299999995], [19.0575268, 47.508526300000014], [19.057579499999996, 47.50848670000003], [19.05821179999999, 47.50799580000002], [19.057398599999996, 47.507430600000006], [19.0564739, 47.50679100000008], [19.0560312, 47.50648319999999], [19.055952599999998, 47.50642860000006], [19.055447299999997, 47.506784800000005], [19.0551626066053, 47.50685339691913]]]}}, {"id": "3", "type": "Feature", "properties": {"index": 3, "n_sides": 4, "edges": "[(3, 14, 0), (14, 21, 0), (21, 27, 0), (27, 20, 0), (20, 4, 0), (4, 3, 0)]", "area": 19308.54330323464, "roundabout": false}, "geometry": {"type": "Polygon", "coordinates": [[[19.0551626066053, 47.50685339691913], [19.055447299999997, 47.506784800000005], [19.055952599999998, 47.50642860000006], [19.056667899999997, 47.50594630000002], [19.057379399999995, 47.50546620000003], [19.056402799999997, 47.50478900000004], [19.0551678, 47.505816600000024], [19.055092300000005, 47.5058794], [19.0550055, 47.50595160000002], [19.055014599999996, 47.50633890000001], [19.055017100000004, 47.50644420000004], [19.055019200000004, 47.50661360000001], [19.0551626066053, 47.50685339691913]]]}}, {"id": "4", "type": "Feature", "properties": {"index": 4, "n_sides": 5, "edges": "[(25, 30, 0), (30, 32, 0), (32, 46, 0), (46, 56, 0), (56, 47, 0), (47, 36, 0), (36, 25, 0)]", "area": 9312.286452337059, "roundabout": false}, "geometry": {"type": "Polygon", "coordinates": [[[19.0575268, 47.508526300000014], [19.057609499999998, 47.508579000000026], [19.057814700000005, 47.50871260000002], [19.0579015, 47.50876880000005], [19.0579635, 47.50880890000004], [19.058068999999996, 47.50887460000006], [19.05819068918213, 47.508870227463746], [19.05879371147623, 47.508450784437954], [19.05946415590601, 47.5079837515719], [19.059384199999993, 47.507945800000044], [19.0592892, 47.507896500000015], [19.0592341, 47.50786800000002], [19.059206899999992, 47.507852700000036], [19.0587379, 47.50758900000007], [19.05821179999999, 47.50799580000002], [19.057579499999996, 47.50848670000003], [19.0575268, 47.508526300000014]]]}}, {"id": "5", "type": "Feature", "properties": {"index": 5, "n_sides": 3, "edges": "[(25, 12, 0), (12, 30, 0), (30, 25, 0)]", "area": 8476.814152531953, "roundabout": false}, "geometry": {"type": "Polygon", "coordinates": [[[19.0575268, 47.508526300000014], [19.057451799999996, 47.50858329999999], [19.057419399999997, 47.50860750000005], [19.057345899999994, 47.50866240000005], [19.057217999999995, 47.50875850000002], [19.056973400000004, 47.50894250000003], [19.0564277, 47.509374], [19.056305499999997, 47.5094872], [19.0562769, 47.509523899999984], [19.056255499999995, 47.50956110000005], [19.056277600000005, 47.50959830000005], [19.0565557, 47.50978790000003], [19.056590799999995, 47.50981810000007], [19.056603499999998, 47.50984820000002], [19.0565953, 47.50988460000001], [19.056569699999997, 47.509918299999995], [19.056506999999996, 47.509961300000036], [19.056645999999997, 47.509892200000046], [19.0567356, 47.50984769999998], [19.056889099999996, 47.50976210000002], [19.056967799999992, 47.5097151], [19.057042599999992, 47.50966530000002], [19.05721619999999, 47.5095324], [19.057649199999997, 47.509191800000046], [19.057828399999995, 47.50904820000002], [19.057884699999992, 47.50900760000005], [19.058068999999996, 47.50887460000006], [19.0579635, 47.50880890000004], [19.0579015, 47.50876880000005], [19.057814700000005, 47.50871260000002], [19.057609499999998, 47.508579000000026], [19.0575268, 47.508526300000014]]]}}, {"id": "6", "type": "Feature", "properties": {"index": 6, "n_sides": 3, "edges": "[(7, 4, 0), (4, 20, 0), (20, 7, 0)]", "area": 12950.185122447785, "roundabout": false}, "geometry": {"type": "Polygon", "coordinates": [[[19.0549485, 47.5037854], [19.054953400000002, 47.50397290000003], [19.054973599999993, 47.50474100000004], [19.054985899999988, 47.505206899999976], [19.0549891, 47.50532820000004], [19.0550055, 47.50595160000002], [19.055092300000005, 47.5058794], [19.0551678, 47.505816600000024], [19.056402799999997, 47.50478900000004], [19.05527319999999, 47.50400990000006], [19.0551353, 47.503915800000065], [19.0549485, 47.5037854]]]}}, {"id": "7", "type": "Feature", "properties": {"index": 7, "n_sides": 4, "edges": "[(7, 20, 0), (20, 26, 0), (26, 8, 0), (8, 7, 0)]", "area": 14295.4616753605, "roundabout": false}, "geometry": {"type": "Polygon", "coordinates": [[[19.0549485, 47.5037854], [19.0551353, 47.503915800000065], [19.05527319999999, 47.50400990000006], [19.056402799999997, 47.50478900000004], [19.057035800000005, 47.50426170000003], [19.056416, 47.50383580000008], [19.0562041, 47.503691000000046], [19.055119000000005, 47.502959300000015], [19.0549121, 47.50281980000004], [19.0549181, 47.50297230000005], [19.054931699999997, 47.503318999999976], [19.054940399999992, 47.50354109999999], [19.0549442, 47.50363910000005], [19.0549485, 47.5037854]]]}}, {"id": "8", "type": "Feature", "properties": {"index": 8, "n_sides": 4, "edges": "[(14, 36, 0), (36, 47, 0), (47, 49, 0), (49, 21, 0), (21, 14, 0)]", "area": 18312.775649053725, "roundabout": false}, "geometry": {"type": "Polygon", "coordinates": [[[19.055952599999998, 47.50642860000006], [19.0560312, 47.50648319999999], [19.0564739, 47.50679100000008], [19.057398599999996, 47.507430600000006], [19.05821179999999, 47.50799580000002], [19.0587379, 47.50758900000007], [19.058871799999988, 47.507474600000045], [19.056667899999997, 47.50594630000002], [19.055952599999998, 47.50642860000006]]]}}, {"id": "9", "type": "Feature", "properties": {"index": 9, "n_sides": 4, "edges": "[(20, 27, 0), (27, 43, 0), (43, 26, 0), (26, 20, 0)]", "area": 8198.639278035484, "roundabout": false}, "geometry": {"type": "Polygon", "coordinates": [[[19.056402799999997, 47.50478900000004], [19.057379399999995, 47.50546620000003], [19.0580826, 47.50498010000003], [19.057035800000005, 47.50426170000003], [19.056402799999997, 47.50478900000004]]]}}, {"id": "10", "type": "Feature", "properties": {"index": 10, "n_sides": 4, "edges": "[(21, 49, 0), (49, 58, 0), (58, 27, 0), (27, 21, 0)]", "area": 17754.83824798504, "roundabout": false}, "geometry": {"type": "Polygon", "coordinates": [[[19.056667899999997, 47.50594630000002], [19.058871799999988, 47.507474600000045], [19.059480499999992, 47.50699679999998], [19.059531499999995, 47.506958500000074], [19.0588502, 47.50648609999997], [19.058607599999984, 47.5063179], [19.058544600000005, 47.506274200000014], [19.0581381, 47.505992300000045], [19.057428599999998, 47.50550030000004], [19.057379399999995, 47.50546620000003], [19.056667899999997, 47.50594630000002]]]}}, {"id": "11", "type": "Feature", "properties": {"index": 11, "n_sides": 5, "edges": "[(54, 46, 0), (46, 32, 0), (32, 31, 0), (31, 42, 0), (42, 54, 0)]", "area": 4557.284694445796, "roundabout": false}, "geometry": {"type": "Polygon", "coordinates": [[[19.059398800000007, 47.508852499999996], [19.05892220000001, 47.50853610000002], [19.058856800000004, 47.50849270000005], [19.05879371147623, 47.508450784437954], [19.05819068918213, 47.508870227463746], [19.058197599999996, 47.50894840000002], [19.05828289999999, 47.50900160000002], [19.058333599999997, 47.50903249999999], [19.0586637, 47.509233900000034], [19.058795799999995, 47.509314500000016], [19.0588525, 47.509271000000005], [19.059129099999996, 47.509059100000066], [19.059398800000007, 47.508852499999996]]]}}, {"id": "12", "type": "Feature", "properties": {"index": 12, "n_sides": 4, "edges": "[(54, 60, 0), (60, 69, 0), (69, 56, 0), (56, 46, 0), (46, 54, 0)]", "area": 10667.952507424849, "roundabout": false}, "geometry": {"type": "Polygon", "coordinates": [[[19.059398800000007, 47.508852499999996], [19.06008200000001, 47.509303199999984], [19.060855099999998, 47.50872960000003], [19.0601953, 47.508372300000005], [19.05984529999999, 47.5081942], [19.0595998, 47.508060799999996], [19.059537799999998, 47.50802710000002], [19.05946415590601, 47.5079837515719], [19.05879371147623, 47.508450784437954], [19.058856800000004, 47.50849270000005], [19.05892220000001, 47.50853610000002], [19.059398800000007, 47.508852499999996]]]}}, {"id": "13", "type": "Feature", "properties": {"index": 13, "n_sides": 4, "edges": "[(54, 42, 0), (42, 52, 0), (52, 60, 0), (60, 54, 0)]", "area": 4857.806447673165, "roundabout": false}, "geometry": {"type": "Polygon", "coordinates": [[[19.059398800000007, 47.508852499999996], [19.059129099999996, 47.509059100000066], [19.0588525, 47.509271000000005], [19.058795799999995, 47.509314500000016], [19.0589827, 47.509428500000006], [19.059177599999995, 47.509547000000005], [19.0594244, 47.50969800000003], [19.0595225, 47.50976030000003], [19.05959099999999, 47.509700700000046], [19.0597741, 47.50954180000005], [19.06008200000001, 47.509303199999984], [19.059398800000007, 47.508852499999996]]]}}, {"id": "14", "type": "Feature", "properties": {"index": 14, "n_sides": 4, "edges": "[(60, 52, 0), (52, 62, 0), (62, 77, 0), (77, 69, 0), (69, 60, 0)]", "area": 14614.085993613646, "roundabout": false}, "geometry": {"type": "Polygon", "coordinates": [[[19.06008200000001, 47.509303199999984], [19.0597741, 47.50954180000005], [19.05959099999999, 47.509700700000046], [19.0595225, 47.50976030000003], [19.059695899999994, 47.509868500000024], [19.0597459, 47.5098997], [19.060441300000004, 47.51031830000002], [19.060534100000005, 47.5102458], [19.061828800000004, 47.50923520000005], [19.060934100000004, 47.508770600000005], [19.060855099999998, 47.50872960000003], [19.06008200000001, 47.509303199999984]]]}}, {"id": "15", "type": "Feature", "properties": {"index": 15, "n_sides": 4, "edges": "[(56, 69, 0), (69, 94, 0), (94, 87, 0), (87, 73, 0), (73, 66, 0), (66, 56, 0)]", "area": 34025.67930550826, "roundabout": false}, "geometry": {"type": "Polygon", "coordinates": [[[19.05946415590601, 47.5079837515719], [19.059537799999998, 47.50802710000002], [19.0595998, 47.508060799999996], [19.05984529999999, 47.5081942], [19.0601953, 47.508372300000005], [19.060855099999998, 47.50872960000003], [19.063221600000002, 47.506821900000006], [19.062728500000002, 47.50652439999999], [19.062652999999997, 47.50647879999998], [19.062209600000003, 47.50621130000002], [19.062130372095833, 47.506164639101755], [19.060913411207444, 47.50700649569156], [19.060251617456295, 47.50745510238337], [19.05946415590601, 47.5079837515719]]]}}, {"id": "16", "type": "Feature", "properties": {"index": 16, "n_sides": 4, "edges": "[(56, 66, 0), (66, 58, 0), (58, 49, 0), (49, 47, 0), (47, 56, 0)]", "area": 6522.676204073666, "roundabout": false}, "geometry": {"type": "Polygon", "coordinates": [[[19.05946415590601, 47.5079837515719], [19.060251617456295, 47.50745510238337], [19.060184799999988, 47.507409100000025], [19.059531499999995, 47.506958500000074], [19.059480499999992, 47.50699679999998], [19.058871799999988, 47.507474600000045], [19.0587379, 47.50758900000007], [19.059206899999992, 47.507852700000036], [19.0592341, 47.50786800000002], [19.0592892, 47.507896500000015], [19.059384199999993, 47.507945800000044], [19.05946415590601, 47.5079837515719]]]}}, {"id": "17", "type": "Feature", "properties": {"index": 17, "n_sides": 4, "edges": "[(94, 69, 0), (69, 77, 0), (77, 101, 0), (101, 94, 0)]", "area": 25528.861685019765, "roundabout": false}, "geometry": {"type": "Polygon", "coordinates": [[[19.063221600000002, 47.506821900000006], [19.060855099999998, 47.50872960000003], [19.060934100000004, 47.508770600000005], [19.061828800000004, 47.50923520000005], [19.0626902, 47.50855180000004], [19.064154000000002, 47.507390600000015], [19.063221600000002, 47.506821900000006]]]}}, {"id": "18", "type": "Feature", "properties": {"index": 18, "n_sides": 4, "edges": "[(94, 104, 0), (104, 98, 0), (98, 87, 0), (87, 94, 0)]", "area": 14477.892069554224, "roundabout": false}, "geometry": {"type": "Polygon", "coordinates": [[[19.063221600000002, 47.506821900000006], [19.064243900000005, 47.50603090000003], [19.0642898, 47.50599440000004], [19.064376600000003, 47.50592530000005], [19.0641018, 47.50573889999998], [19.0639295, 47.50562200000002], [19.0638379, 47.50555990000003], [19.0637543, 47.505503100000034], [19.0634666, 47.50531310000009], [19.063395460368355, 47.50526743753602], [19.062130372095833, 47.506164639101755], [19.062209600000003, 47.50621130000002], [19.062652999999997, 47.50647879999998], [19.062728500000002, 47.50652439999999], [19.063221600000002, 47.506821900000006]]]}}, {"id": "19", "type": "Feature", "properties": {"index": 19, "n_sides": 4, "edges": "[(94, 101, 0), (101, 108, 0), (108, 104, 0), (104, 94, 0)]", "area": 12344.429522669194, "roundabout": false}, "geometry": {"type": "Polygon", "coordinates": [[[19.063221600000002, 47.506821900000006], [19.064154000000002, 47.507390600000015], [19.065143899999995, 47.506631800000015], [19.0651899, 47.506592], [19.06527259999999, 47.506520600000016], [19.064376600000003, 47.50592530000005], [19.0642898, 47.50599440000004], [19.064243900000005, 47.50603090000003], [19.063221600000002, 47.506821900000006]]]}}, {"id": "20", "type": "Feature", "properties": {"index": 20, "n_sides": 4, "edges": "[(66, 73, 0), (73, 65, 0), (65, 58, 0), (58, 66, 0)]", "area": 5298.594159386171, "roundabout": false}, "geometry": {"type": "Polygon", "coordinates": [[[19.060251617456295, 47.50745510238337], [19.060913411207444, 47.50700649569156], [19.060847499999998, 47.50696250000005], [19.060051299999994, 47.50653770000005], [19.059531499999995, 47.506958500000074], [19.060184799999988, 47.507409100000025], [19.060251617456295, 47.50745510238337]]]}}, {"id": "21", "type": "Feature", "properties": {"index": 21, "n_sides": 4, "edges": "[(101, 77, 0), (77, 86, 0), (86, 107, 0), (107, 101, 0)]", "area": 24090.004781484768, "roundabout": false}, "geometry": {"type": "Polygon", "coordinates": [[[19.064154000000002, 47.507390600000015], [19.0626902, 47.50855180000004], [19.061828800000004, 47.50923520000005], [19.06189499999999, 47.50927030000005], [19.062660300000005, 47.509675600000044], [19.062756299999993, 47.5097265], [19.062837799999997, 47.50966340000003], [19.065070600000002, 47.50793290000002], [19.064154000000002, 47.507390600000015]]]}}, {"id": "22", "type": "Feature", "properties": {"index": 22, "n_sides": 4, "edges": "[(101, 107, 0), (107, 113, 0), (113, 108, 0), (108, 101, 0)]", "area": 11446.915404014975, "roundabout": false}, "geometry": {"type": "Polygon", "coordinates": [[[19.064154000000002, 47.507390600000015], [19.065070600000002, 47.50793290000002], [19.065955299999995, 47.50724210000002], [19.0660027, 47.50720870000001], [19.06605, 47.507171000000035], [19.066140499999992, 47.50709900000003], [19.0660697, 47.50705200000004], [19.06562, 47.50675210000005], [19.06527259999999, 47.506520600000016], [19.0651899, 47.506592], [19.065143899999995, 47.506631800000015], [19.064154000000002, 47.507390600000015]]]}}, {"id": "23", "type": "Feature", "properties": {"index": 23, "n_sides": 4, "edges": "[(86, 77, 0), (77, 62, 0), (62, 70, 0), (70, 86, 0)]", "area": 14547.957849600876, "roundabout": false}, "geometry": {"type": "Polygon", "coordinates": [[[19.062756299999993, 47.5097265], [19.062660300000005, 47.509675600000044], [19.06189499999999, 47.50927030000005], [19.061828800000004, 47.50923520000005], [19.060534100000005, 47.5102458], [19.060441300000004, 47.51031830000002], [19.0607346, 47.51049830000001], [19.061009699999996, 47.51066720000005], [19.061331600000003, 47.51086140000003], [19.061439499999988, 47.51077660000002], [19.061888700000008, 47.510418400000056], [19.062756299999993, 47.5097265]]]}}, {"id": "24", "type": "Feature", "properties": {"index": 24, "n_sides": 4, "edges": "[(86, 95, 0), (95, 112, 0), (112, 107, 0), (107, 86, 0)]", "area": 27666.062325818104, "roundabout": false}, "geometry": {"type": "Polygon", "coordinates": [[[19.062756299999993, 47.5097265], [19.062867899999997, 47.50978660000004], [19.063840700000007, 47.51031100000003], [19.06613430000001, 47.508566700000046], [19.065070600000002, 47.50793290000002], [19.062837799999997, 47.50966340000003], [19.062756299999993, 47.5097265]]]}}, {"id": "25", "type": "Feature", "properties": {"index": 25, "n_sides": 4, "edges": "[(86, 70, 0), (70, 79, 0), (79, 95, 0), (95, 86, 0)]", "area": 16595.48990599517, "roundabout": false}, "geometry": {"type": "Polygon", "coordinates": [[[19.062756299999993, 47.5097265], [19.061888700000008, 47.510418400000056], [19.061439499999988, 47.51077660000002], [19.061331600000003, 47.51086140000003], [19.0616759, 47.511071500000035], [19.0621465, 47.511358500000036], [19.062249499999993, 47.511421400000025], [19.062359899999993, 47.51133870000001], [19.062811999999997, 47.511024900000045], [19.063840700000007, 47.51031100000003], [19.062867899999997, 47.50978660000004], [19.062756299999993, 47.5097265]]]}}, {"id": "26", "type": "Feature", "properties": {"index": 26, "n_sides": 4, "edges": "[(27, 58, 0), (58, 65, 0), (65, 68, 0), (68, 43, 0), (43, 27, 0)]", "area": 17461.923724860793, "roundabout": false}, "geometry": {"type": "Polygon", "coordinates": [[[19.057379399999995, 47.50546620000003], [19.057428599999998, 47.50550030000004], [19.0581381, 47.505992300000045], [19.058544600000005, 47.506274200000014], [19.058607599999984, 47.5063179], [19.0588502, 47.50648609999997], [19.059531499999995, 47.506958500000074], [19.060051299999994, 47.50653770000005], [19.060190400000003, 47.50642630000004], [19.0593321, 47.50583740000004], [19.0580826, 47.50498010000003], [19.057379399999995, 47.50546620000003]]]}}, {"id": "27", "type": "Feature", "properties": {"index": 27, "n_sides": 4, "edges": "[(65, 73, 0), (73, 87, 0), (87, 78, 0), (78, 74, 0), (74, 68, 0), (68, 65, 0)]", "area": 11578.771540722557, "roundabout": false}, "geometry": {"type": "Polygon", "coordinates": [[[19.060051299999994, 47.50653770000005], [19.060847499999998, 47.50696250000005], [19.060913411207444, 47.50700649569156], [19.062130372095833, 47.506164639101755], [19.062051399999994, 47.506117800000034], [19.061924, 47.50604330000004], [19.061204599999996, 47.50562270000007], [19.060770200000004, 47.50596520000004], [19.060229799999995, 47.506395000000055], [19.060190400000003, 47.50642630000004], [19.060051299999994, 47.50653770000005]]]}}, {"id": "28", "type": "Feature", "properties": {"index": 28, "n_sides": 4, "edges": "[(68, 74, 0), (74, 55, 0), (55, 43, 0), (43, 68, 0)]", "area": 15278.597880010628, "roundabout": false}, "geometry": {"type": "Polygon", "coordinates": [[[19.060190400000003, 47.50642630000004], [19.060229799999995, 47.506395000000055], [19.060770200000004, 47.50596520000004], [19.0587546, 47.5045517], [19.058727400000006, 47.50453260000001], [19.0580826, 47.50498010000003], [19.0593321, 47.50583740000004], [19.060190400000003, 47.50642630000004]]]}}, {"id": "29", "type": "Feature", "properties": {"index": 29, "n_sides": 4, "edges": "[(78, 87, 0), (87, 98, 0), (98, 91, 0), (91, 81, 0), (81, 78, 0)]", "area": 13527.717139676683, "roundabout": false}, "geometry": {"type": "Polygon", "coordinates": [[[19.061204599999996, 47.50562270000007], [19.061924, 47.50604330000004], [19.062051399999994, 47.506117800000034], [19.062130372095833, 47.506164639101755], [19.063395460368355, 47.50526743753602], [19.063326499999995, 47.50522060000003], [19.0630408, 47.505031899999985], [19.062983899999992, 47.50499390000003], [19.062883499999998, 47.50492710000002], [19.062795200000004, 47.50486470000003], [19.062595100000003, 47.50472330000002], [19.062467100000003, 47.50463880000003], [19.0623337, 47.50473740000001], [19.062293600000007, 47.504768000000006], [19.062187900000005, 47.50485050000001], [19.061450000000004, 47.5054268], [19.061204599999996, 47.50562270000007]]]}}, {"id": "30", "type": "Feature", "properties": {"index": 30, "n_sides": 4, "edges": "[(78, 81, 0), (81, 80, 0), (80, 63, 0), (63, 55, 0), (55, 74, 0), (74, 78, 0)]", "area": 16887.064049163564, "roundabout": false}, "geometry": {"type": "Polygon", "coordinates": [[[19.061204599999996, 47.50562270000007], [19.061450000000004, 47.5054268], [19.061394899999993, 47.5053885], [19.061159400000005, 47.50522520000004], [19.061109099999996, 47.50519030000004], [19.061039200000003, 47.505141799999976], [19.059640600000005, 47.50417180000001], [19.059484599999998, 47.50406000000004], [19.058727400000006, 47.50453260000001], [19.0587546, 47.5045517], [19.060770200000004, 47.50596520000004], [19.061204599999996, 47.50562270000007]]]}}, {"id": "31", "type": "Feature", "properties": {"index": 31, "n_sides": 4, "edges": "[(81, 91, 0), (91, 89, 0), (89, 80, 0), (80, 81, 0)]", "area": 3317.2200232628256, "roundabout": false}, "geometry": {"type": "Polygon", "coordinates": [[[19.061450000000004, 47.5054268], [19.062187900000005, 47.50485050000001], [19.062293600000007, 47.504768000000006], [19.0623337, 47.50473740000001], [19.062467100000003, 47.50463880000003], [19.0623024, 47.5045323], [19.0622207, 47.504476500000024], [19.062072599999997, 47.50457410000003], [19.061159400000005, 47.50522520000004], [19.061394899999993, 47.5053885], [19.061450000000004, 47.5054268]]]}}, {"id": "32", "type": "Feature", "properties": {"index": 32, "n_sides": 4, "edges": "[(98, 104, 0), (104, 119, 0), (119, 111, 0), (111, 98, 0)]", "area": 19542.316357410804, "roundabout": false}, "geometry": {"type": "Polygon", "coordinates": [[[19.063395460368355, 47.50526743753602], [19.0634666, 47.50531310000009], [19.0637543, 47.505503100000034], [19.0638379, 47.50555990000003], [19.0639295, 47.50562200000002], [19.0641018, 47.50573889999998], [19.064376600000003, 47.50592530000005], [19.0644628, 47.50586060000004], [19.064504099999994, 47.50582970000001], [19.06603029999999, 47.50465950000003], [19.0650333, 47.504047500000006], [19.064964930627475, 47.50398580978372], [19.064029303643885, 47.504791088119426], [19.063395460368355, 47.50526743753602]]]}}, {"id": "33", "type": "Feature", "properties": {"index": 33, "n_sides": 5, "edges": "[(98, 111, 0), (111, 115, 0), (115, 102, 0), (102, 99, 0), (99, 90, 0), (90, 89, 0), (89, 91, 0), (91, 98, 0)]", "area": 46361.95879722446, "roundabout": false}, "geometry": {"type": "Polygon", "coordinates": [[[19.063395460368355, 47.50526743753602], [19.064029303643885, 47.504791088119426], [19.064964930627475, 47.50398580978372], [19.065611202949338, 47.50341532565635], [19.065594799999996, 47.50331090000001], [19.065510899999996, 47.503263900000015], [19.0650745, 47.50305400000003], [19.064690999999996, 47.50288610000002], [19.064573100000004, 47.502832100000006], [19.064469799999998, 47.50278940000004], [19.06369969999999, 47.5024612], [19.0634221, 47.502327600000015], [19.063029199999992, 47.50264520000004], [19.062039199999997, 47.503377100000016], [19.06255589999999, 47.50370319999999], [19.062631900000003, 47.50371630000001], [19.062950999999995, 47.50393149999999], [19.0629554, 47.5039635], [19.062906299999995, 47.50399810000005], [19.062573799999992, 47.504232700000045], [19.062348700000005, 47.50439160000004], [19.062323699999997, 47.50440910000003], [19.062305200000004, 47.50442140000004], [19.0622207, 47.504476500000024], [19.0623024, 47.5045323], [19.062467100000003, 47.50463880000003], [19.062595100000003, 47.50472330000002], [19.062795200000004, 47.50486470000003], [19.062883499999998, 47.50492710000002], [19.062983899999992, 47.50499390000003], [19.0630408, 47.505031899999985], [19.063326499999995, 47.50522060000003], [19.063395460368355, 47.50526743753602]]]}}, {"id": "34", "type": "Feature", "properties": {"index": 34, "n_sides": 4, "edges": "[(104, 108, 0), (108, 116, 0), (116, 125, 0), (125, 119, 0), (119, 104, 0)]", "area": 17803.938080085165, "roundabout": false}, "geometry": {"type": "Polygon", "coordinates": [[[19.064376600000003, 47.50592530000005], [19.06527259999999, 47.506520600000016], [19.065353299999998, 47.50645100000001], [19.065396, 47.50641410000003], [19.066077799999995, 47.5058951], [19.066733200000005, 47.50537610000002], [19.066957399999996, 47.50519860000003], [19.06603029999999, 47.50465950000003], [19.064504099999994, 47.50582970000001], [19.0644628, 47.50586060000004], [19.064376600000003, 47.50592530000005]]]}}, {"id": "35", "type": "Feature", "properties": {"index": 35, "n_sides": 4, "edges": "[(89, 76, 0), (76, 63, 0), (63, 80, 0), (80, 89, 0)]", "area": 20600.084870810402, "roundabout": false}, "geometry": {"type": "Polygon", "coordinates": [[[19.0622207, 47.504476500000024], [19.061013599999995, 47.503659300000045], [19.0606608, 47.50342560000002], [19.060522399999996, 47.50333390000002], [19.06038389999999, 47.503428000000056], [19.060352400000003, 47.5034505], [19.059484599999998, 47.50406000000004], [19.059640600000005, 47.50417180000001], [19.061039200000003, 47.505141799999976], [19.061109099999996, 47.50519030000004], [19.061159400000005, 47.50522520000004], [19.062072599999997, 47.50457410000003], [19.0622207, 47.504476500000024]]]}}, {"id": "36", "type": "Feature", "properties": {"index": 36, "n_sides": 3, "edges": "[(89, 90, 0), (90, 83, 0), (83, 76, 0), (76, 89, 0)]", "area": 14002.105464143493, "roundabout": false}, "geometry": {"type": "Polygon", "coordinates": [[[19.0622207, 47.504476500000024], [19.062305200000004, 47.50442140000004], [19.062323699999997, 47.50440910000003], [19.062348700000005, 47.50439160000004], [19.062573799999992, 47.504232700000045], [19.062906299999995, 47.50399810000005], [19.0629554, 47.5039635], [19.062950999999995, 47.50393149999999], [19.062631900000003, 47.50371630000001], [19.06255589999999, 47.50370319999999], [19.062039199999997, 47.503377100000016], [19.061921400000003, 47.503301600000064], [19.061678299999997, 47.503150100000035], [19.061223700000003, 47.50286830000003], [19.061197300000003, 47.50285320000003], [19.060641299999993, 47.50325140000003], [19.060596999999998, 47.50328190000004], [19.060522399999996, 47.50333390000002], [19.0606608, 47.50342560000002], [19.061013599999995, 47.503659300000045], [19.0622207, 47.504476500000024]]]}}, {"id": "37", "type": "Feature", "properties": {"index": 37, "n_sides": 4, "edges": "[(115, 111, 0), (111, 119, 0), (119, 127, 0), (127, 115, 0)]", "area": 10275.632737983808, "roundabout": false}, "geometry": {"type": "Polygon", "coordinates": [[[19.065611202949338, 47.50341532565635], [19.064964930627475, 47.50398580978372], [19.0650333, 47.504047500000006], [19.06603029999999, 47.50465950000003], [19.066845299999997, 47.504046300000034], [19.066564600000003, 47.50387340000003], [19.065965399999993, 47.503518199999995], [19.06584119999999, 47.503448999999996], [19.065762099999993, 47.50340450000006], [19.065611202949338, 47.50341532565635]]]}}, {"id": "38", "type": "Feature", "properties": {"index": 38, "n_sides": 4, "edges": "[(108, 113, 0), (113, 123, 0), (123, 116, 0), (116, 108, 0)]", "area": 8728.124132945786, "roundabout": false}, "geometry": {"type": "Polygon", "coordinates": [[[19.06527259999999, 47.506520600000016], [19.06562, 47.50675210000005], [19.0660697, 47.50705200000004], [19.066140499999992, 47.50709900000003], [19.0662256, 47.507031300000044], [19.06627020000001, 47.506996900000004], [19.066306999999995, 47.506970800000026], [19.066332399999997, 47.50695250000001], [19.0669943, 47.50645350000001], [19.066869599999997, 47.506377400000034], [19.06634439999999, 47.50605700000001], [19.0662333, 47.505989800000044], [19.066077799999995, 47.5058951], [19.065396, 47.50641410000003], [19.065353299999998, 47.50645100000001], [19.06527259999999, 47.506520600000016]]]}}, {"id": "39", "type": "Feature", "properties": {"index": 39, "n_sides": 4, "edges": "[(119, 125, 0), (125, 133, 0), (133, 127, 0), (127, 119, 0)]", "area": 8145.359089319476, "roundabout": false}, "geometry": {"type": "Polygon", "coordinates": [[[19.06603029999999, 47.50465950000003], [19.066957399999996, 47.50519860000003], [19.067708599999996, 47.50456120000003], [19.066845299999997, 47.504046300000034], [19.06603029999999, 47.50465950000003]]]}}, {"id": "40", "type": "Feature", "properties": {"index": 40, "n_sides": 4, "edges": "[(125, 132, 0), (132, 139, 0), (139, 133, 0), (133, 125, 0)]", "area": 8718.35011947834, "roundabout": false}, "geometry": {"type": "Polygon", "coordinates": [[[19.066957399999996, 47.50519860000003], [19.0671077, 47.505289900000065], [19.067897800000004, 47.50576980000001], [19.068672699999997, 47.50515290000005], [19.067708599999996, 47.50456120000003], [19.066957399999996, 47.50519860000003]]]}}, {"id": "41", "type": "Feature", "properties": {"index": 41, "n_sides": 4, "edges": "[(125, 116, 0), (116, 123, 0), (123, 132, 0), (132, 125, 0)]", "area": 9582.49125648334, "roundabout": false}, "geometry": {"type": "Polygon", "coordinates": [[[19.066957399999996, 47.50519860000003], [19.066733200000005, 47.50537610000002], [19.066077799999995, 47.5058951], [19.0662333, 47.505989800000044], [19.06634439999999, 47.50605700000001], [19.066869599999997, 47.506377400000034], [19.0669943, 47.50645350000001], [19.067897800000004, 47.50576980000001], [19.0671077, 47.505289900000065], [19.066957399999996, 47.50519860000003]]]}}, {"id": "42", "type": "Feature", "properties": {"index": 42, "n_sides": 4, "edges": "[(102, 96, 0), (96, 93, 0), (93, 99, 0), (99, 102, 0)]", "area": 3823.315119282923, "roundabout": false}, "geometry": {"type": "Polygon", "coordinates": [[[19.0634221, 47.502327600000015], [19.063185500000003, 47.50220670000003], [19.062618200000003, 47.501900600000006], [19.062501199999996, 47.50183740000004], [19.062442499999992, 47.5018826], [19.062148199999996, 47.50210950000005], [19.0622903, 47.50219820000007], [19.0629811, 47.50261829999998], [19.063029199999992, 47.50264520000004], [19.0634221, 47.502327600000015]]]}}, {"id": "43", "type": "Feature", "properties": {"index": 43, "n_sides": 4, "edges": "[(96, 84, 0), (84, 71, 0), (71, 72, 0), (72, 83, 0), (83, 93, 0), (93, 96, 0)]", "area": 22303.416944880446, "roundabout": false}, "geometry": {"type": "Polygon", "coordinates": [[[19.062501199999996, 47.50183740000004], [19.062417099999994, 47.50178120000004], [19.062093099999988, 47.50156670000001], [19.061534899999998, 47.50119200000004], [19.061439299999993, 47.501128100000074], [19.0611237, 47.50089750000001], [19.059768399999992, 47.50189930000002], [19.059913500000004, 47.50199680000006], [19.061068699999993, 47.50276880000002], [19.061197300000003, 47.50285320000003], [19.062148199999996, 47.50210950000005], [19.062442499999992, 47.5018826], [19.062501199999996, 47.50183740000004]]]}}, {"id": "44", "type": "Feature", "properties": {"index": 44, "n_sides": 4, "edges": "[(99, 93, 0), (93, 83, 0), (83, 90, 0), (90, 99, 0)]", "area": 9602.09675862565, "roundabout": false}, "geometry": {"type": "Polygon", "coordinates": [[[19.063029199999992, 47.50264520000004], [19.0629811, 47.50261829999998], [19.0622903, 47.50219820000007], [19.062148199999996, 47.50210950000005], [19.061197300000003, 47.50285320000003], [19.061223700000003, 47.50286830000003], [19.061678299999997, 47.503150100000035], [19.061921400000003, 47.503301600000064], [19.062039199999997, 47.503377100000016], [19.063029199999992, 47.50264520000004]]]}}, {"id": "45", "type": "Feature", "properties": {"index": 45, "n_sides": 3, "edges": "[(79, 88, 0), (88, 103, 0), (103, 97, 0), (97, 92, 0), (92, 85, 0), (85, 79, 0)]", "area": 9566.40431323916, "roundabout": false}, "geometry": {"type": "Polygon", "coordinates": [[[19.062249499999993, 47.511421400000025], [19.0621402, 47.51150680000001], [19.062126899999996, 47.511548499999996], [19.062126900000003, 47.51157940000002], [19.062138700000002, 47.51161780000004], [19.062161100000004, 47.51165970000006], [19.062219399999996, 47.511735900000026], [19.062302399999993, 47.5118129], [19.0625151, 47.511935], [19.063382300000004, 47.51243280000006], [19.0634886, 47.51250820000002], [19.063544099999994, 47.51258740000006], [19.063519599999992, 47.512699000000026], [19.063463599999995, 47.51281080000001], [19.063669499999996, 47.51276330000004], [19.063829000000002, 47.51277040000004], [19.063982499999987, 47.51280410000004], [19.064340799999997, 47.51301140000004], [19.065075200000003, 47.513447300000074], [19.065210000000008, 47.51349210000004], [19.0653325, 47.51349790000002], [19.0653878, 47.51349110000006], [19.065442700000002, 47.51346960000001], [19.06553329999999, 47.51339290000003], [19.065434099999994, 47.51333160000001], [19.065085399999994, 47.51312400000004], [19.064630499999996, 47.51285080000002], [19.064055699999997, 47.5125057], [19.063906499999995, 47.51241620000001], [19.063836599999995, 47.512374300000026], [19.063133899999993, 47.511952400000034], [19.062935799999998, 47.51183349999997], [19.062704099999994, 47.51169429999998], [19.062375199999998, 47.511496900000026], [19.062249499999993, 47.511421400000025]]]}}, {"id": "46", "type": "Feature", "properties": {"index": 46, "n_sides": 4, "edges": "[(79, 85, 0), (85, 100, 0), (100, 95, 0), (95, 79, 0)]", "area": 15008.9848461722, "roundabout": false}, "geometry": {"type": "Polygon", "coordinates": [[[19.062249499999993, 47.511421400000025], [19.062375199999998, 47.511496900000026], [19.062704099999994, 47.51169429999998], [19.062935799999998, 47.51183349999997], [19.063133899999993, 47.511952400000034], [19.064705299999996, 47.51077370000001], [19.063963699999995, 47.51037450000002], [19.063840700000007, 47.51031100000003], [19.062811999999997, 47.511024900000045], [19.062359899999993, 47.51133870000001], [19.062249499999993, 47.511421400000025]]]}}, {"id": "47", "type": "Feature", "properties": {"index": 47, "n_sides": 4, "edges": "[(97, 103, 0), (103, 114, 0), (114, 110, 0), (110, 97, 0)]", "area": 15652.16126629735, "roundabout": false}, "geometry": {"type": "Polygon", "coordinates": [[[19.064630499999996, 47.51285080000002], [19.065085399999994, 47.51312400000004], [19.065434099999994, 47.51333160000001], [19.06553329999999, 47.51339290000003], [19.065631500000002, 47.51330900000002], [19.067052000000004, 47.512130900000024], [19.0670841, 47.51210430000006], [19.0662445, 47.51165130000004], [19.064630499999996, 47.51285080000002]]]}}, {"id": "48", "type": "Feature", "properties": {"index": 48, "n_sides": 4, "edges": "[(97, 110, 0), (110, 106, 0), (106, 92, 0), (92, 97, 0)]", "area": 12801.962784080763, "roundabout": false}, "geometry": {"type": "Polygon", "coordinates": [[[19.064630499999996, 47.51285080000002], [19.0662445, 47.51165130000004], [19.0656109, 47.51127540000005], [19.065552999999994, 47.51124100000001], [19.064534700000003, 47.51196830000002], [19.063966800000003, 47.51237320000004], [19.063906499999995, 47.51241620000001], [19.064055699999997, 47.5125057], [19.064630499999996, 47.51285080000002]]]}}, {"id": "49", "type": "Feature", "properties": {"index": 49, "n_sides": 4, "edges": "[(114, 103, 0), (103, 109, 0), (109, 124, 0), (124, 114, 0)]", "area": 20137.489417889818, "roundabout": false}, "geometry": {"type": "Polygon", "coordinates": [[[19.0670841, 47.51210430000006], [19.067052000000004, 47.512130900000024], [19.065631500000002, 47.51330900000002], [19.06553329999999, 47.51339290000003], [19.065652899999996, 47.51346390000001], [19.0661966, 47.51378660000008], [19.0666241, 47.51404039999999], [19.066733699999997, 47.513946200000014], [19.067153999999995, 47.51358360000003], [19.0681806, 47.51270780000003], [19.0670841, 47.51210430000006]]]}}, {"id": "50", "type": "Feature", "properties": {"index": 50, "n_sides": 4, "edges": "[(114, 128, 0), (128, 121, 0), (121, 110, 0), (110, 114, 0)]", "area": 11285.78305285977, "roundabout": false}, "geometry": {"type": "Polygon", "coordinates": [[[19.0670841, 47.51210430000006], [19.068255500000006, 47.51115550000004], [19.067523800000004, 47.51065570000002], [19.0662445, 47.51165130000004], [19.0670841, 47.51210430000006]]]}}, {"id": "51", "type": "Feature", "properties": {"index": 51, "n_sides": 4, "edges": "[(114, 124, 0), (124, 134, 0), (134, 128, 0), (128, 114, 0)]", "area": 13424.254363398395, "roundabout": false}, "geometry": {"type": "Polygon", "coordinates": [[[19.0670841, 47.51210430000006], [19.0681806, 47.51270780000003], [19.069163100000004, 47.51181880000004], [19.068255500000006, 47.51115550000004], [19.0670841, 47.51210430000006]]]}}, {"id": "52", "type": "Feature", "properties": {"index": 52, "n_sides": 4, "edges": "[(145, 158, 0), (158, 169, 0), (169, 160, 0), (160, 145, 0)]", "area": 35883.9461851021, "roundabout": false}, "geometry": {"type": "Polygon", "coordinates": [[[19.071414299999994, 47.51660620000003], [19.0714517, 47.51662500000002], [19.071497199999996, 47.51664790000003], [19.072365800000004, 47.517084700000005], [19.072565000000004, 47.51718830000007], [19.072925299999998, 47.517376], [19.073128899999997, 47.517481700000005], [19.07342577664871, 47.51763494638858], [19.073660099999998, 47.51742740000003], [19.07397209999999, 47.51715089999998], [19.074042899999995, 47.517088200000046], [19.07448379999999, 47.516697400000034], [19.074634899999996, 47.51656360000002], [19.074821899999996, 47.516397800000014], [19.07499109999999, 47.51624850000003], [19.07485129999999, 47.516180400000025], [19.073077799999997, 47.515262700000044], [19.0730208, 47.515310000000014], [19.072674000000006, 47.51559829999999], [19.07245259999999, 47.515775500000025], [19.072161000000005, 47.51600870000001], [19.0720676, 47.51608350000002], [19.071571800000005, 47.51648020000003], [19.0715091, 47.5165304], [19.071414299999994, 47.51660620000003]]]}}, {"id": "53", "type": "Feature", "properties": {"index": 53, "n_sides": 4, "edges": "[(145, 160, 0), (160, 148, 0), (148, 131, 0), (131, 145, 0)]", "area": 35360.58912028357, "roundabout": false}, "geometry": {"type": "Polygon", "coordinates": [[[19.071414299999994, 47.51660620000003], [19.0715091, 47.5165304], [19.071571800000005, 47.51648020000003], [19.0720676, 47.51608350000002], [19.072161000000005, 47.51600870000001], [19.07245259999999, 47.515775500000025], [19.072674000000006, 47.51559829999999], [19.0730208, 47.515310000000014], [19.073077799999997, 47.515262700000044], [19.071174199999998, 47.51427739999999], [19.069494699999996, 47.515617100000014], [19.0700089, 47.51588200000002], [19.0701408, 47.51595000000001], [19.070221200000002, 47.51599140000002], [19.0707852, 47.51628200000001], [19.0713233, 47.51655929999999], [19.071414299999994, 47.51660620000003]]]}}, {"id": "54", "type": "Feature", "properties": {"index": 54, "n_sides": 4, "edges": "[(118, 131, 0), (131, 148, 0), (148, 135, 0), (135, 118, 0)]", "area": 31202.981120674, "roundabout": false}, "geometry": {"type": "Polygon", "coordinates": [[[19.0678008, 47.51473890000001], [19.0678886, 47.514784799999994], [19.068622299999994, 47.51516780000004], [19.069494699999996, 47.515617100000014], [19.071174199999998, 47.51427739999999], [19.069577300000002, 47.513449999999985], [19.0694981, 47.51340849999999], [19.0694411, 47.51345430000005], [19.068401799999993, 47.51426520000004], [19.06794469999999, 47.51463270000001], [19.0679106, 47.514658499999996], [19.0678008, 47.51473890000001]]]}}, {"id": "55", "type": "Feature", "properties": {"index": 55, "n_sides": 4, "edges": "[(118, 135, 0), (135, 124, 0), (124, 109, 0), (109, 118, 0)]", "area": 23464.157519794415, "roundabout": false}, "geometry": {"type": "Polygon", "coordinates": [[[19.0678008, 47.51473890000001], [19.0679106, 47.514658499999996], [19.06794469999999, 47.51463270000001], [19.068401799999993, 47.51426520000004], [19.0694411, 47.51345430000005], [19.0694981, 47.51340849999999], [19.069428399999993, 47.51337130000006], [19.0681806, 47.51270780000003], [19.067153999999995, 47.51358360000003], [19.066733699999997, 47.513946200000014], [19.0666241, 47.51404039999999], [19.067628600000003, 47.514636700000004], [19.0678008, 47.51473890000001]]]}}, {"id": "56", "type": "Feature", "properties": {"index": 56, "n_sides": 4, "edges": "[(148, 160, 0), (160, 168, 0), (168, 161, 0), (161, 156, 0), (156, 148, 0)]", "area": 30969.253064500732, "roundabout": false}, "geometry": {"type": "Polygon", "coordinates": [[[19.071174199999998, 47.51427739999999], [19.073077799999997, 47.515262700000044], [19.073154099999996, 47.515200600000014], [19.074489900000003, 47.5141128], [19.074403300000004, 47.51405820000003], [19.072791000000002, 47.51304440000002], [19.07206259999999, 47.51360400000004], [19.071174199999998, 47.51427739999999]]]}}, {"id": "57", "type": "Feature", "properties": {"index": 57, "n_sides": 4, "edges": "[(148, 156, 0), (156, 142, 0), (142, 135, 0), (135, 148, 0)]", "area": 16783.96533186683, "roundabout": false}, "geometry": {"type": "Polygon", "coordinates": [[[19.071174199999998, 47.51427739999999], [19.07206259999999, 47.51360400000004], [19.0705627, 47.51272200000004], [19.0704679, 47.512656700000015], [19.0697494, 47.51321010000002], [19.069594599999995, 47.51333110000005], [19.0695505, 47.513367599999995], [19.0694981, 47.51340849999999], [19.069577300000002, 47.513449999999985], [19.071174199999998, 47.51427739999999]]]}}, {"id": "58", "type": "Feature", "properties": {"index": 58, "n_sides": 4, "edges": "[(160, 169, 0), (169, 173, 0), (173, 168, 0), (168, 160, 0)]", "area": 28226.608414471248, "roundabout": false}, "geometry": {"type": "Polygon", "coordinates": [[[19.073077799999997, 47.515262700000044], [19.07485129999999, 47.516180400000025], [19.07499109999999, 47.51624850000003], [19.0750763, 47.51617330000004], [19.075582899999993, 47.51572610000006], [19.0760862, 47.51528470000001], [19.076213799999998, 47.515177], [19.076103200000002, 47.51510870000005], [19.076073000000004, 47.51509010000007], [19.074489900000003, 47.5141128], [19.073154099999996, 47.515200600000014], [19.073077799999997, 47.515262700000044]]]}}, {"id": "59", "type": "Feature", "properties": {"index": 59, "n_sides": 4, "edges": "[(173, 177, 0), (177, 171, 0), (171, 168, 0), (168, 173, 0)]", "area": 19171.02663629044, "roundabout": false}, "geometry": {"type": "Polygon", "coordinates": [[[19.076213799999998, 47.515177], [19.0762414, 47.515154100000025], [19.076321999999998, 47.51508620000005], [19.0764457, 47.514982100000054], [19.076535, 47.51490690000002], [19.076707499999994, 47.5147665], [19.077105399999997, 47.5144353], [19.076945899999995, 47.51432780000002], [19.076921199999997, 47.51431230000002], [19.0768967, 47.51429600000003], [19.0766239, 47.51411480000003], [19.076517399999993, 47.51404410000006], [19.075692900000004, 47.51349650000006], [19.075444700000002, 47.513322700000046], [19.075363699999997, 47.51339710000001], [19.075353300000007, 47.513406600000046], [19.075310599999995, 47.51344489999998], [19.074489900000003, 47.5141128], [19.076073000000004, 47.51509010000007], [19.076103200000002, 47.51510870000005], [19.076213799999998, 47.515177]]]}}, {"id": "60", "type": "Feature", "properties": {"index": 60, "n_sides": 4, "edges": "[(174, 164, 0), (164, 157, 0), (157, 151, 0), (151, 167, 0), (167, 174, 0)]", "area": 52160.74981284699, "roundabout": false}, "geometry": {"type": "Polygon", "coordinates": [[[19.075168999999995, 47.50866150000002], [19.074994699999998, 47.50858559999999], [19.074967499999996, 47.508573699999985], [19.0742586, 47.50826490000005], [19.0735863, 47.50797200000002], [19.073163499999993, 47.50778769999999], [19.072650999999997, 47.50756130000001], [19.0725863, 47.507613199999994], [19.072519200000006, 47.50766720000002], [19.0723651, 47.507791600000004], [19.0719833, 47.50809970000004], [19.0715496, 47.508453700000025], [19.07094829999999, 47.50894840000003], [19.070769199999997, 47.50909790000001], [19.073488100000002, 47.51032880000004], [19.0749761, 47.508796600000025], [19.074993700000007, 47.50877840000005], [19.075015999999998, 47.50875520000002], [19.075168999999995, 47.50866150000002]]]}}, {"id": "62", "type": "Feature", "properties": {"index": 62, "n_sides": 4, "edges": "[(181, 178, 0), (178, 175, 0), (175, 180, 0), (180, 181, 0)]", "area": 16803.188258235452, "roundabout": false}, "geometry": {"type": "Polygon", "coordinates": [[[19.078892900000007, 47.51275730000005], [19.078810099999995, 47.51272560000001], [19.0787684, 47.51270960000001], [19.078468799999992, 47.51257580000002], [19.077097600000005, 47.51196350000002], [19.076320799999994, 47.51258160000004], [19.077841300000003, 47.51350560000001], [19.0779776, 47.513584100000024], [19.078352900000006, 47.513251300000015], [19.078892900000007, 47.51275730000005]]]}}, {"id": "63", "type": "Feature", "properties": {"index": 63, "n_sides": 4, "edges": "[(164, 162, 0), (162, 153, 0), (153, 157, 0), (157, 164, 0)]", "area": 9861.288965772828, "roundabout": false}, "geometry": {"type": "Polygon", "coordinates": [[[19.072650999999997, 47.50756130000001], [19.072318599999996, 47.50735000000001], [19.0719816, 47.507135800000015], [19.071652100000005, 47.507346700000014], [19.07074019999999, 47.50793930000002], [19.0715496, 47.508453700000025], [19.0719833, 47.50809970000004], [19.0723651, 47.507791600000004], [19.072519200000006, 47.50766720000002], [19.0725863, 47.507613199999994], [19.072650999999997, 47.50756130000001]]]}}, {"id": "64", "type": "Feature", "properties": {"index": 64, "n_sides": 4, "edges": "[(172, 167, 0), (167, 163, 0), (163, 170, 0), (170, 172, 0)]", "area": 8482.265625880014, "roundabout": false}, "geometry": {"type": "Polygon", "coordinates": [[[19.075272700000003, 47.51114560000004], [19.073488100000002, 47.51032880000004], [19.073121199999992, 47.510613700000036], [19.0747081, 47.51157190000001], [19.075272700000003, 47.51114560000004]]]}}, {"id": "65", "type": "Feature", "properties": {"index": 65, "n_sides": 4, "edges": "[(172, 170, 0), (170, 175, 0), (175, 178, 0), (178, 176, 0), (176, 172, 0)]", "area": 12552.53652241033, "roundabout": false}, "geometry": {"type": "Polygon", "coordinates": [[[19.075272700000003, 47.51114560000004], [19.0747081, 47.51157190000001], [19.076320799999994, 47.51258160000004], [19.077097600000005, 47.51196350000002], [19.076359000000004, 47.51164519999999], [19.075272700000003, 47.51114560000004]]]}}, {"id": "66", "type": "Feature", "properties": {"index": 66, "n_sides": 4, "edges": "[(163, 167, 0), (167, 151, 0), (151, 144, 0), (144, 159, 0), (159, 163, 0)]", "area": 26900.804183388515, "roundabout": false}, "geometry": {"type": "Polygon", "coordinates": [[[19.073121199999992, 47.510613700000036], [19.073488100000002, 47.51032880000004], [19.070769199999997, 47.50909790000001], [19.070514299999992, 47.509312200000025], [19.0704918, 47.50933109999999], [19.070134899999992, 47.50961130000004], [19.0700253, 47.509702400000066], [19.07012599999999, 47.50977190000006], [19.0705316, 47.51004770000004], [19.070591399999994, 47.51008750000004], [19.070948499999997, 47.51032430000002], [19.0719418, 47.51098290000003], [19.072186500000004, 47.51114520000001], [19.072244, 47.511183700000046], [19.0723113, 47.511228300000056], [19.072399600000004, 47.51115810000001], [19.0724501, 47.511118900000014], [19.0724742, 47.511099600000016], [19.072493200000004, 47.51108360000006], [19.072534699999995, 47.51105250000002], [19.07289, 47.510786700000025], [19.073121199999992, 47.510613700000036]]]}}, {"id": "67", "type": "Feature", "properties": {"index": 67, "n_sides": 4, "edges": "[(163, 159, 0), (159, 166, 0), (166, 170, 0), (170, 163, 0)]", "area": 15361.235095773176, "roundabout": false}, "geometry": {"type": "Polygon", "coordinates": [[[19.073121199999992, 47.510613700000036], [19.07289, 47.510786700000025], [19.072534699999995, 47.51105250000002], [19.072493200000004, 47.51108360000006], [19.0724742, 47.511099600000016], [19.0724501, 47.511118900000014], [19.072399600000004, 47.51115810000001], [19.0723113, 47.511228300000056], [19.072382499999993, 47.51127700000005], [19.072420199999993, 47.51130240000006], [19.072778399999997, 47.51154270000002], [19.07381809999999, 47.51224010000004], [19.073910199999997, 47.51217300000006], [19.073964999999994, 47.51213300000003], [19.0740347, 47.51208040000003], [19.0747081, 47.51157190000001], [19.073121199999992, 47.510613700000036]]]}}, {"id": "68", "type": "Feature", "properties": {"index": 68, "n_sides": 4, "edges": "[(162, 154, 0), (154, 147, 0), (147, 143, 0), (143, 153, 0), (153, 162, 0)]", "area": 16352.904408985065, "roundabout": false}, "geometry": {"type": "Polygon", "coordinates": [[[19.0719816, 47.507135800000015], [19.071843599999994, 47.50705559999998], [19.070638999999996, 47.506330700000035], [19.070610900000002, 47.506352799999995], [19.069867399999996, 47.506937999999984], [19.069552600000005, 47.50718450000002], [19.07074019999999, 47.50793930000002], [19.071652100000005, 47.507346700000014], [19.0719816, 47.507135800000015]]]}}, {"id": "69", "type": "Feature", "properties": {"index": 69, "n_sides": 4, "edges": "[(157, 153, 0), (153, 146, 0), (146, 137, 0), (137, 144, 0), (144, 151, 0), (151, 157, 0)]", "area": 18080.405401388907, "roundabout": false}, "geometry": {"type": "Polygon", "coordinates": [[[19.0715496, 47.508453700000025], [19.07074019999999, 47.50793930000002], [19.070064599999995, 47.508314399999996], [19.069052100000007, 47.5088776], [19.0690134, 47.50889930000006], [19.068906000000002, 47.50895990000004], [19.069424200000004, 47.50931030000001], [19.069496199999996, 47.50935790000004], [19.069919200000005, 47.509629400000044], [19.0700253, 47.509702400000066], [19.070134899999992, 47.50961130000004], [19.0704918, 47.50933109999999], [19.070514299999992, 47.509312200000025], [19.070769199999997, 47.50909790000001], [19.07094829999999, 47.50894840000003], [19.0715496, 47.508453700000025]]]}}, {"id": "70", "type": "Feature", "properties": {"index": 70, "n_sides": 4, "edges": "[(180, 175, 0), (175, 171, 0), (171, 177, 0), (177, 180, 0)]", "area": 18952.260398989412, "roundabout": false}, "geometry": {"type": "Polygon", "coordinates": [[[19.0779776, 47.513584100000024], [19.077841300000003, 47.51350560000001], [19.076320799999994, 47.51258160000004], [19.075562199999993, 47.51321470000004], [19.07552449999999, 47.51324940000002], [19.075444700000002, 47.513322700000046], [19.075692900000004, 47.51349650000006], [19.076517399999993, 47.51404410000006], [19.0766239, 47.51411480000003], [19.0768967, 47.51429600000003], [19.076921199999997, 47.51431230000002], [19.076945899999995, 47.51432780000002], [19.077105399999997, 47.5144353], [19.077610099999994, 47.51402820000007], [19.07758319999999, 47.51392920000005], [19.077616100000004, 47.51390160000004], [19.077800399999997, 47.51373120000004], [19.0779776, 47.513584100000024]]]}}, {"id": "71", "type": "Feature", "properties": {"index": 71, "n_sides": 5, "edges": "[(9, 8, 0), (8, 26, 0), (26, 39, 0), (39, 15, 0), (15, 9, 0)]", "area": 15522.821305573309, "roundabout": false}, "geometry": {"type": "Polygon", "coordinates": [[[19.054900400000005, 47.50230190000005], [19.054903399999993, 47.50246479999999], [19.054907599999993, 47.50263340000004], [19.054909800000008, 47.5027611], [19.0549121, 47.50281980000004], [19.055119000000005, 47.502959300000015], [19.0562041, 47.503691000000046], [19.056416, 47.50383580000008], [19.057035800000005, 47.50426170000003], [19.0575943, 47.50379770000002], [19.056747099999995, 47.503253599999994], [19.05529519999999, 47.50231570000007], [19.0551443, 47.5023072], [19.0551078, 47.50230520000005], [19.055048200000005, 47.50230180000003], [19.054900400000005, 47.50230190000005]]]}}, {"id": "72", "type": "Feature", "properties": {"index": 72, "n_sides": 4, "edges": "[(9, 15, 0), (15, 19, 0), (19, 10, 0), (10, 9, 0)]", "area": 4335.330643119288, "roundabout": false}, "geometry": {"type": "Polygon", "coordinates": [[[19.054900400000005, 47.50230190000005], [19.055048200000005, 47.50230180000003], [19.0551078, 47.50230520000005], [19.0551443, 47.5023072], [19.05529519999999, 47.50231570000007], [19.055917500000003, 47.50206789999998], [19.055094499999992, 47.50152310000002], [19.054891599999998, 47.50138880000006], [19.054900400000005, 47.50230190000005]]]}}, {"id": "73", "type": "Feature", "properties": {"index": 73, "n_sides": 4, "edges": "[(26, 43, 0), (43, 55, 0), (55, 39, 0), (39, 26, 0)]", "area": 7822.671722925746, "roundabout": false}, "geometry": {"type": "Polygon", "coordinates": [[[19.057035800000005, 47.50426170000003], [19.0580826, 47.50498010000003], [19.058727400000006, 47.50453260000001], [19.0575943, 47.50379770000002], [19.057035800000005, 47.50426170000003]]]}}, {"id": "74", "type": "Feature", "properties": {"index": 74, "n_sides": 4, "edges": "[(19, 15, 0), (15, 39, 0), (39, 48, 0), (48, 38, 0), (38, 19, 0)]", "area": 11979.614433948653, "roundabout": false}, "geometry": {"type": "Polygon", "coordinates": [[[19.055917500000003, 47.50206789999998], [19.05529519999999, 47.50231570000007], [19.056747099999995, 47.503253599999994], [19.0575943, 47.50379770000002], [19.057987699999995, 47.50350000000002], [19.058056800000003, 47.50344260000006], [19.057391299999995, 47.50303070000007], [19.055917500000003, 47.50206789999998]]]}}, {"id": "75", "type": "Feature", "properties": {"index": 75, "n_sides": 5, "edges": "[(19, 38, 0), (38, 51, 0), (51, 29, 0), (29, 24, 0), (24, 22, 0), (22, 11, 0), (11, 10, 0), (10, 19, 0)]", "area": 23004.428756722846, "roundabout": false}, "geometry": {"type": "Polygon", "coordinates": [[[19.055917500000003, 47.50206789999998], [19.057391299999995, 47.50303070000007], [19.05817489999999, 47.50241050000004], [19.058130699999996, 47.50239110000002], [19.056761300000005, 47.50154420000003], [19.056069899999994, 47.50110900000002], [19.05586970000001, 47.50097920000007], [19.0550861, 47.501032100000046], [19.055044100000003, 47.50103490000001], [19.054884900000005, 47.50104650000001], [19.054885199999998, 47.50106290000004], [19.054891599999998, 47.50138880000006], [19.055094499999992, 47.50152310000002], [19.055917500000003, 47.50206789999998]]]}}, {"id": "76", "type": "Feature", "properties": {"index": 76, "n_sides": 3, "edges": "[(61, 17, 0), (17, 44, 0), (44, 61, 0)]", "area": 39750.67803523604, "roundabout": false}, "geometry": {"type": "Polygon", "coordinates": [[[19.058342, 47.49920250000002], [19.058218699999994, 47.49912980000003], [19.057090199999994, 47.49851760000004], [19.057007199999994, 47.498473299999986], [19.056877000000004, 47.498403800000034], [19.056735899999993, 47.49832860000007], [19.056126999999996, 47.49800520000003], [19.0554944, 47.49766370000005], [19.05546049999999, 47.497645600000006], [19.055315500000006, 47.49758240000002], [19.055266800000002, 47.49760490000008], [19.0551712, 47.497653900000046], [19.05506219999999, 47.49772040000001], [19.054980100000005, 47.49781020000005], [19.0549151, 47.497899200000006], [19.054883600000004, 47.49795430000003], [19.054854699999993, 47.498056400000074], [19.054851899999992, 47.49808960000001], [19.0548377, 47.49815610000003], [19.054792600000003, 47.49841710000003], [19.054797600000004, 47.49851320000003], [19.0548258, 47.49903080000003], [19.05483239999999, 47.49918780000004], [19.054993999999994, 47.499185800000014], [19.055091199999993, 47.49919600000002], [19.055175899999995, 47.4992132], [19.055720200000003, 47.4994619], [19.055800799999997, 47.49949450000004], [19.056078299999985, 47.499606599999986], [19.057246399999993, 47.500174400000006], [19.057322199999994, 47.500136000000055], [19.058342, 47.49920250000002]]]}}, {"id": "77", "type": "Feature", "properties": {"index": 77, "n_sides": 4, "edges": "[(61, 44, 0), (44, 59, 0), (59, 75, 0), (75, 61, 0)]", "area": 20600.187356064747, "roundabout": false}, "geometry": {"type": "Polygon", "coordinates": [[[19.058342, 47.49920250000002], [19.057322199999994, 47.500136000000055], [19.057246399999993, 47.500174400000006], [19.0574915, 47.500296000000006], [19.057658600000003, 47.50039870000002], [19.058603999999995, 47.50106860000002], [19.059912799999996, 47.500029700000034], [19.059868299999994, 47.500006200000044], [19.0589571, 47.49952300000004], [19.058342, 47.49920250000002]]]}}, {"id": "78", "type": "Feature", "properties": {"index": 78, "n_sides": 4, "edges": "[(17, 16, 0), (16, 28, 0), (28, 44, 0), (44, 17, 0)]", "area": 12204.001053671447, "roundabout": false}, "geometry": {"type": "Polygon", "coordinates": [[[19.05483239999999, 47.49918780000004], [19.054841000000003, 47.499415000000035], [19.054844799999994, 47.49951120000001], [19.055051699999993, 47.49966680000003], [19.055183700000004, 47.49977470000001], [19.055220299999995, 47.499804600000004], [19.055261799999997, 47.49983420000004], [19.055379900000002, 47.499918700000016], [19.05574589999999, 47.50016980000002], [19.0565852, 47.500726100000016], [19.056710499999998, 47.50062350000003], [19.0571812, 47.50020450000004], [19.057246399999993, 47.500174400000006], [19.056078299999985, 47.499606599999986], [19.055800799999997, 47.49949450000004], [19.055720200000003, 47.4994619], [19.055175899999995, 47.4992132], [19.055091199999993, 47.49919600000002], [19.054993999999994, 47.499185800000014], [19.05483239999999, 47.49918780000004]]]}}, {"id": "79", "type": "Feature", "properties": {"index": 79, "n_sides": 4, "edges": "[(44, 28, 0), (28, 40, 0), (40, 50, 0), (50, 59, 0), (59, 44, 0)]", "area": 11391.169629250027, "roundabout": false}, "geometry": {"type": "Polygon", "coordinates": [[[19.057246399999993, 47.500174400000006], [19.0571812, 47.50020450000004], [19.056710499999998, 47.50062350000003], [19.0565852, 47.500726100000016], [19.0571684, 47.50111500000002], [19.057269399999992, 47.50118230000002], [19.0573025, 47.50120390000003], [19.057596300000004, 47.50139620000002], [19.05788979999999, 47.501587700000016], [19.058022500000003, 47.50149170000004], [19.058603999999995, 47.50106860000002], [19.057658600000003, 47.50039870000002], [19.0574915, 47.500296000000006], [19.057246399999993, 47.500174400000006]]]}}, {"id": "80", "type": "Feature", "properties": {"index": 80, "n_sides": 4, "edges": "[(84, 75, 0), (75, 59, 0), (59, 67, 0), (67, 71, 0), (71, 84, 0)]", "area": 19828.821931514543, "roundabout": false}, "geometry": {"type": "Polygon", "coordinates": [[[19.0611237, 47.50089750000001], [19.060782800000005, 47.50064720000006], [19.060319, 47.50030590000003], [19.060229199999995, 47.5002398], [19.06007569999999, 47.500126900000055], [19.0600329, 47.500096500000005], [19.059912799999996, 47.500029700000034], [19.058603999999995, 47.50106860000002], [19.0592699, 47.50156440000002], [19.059468999999996, 47.50169810000002], [19.059768399999992, 47.50189930000002], [19.0611237, 47.50089750000001]]]}}, {"id": "81", "type": "Feature", "properties": {"index": 81, "n_sides": 4, "edges": "[(16, 13, 0), (13, 22, 0), (22, 24, 0), (24, 28, 0), (28, 16, 0)]", "area": 9301.491099926217, "roundabout": false}, "geometry": {"type": "Polygon", "coordinates": [[[19.054844799999994, 47.49951120000001], [19.054851899999996, 47.499797700000016], [19.054860899999998, 47.50015820000002], [19.0548675, 47.50042220000001], [19.055030099999993, 47.50044770000001], [19.055076599999992, 47.50047720000001], [19.05586970000001, 47.50097920000007], [19.056069899999994, 47.50110900000002], [19.056457300000005, 47.500821200000054], [19.056482799999994, 47.50080220000002], [19.0565852, 47.500726100000016], [19.05574589999999, 47.50016980000002], [19.055379900000002, 47.499918700000016], [19.055261799999997, 47.49983420000004], [19.055220299999995, 47.499804600000004], [19.055183700000004, 47.49977470000001], [19.055051699999993, 47.49966680000003], [19.054844799999994, 47.49951120000001]]]}}, {"id": "82", "type": "Feature", "properties": {"index": 82, "n_sides": 4, "edges": "[(67, 59, 0), (59, 50, 0), (50, 57, 0), (57, 67, 0)]", "area": 5783.108221654875, "roundabout": false}, "geometry": {"type": "Polygon", "coordinates": [[[19.0592699, 47.50156440000002], [19.058603999999995, 47.50106860000002], [19.058022500000003, 47.50149170000004], [19.05788979999999, 47.501587700000016], [19.058176500000002, 47.50177530000001], [19.0585826, 47.50204000000006], [19.0586232, 47.50206650000003], [19.058728299999995, 47.50198980000003], [19.0592699, 47.50156440000002]]]}}, {"id": "83", "type": "Feature", "properties": {"index": 83, "n_sides": 4, "edges": "[(67, 57, 0), (57, 64, 0), (64, 72, 0), (72, 71, 0), (71, 67, 0)]", "area": 5084.723880248973, "roundabout": false}, "geometry": {"type": "Polygon", "coordinates": [[[19.0592699, 47.50156440000002], [19.058728299999995, 47.50198980000003], [19.0586232, 47.50206650000003], [19.058684099999997, 47.502107900000034], [19.059184199999994, 47.502447600000025], [19.0592687, 47.50250530000002], [19.059372300000003, 47.50242890000001], [19.0594828, 47.50234060000004], [19.059913500000004, 47.50199680000006], [19.059768399999992, 47.50189930000002], [19.059468999999996, 47.50169810000002], [19.0592699, 47.50156440000002]]]}}, {"id": "84", "type": "Feature", "properties": {"index": 84, "n_sides": 4, "edges": "[(137, 146, 0), (146, 138, 0), (138, 129, 0), (129, 137, 0)]", "area": 11604.02817946641, "roundabout": false}, "geometry": {"type": "Polygon", "coordinates": [[[19.068906000000002, 47.50895990000004], [19.0690134, 47.50889930000006], [19.069052100000007, 47.5088776], [19.070064599999995, 47.508314399999996], [19.068939700000005, 47.5076256], [19.068121299999998, 47.50824550000003], [19.0680809, 47.508277100000015], [19.067985800000002, 47.50834760000002], [19.068906000000002, 47.50895990000004]]]}}, {"id": "85", "type": "Feature", "properties": {"index": 85, "n_sides": 4, "edges": "[(137, 126, 0), (126, 130, 0), (130, 136, 0), (136, 144, 0), (144, 137, 0)]", "area": 13558.100423437123, "roundabout": false}, "geometry": {"type": "Polygon", "coordinates": [[[19.068906000000002, 47.50895990000004], [19.06880599999999, 47.5090162], [19.068747999999996, 47.50904880000007], [19.0677861, 47.50958320000003], [19.068443200000008, 47.50999360000003], [19.069148900000005, 47.510427300000046], [19.069513399999998, 47.51010310000004], [19.0695614, 47.51006830000003], [19.069913399999994, 47.50979390000003], [19.0700253, 47.509702400000066], [19.069919200000005, 47.509629400000044], [19.069496199999996, 47.50935790000004], [19.069424200000004, 47.50931030000001], [19.068906000000002, 47.50895990000004]]]}}, {"id": "86", "type": "Feature", "properties": {"index": 86, "n_sides": 4, "edges": "[(137, 129, 0), (129, 120, 0), (120, 126, 0), (126, 137, 0)]", "area": 9835.219776479224, "roundabout": false}, "geometry": {"type": "Polygon", "coordinates": [[[19.068906000000002, 47.50895990000004], [19.067985800000002, 47.50834760000002], [19.067891900000003, 47.50841110000003], [19.0678439, 47.508446500000055], [19.0669914, 47.50908030000007], [19.0677861, 47.50958320000003], [19.068747999999996, 47.50904880000007], [19.06880599999999, 47.5090162], [19.068906000000002, 47.50895990000004]]]}}, {"id": "87", "type": "Feature", "properties": {"index": 87, "n_sides": 4, "edges": "[(146, 153, 0), (153, 143, 0), (143, 138, 0), (138, 146, 0)]", "area": 7846.894458041019, "roundabout": false}, "geometry": {"type": "Polygon", "coordinates": [[[19.070064599999995, 47.508314399999996], [19.07074019999999, 47.50793930000002], [19.069552600000005, 47.50718450000002], [19.068939700000005, 47.5076256], [19.070064599999995, 47.508314399999996]]]}}, {"id": "88", "type": "Feature", "properties": {"index": 88, "n_sides": 4, "edges": "[(138, 143, 0), (143, 147, 0), (147, 140, 0), (140, 122, 0), (122, 129, 0), (129, 138, 0)]", "area": 17596.298012441635, "roundabout": false}, "geometry": {"type": "Polygon", "coordinates": [[[19.068939700000005, 47.5076256], [19.069552600000005, 47.50718450000002], [19.069867399999996, 47.506937999999984], [19.069081, 47.50646580000002], [19.069043999999998, 47.50644360000002], [19.067724800000004, 47.5074104], [19.067368799999997, 47.50765030000007], [19.067315100000002, 47.507687100000055], [19.067265600000002, 47.507726500000054], [19.06717589999999, 47.50779680000005], [19.067249799999995, 47.50784550000001], [19.067643499999992, 47.508117700000035], [19.067985800000002, 47.50834760000002], [19.0680809, 47.508277100000015], [19.068121299999998, 47.50824550000003], [19.068939700000005, 47.5076256]]]}}, {"id": "89", "type": "Feature", "properties": {"index": 89, "n_sides": 4, "edges": "[(129, 122, 0), (122, 112, 0), (112, 120, 0), (120, 129, 0)]", "area": 9720.105508671959, "roundabout": false}, "geometry": {"type": "Polygon", "coordinates": [[[19.067985800000002, 47.50834760000002], [19.067643499999992, 47.508117700000035], [19.067249799999995, 47.50784550000001], [19.06717589999999, 47.50779680000005], [19.067082899999996, 47.507869600000085], [19.067035699999995, 47.50790650000005], [19.0669913, 47.50794040000003], [19.06613430000001, 47.508566700000046], [19.0669914, 47.50908030000007], [19.0678439, 47.508446500000055], [19.067891900000003, 47.50841110000003], [19.067985800000002, 47.50834760000002]]]}}, {"id": "90", "type": "Feature", "properties": {"index": 90, "n_sides": 4, "edges": "[(126, 117, 0), (117, 121, 0), (121, 130, 0), (130, 126, 0)]", "area": 6555.491664820192, "roundabout": false}, "geometry": {"type": "Polygon", "coordinates": [[[19.0677861, 47.50958320000003], [19.0669244, 47.51023550000003], [19.067523800000004, 47.51065570000002], [19.068443200000008, 47.50999360000003], [19.0677861, 47.50958320000003]]]}}, {"id": "91", "type": "Feature", "properties": {"index": 91, "n_sides": 4, "edges": "[(126, 120, 0), (120, 100, 0), (100, 106, 0), (106, 117, 0), (117, 126, 0)]", "area": 20821.870891124767, "roundabout": false}, "geometry": {"type": "Polygon", "coordinates": [[[19.0677861, 47.50958320000003], [19.0669914, 47.50908030000007], [19.064705299999996, 47.51077370000001], [19.065552999999994, 47.51124100000001], [19.066335999999993, 47.51066690000001], [19.066583500000007, 47.51048540000006], [19.0669244, 47.51023550000003], [19.0677861, 47.50958320000003]]]}}, {"id": "92", "type": "Feature", "properties": {"index": 92, "n_sides": 6, "edges": "[(159, 144, 0), (144, 136, 0), (136, 141, 0), (141, 134, 0), (134, 142, 0), (142, 156, 0), (156, 161, 0), (161, 166, 0), (166, 159, 0)]", "area": 72400.42571172638, "roundabout": false}, "geometry": {"type": "Polygon", "coordinates": [[[19.0723113, 47.511228300000056], [19.072244, 47.511183700000046], [19.072186500000004, 47.51114520000001], [19.0719418, 47.51098290000003], [19.070948499999997, 47.51032430000002], [19.070591399999994, 47.51008750000004], [19.0705316, 47.51004770000004], [19.07012599999999, 47.50977190000006], [19.0700253, 47.509702400000066], [19.069913399999994, 47.50979390000003], [19.0695614, 47.51006830000003], [19.069513399999998, 47.51010310000004], [19.069148900000005, 47.510427300000046], [19.070153900000005, 47.510967399999984], [19.069163100000004, 47.51181880000004], [19.0704679, 47.512656700000015], [19.0705627, 47.51272200000004], [19.07206259999999, 47.51360400000004], [19.072791000000002, 47.51304440000002], [19.073692900000008, 47.51234720000005], [19.073733599999994, 47.51231250000001], [19.07381809999999, 47.51224010000004], [19.072778399999997, 47.51154270000002], [19.072420199999993, 47.51130240000006], [19.072382499999993, 47.51127700000005], [19.0723113, 47.511228300000056]]]}}, {"id": "93", "type": "Feature", "properties": {"index": 93, "n_sides": 4, "edges": "[(166, 161, 0), (161, 168, 0), (168, 171, 0), (171, 166, 0)]", "area": 20031.673661002034, "roundabout": false}, "geometry": {"type": "Polygon", "coordinates": [[[19.07381809999999, 47.51224010000004], [19.073733599999994, 47.51231250000001], [19.073692900000008, 47.51234720000005], [19.072791000000002, 47.51304440000002], [19.074403300000004, 47.51405820000003], [19.074489900000003, 47.5141128], [19.075310599999995, 47.51344489999998], [19.075353300000007, 47.513406600000046], [19.075363699999997, 47.51339710000001], [19.075444700000002, 47.513322700000046], [19.07381809999999, 47.51224010000004]]]}}, {"id": "94", "type": "Feature", "properties": {"index": 94, "n_sides": 4, "edges": "[(166, 171, 0), (171, 175, 0), (175, 170, 0), (170, 166, 0)]", "area": 17251.127150321372, "roundabout": false}, "geometry": {"type": "Polygon", "coordinates": [[[19.07381809999999, 47.51224010000004], [19.075444700000002, 47.513322700000046], [19.07552449999999, 47.51324940000002], [19.075562199999993, 47.51321470000004], [19.076320799999994, 47.51258160000004], [19.0747081, 47.51157190000001], [19.0740347, 47.51208040000003], [19.073964999999994, 47.51213300000003], [19.073910199999997, 47.51217300000006], [19.07381809999999, 47.51224010000004]]]}}, {"id": "95", "type": "Feature", "properties": {"index": 95, "n_sides": 3, "edges": "[(22, 13, 0), (13, 11, 0), (11, 22, 0)]", "area": 2849.14477678809, "roundabout": false}, "geometry": {"type": "Polygon", "coordinates": [[[19.05586970000001, 47.50097920000007], [19.055076599999992, 47.50047720000001], [19.055030099999993, 47.50044770000001], [19.0548675, 47.50042220000001], [19.05488279999999, 47.50097140000004], [19.054884900000005, 47.50104650000001], [19.055044100000003, 47.50103490000001], [19.0550861, 47.501032100000046], [19.05586970000001, 47.50097920000007]]]}}, {"id": "96", "type": "Feature", "properties": {"index": 96, "n_sides": 4, "edges": "[(28, 24, 0), (24, 29, 0), (29, 40, 0), (40, 28, 0)]", "area": 4044.100198612342, "roundabout": false}, "geometry": {"type": "Polygon", "coordinates": [[[19.0565852, 47.500726100000016], [19.056482799999994, 47.50080220000002], [19.056457300000005, 47.500821200000054], [19.056069899999994, 47.50110900000002], [19.056761300000005, 47.50154420000003], [19.057148300000005, 47.5012631], [19.057269399999992, 47.50118230000002], [19.0571684, 47.50111500000002], [19.0565852, 47.500726100000016]]]}}, {"id": "97", "type": "Feature", "properties": {"index": 97, "n_sides": 4, "edges": "[(50, 40, 0), (40, 29, 0), (29, 51, 0), (51, 57, 0), (57, 50, 0)]", "area": 7765.482720578235, "roundabout": false}, "geometry": {"type": "Polygon", "coordinates": [[[19.05788979999999, 47.501587700000016], [19.057596300000004, 47.50139620000002], [19.0573025, 47.50120390000003], [19.057269399999992, 47.50118230000002], [19.057148300000005, 47.5012631], [19.056761300000005, 47.50154420000003], [19.058130699999996, 47.50239110000002], [19.05817489999999, 47.50241050000004], [19.058238999999997, 47.50239069999998], [19.0584516, 47.50227470000003], [19.0584794, 47.502181699999994], [19.0586232, 47.50206650000003], [19.0585826, 47.50204000000006], [19.058176500000002, 47.50177530000001], [19.05788979999999, 47.501587700000016]]]}}, {"id": "98", "type": "Feature", "properties": {"index": 98, "n_sides": 4, "edges": "[(154, 149, 0), (149, 140, 0), (140, 147, 0), (147, 154, 0)]", "area": 7240.5536868068375, "roundabout": false}, "geometry": {"type": "Polygon", "coordinates": [[[19.070638999999996, 47.506330700000035], [19.069853799999997, 47.50585500000004], [19.069803099999994, 47.50589180000006], [19.069043999999998, 47.50644360000002], [19.069081, 47.50646580000002], [19.069867399999996, 47.506937999999984], [19.070610900000002, 47.506352799999995], [19.070638999999996, 47.506330700000035]]]}}, {"id": "99", "type": "Feature", "properties": {"index": 99, "n_sides": 4, "edges": "[(140, 149, 0), (149, 139, 0), (139, 132, 0), (132, 140, 0)]", "area": 10440.035537552556, "roundabout": false}, "geometry": {"type": "Polygon", "coordinates": [[[19.069043999999998, 47.50644360000002], [19.069803099999994, 47.50589180000006], [19.069853799999997, 47.50585500000004], [19.068712299999998, 47.505176400000025], [19.068672699999997, 47.50515290000005], [19.067897800000004, 47.50576980000001], [19.069008399999998, 47.50642260000005], [19.069043999999998, 47.50644360000002]]]}}, {"id": "100", "type": "Feature", "properties": {"index": 100, "n_sides": 4, "edges": "[(140, 132, 0), (132, 123, 0), (123, 113, 0), (113, 122, 0), (122, 140, 0)]", "area": 22747.221976598128, "roundabout": false}, "geometry": {"type": "Polygon", "coordinates": [[[19.069043999999998, 47.50644360000002], [19.069008399999998, 47.50642260000005], [19.067897800000004, 47.50576980000001], [19.0669943, 47.50645350000001], [19.066332399999997, 47.50695250000001], [19.066306999999995, 47.506970800000026], [19.06627020000001, 47.506996900000004], [19.0662256, 47.507031300000044], [19.066140499999992, 47.50709900000003], [19.066213000000005, 47.50714850000003], [19.066646999999996, 47.507444300000024], [19.0670859, 47.507736000000016], [19.06717589999999, 47.50779680000005], [19.067265600000002, 47.507726500000054], [19.067315100000002, 47.507687100000055], [19.067368799999997, 47.50765030000007], [19.067724800000004, 47.5074104], [19.069043999999998, 47.50644360000002]]]}}, {"id": "101", "type": "Feature", "properties": {"index": 101, "n_sides": 4, "edges": "[(122, 113, 0), (113, 107, 0), (107, 112, 0), (112, 122, 0)]", "area": 12955.786249670447, "roundabout": false}, "geometry": {"type": "Polygon", "coordinates": [[[19.06717589999999, 47.50779680000005], [19.0670859, 47.507736000000016], [19.066646999999996, 47.507444300000024], [19.066213000000005, 47.50714850000003], [19.066140499999992, 47.50709900000003], [19.06605, 47.507171000000035], [19.0660027, 47.50720870000001], [19.065955299999995, 47.50724210000002], [19.065070600000002, 47.50793290000002], [19.06613430000001, 47.508566700000046], [19.0669913, 47.50794040000003], [19.067035699999995, 47.50790650000005], [19.067082899999996, 47.507869600000085], [19.06717589999999, 47.50779680000005]]]}}, {"id": "102", "type": "Feature", "properties": {"index": 102, "n_sides": 4, "edges": "[(120, 112, 0), (112, 95, 0), (95, 100, 0), (100, 120, 0)]", "area": 21745.877621886142, "roundabout": false}, "geometry": {"type": "Polygon", "coordinates": [[[19.0669914, 47.50908030000007], [19.06613430000001, 47.508566700000046], [19.063840700000007, 47.51031100000003], [19.063963699999995, 47.51037450000002], [19.064705299999996, 47.51077370000001], [19.0669914, 47.50908030000007]]]}}, {"id": "103", "type": "Feature", "properties": {"index": 103, "n_sides": 4, "edges": "[(100, 85, 0), (85, 92, 0), (92, 106, 0), (106, 100, 0)]", "area": 14262.178524294904, "roundabout": false}, "geometry": {"type": "Polygon", "coordinates": [[[19.064705299999996, 47.51077370000001], [19.063133899999993, 47.511952400000034], [19.063836599999995, 47.512374300000026], [19.063906499999995, 47.51241620000001], [19.063966800000003, 47.51237320000004], [19.064534700000003, 47.51196830000002], [19.065552999999994, 47.51124100000001], [19.064705299999996, 47.51077370000001]]]}}, {"id": "104", "type": "Feature", "properties": {"index": 104, "n_sides": 4, "edges": "[(141, 136, 0), (136, 128, 0), (128, 134, 0), (134, 141, 0)]", "area": 11072.983173217546, "roundabout": false}, "geometry": {"type": "Polygon", "coordinates": [[[19.070153900000005, 47.510967399999984], [19.069148900000005, 47.510427300000046], [19.068255500000006, 47.51115550000004], [19.069163100000004, 47.51181880000004], [19.070153900000005, 47.510967399999984]]]}}, {"id": "105", "type": "Feature", "properties": {"index": 105, "n_sides": 4, "edges": "[(136, 130, 0), (130, 121, 0), (121, 128, 0), (128, 136, 0)]", "area": 7727.406254097469, "roundabout": false}, "geometry": {"type": "Polygon", "coordinates": [[[19.069148900000005, 47.510427300000046], [19.068443200000008, 47.50999360000003], [19.067523800000004, 47.51065570000002], [19.068255500000006, 47.51115550000004], [19.069148900000005, 47.510427300000046]]]}}, {"id": "106", "type": "Feature", "properties": {"index": 106, "n_sides": 4, "edges": "[(117, 106, 0), (106, 110, 0), (110, 121, 0), (121, 117, 0)]", "area": 10018.152943556204, "roundabout": false}, "geometry": {"type": "Polygon", "coordinates": [[[19.0669244, 47.51023550000003], [19.066583500000007, 47.51048540000006], [19.066335999999993, 47.51066690000001], [19.065552999999994, 47.51124100000001], [19.0656109, 47.51127540000005], [19.0662445, 47.51165130000004], [19.067523800000004, 47.51065570000002], [19.0669244, 47.51023550000003]]]}}, {"id": "107", "type": "Feature", "properties": {"index": 107, "n_sides": 4, "edges": "[(63, 76, 0), (76, 64, 0), (64, 48, 0), (48, 39, 0), (39, 55, 0), (55, 63, 0)]", "area": 24047.195037402747, "roundabout": false}, "geometry": {"type": "Polygon", "coordinates": [[[19.059484599999998, 47.50406000000004], [19.060352400000003, 47.5034505], [19.06038389999999, 47.503428000000056], [19.060522399999996, 47.50333390000002], [19.060414, 47.50326230000002], [19.0600643, 47.50303120000005], [19.059750800000003, 47.50282400000001], [19.0593736, 47.502574699999975], [19.0592687, 47.50250530000002], [19.059112200000005, 47.50260350000002], [19.059047399999994, 47.50264430000003], [19.0589766, 47.50273540000003], [19.058056800000003, 47.50344260000006], [19.057987699999995, 47.50350000000002], [19.0575943, 47.50379770000002], [19.058727400000006, 47.50453260000001], [19.059484599999998, 47.50406000000004]]]}}, {"id": "108", "type": "Feature", "properties": {"index": 108, "n_sides": 4, "edges": "[(76, 83, 0), (83, 72, 0), (72, 64, 0), (64, 76, 0)]", "area": 9897.987762987315, "roundabout": false}, "geometry": {"type": "Polygon", "coordinates": [[[19.060522399999996, 47.50333390000002], [19.060596999999998, 47.50328190000004], [19.060641299999993, 47.50325140000003], [19.061197300000003, 47.50285320000003], [19.061068699999993, 47.50276880000002], [19.059913500000004, 47.50199680000006], [19.0594828, 47.50234060000004], [19.059372300000003, 47.50242890000001], [19.0592687, 47.50250530000002], [19.0593736, 47.502574699999975], [19.059750800000003, 47.50282400000001], [19.0600643, 47.50303120000005], [19.060414, 47.50326230000002], [19.060522399999996, 47.50333390000002]]]}}, {"id": "109", "type": "Feature", "properties": {"index": 109, "n_sides": 5, "edges": "[(48, 64, 0), (64, 57, 0), (57, 51, 0), (51, 38, 0), (38, 48, 0)]", "area": 9473.200753711673, "roundabout": false}, "geometry": {"type": "Polygon", "coordinates": [[[19.058056800000003, 47.50344260000006], [19.0589766, 47.50273540000003], [19.059047399999994, 47.50264430000003], [19.059112200000005, 47.50260350000002], [19.0592687, 47.50250530000002], [19.059184199999994, 47.502447600000025], [19.058684099999997, 47.502107900000034], [19.0586232, 47.50206650000003], [19.0584794, 47.502181699999994], [19.0584516, 47.50227470000003], [19.058238999999997, 47.50239069999998], [19.05817489999999, 47.50241050000004], [19.057391299999995, 47.50303070000007], [19.058056800000003, 47.50344260000006]]]}}, {"id": "110", "type": "Feature", "properties": {"index": 110, "n_sides": 4, "edges": "[(134, 124, 0), (124, 135, 0), (135, 142, 0), (142, 134, 0)]", "area": 15281.335297836536, "roundabout": false}, "geometry": {"type": "Polygon", "coordinates": [[[19.069163100000004, 47.51181880000004], [19.0681806, 47.51270780000003], [19.069428399999993, 47.51337130000006], [19.0694981, 47.51340849999999], [19.0695505, 47.513367599999995], [19.069594599999995, 47.51333110000005], [19.0697494, 47.51321010000002], [19.0704679, 47.512656700000015], [19.069163100000004, 47.51181880000004]]]}}]}