{"type": "FeatureCollection", "features": [{"id": "32", "type": "Feature", "properties": {"x": 5002467.1677403655, "y": 2751744.185628564, "bearings": {"32_36_0": 42.34307824823678, "32_29_0": -140.150005537915, "32_44_0": -44.15386296154632}, "angles": {"32_29_0": 177.50691621384823, "32_44_0": 95.9961425763687, "32_36_0": 86.4969412097831}, "adj_sorted": [[32, 29, 0], [32, 44, 0], [32, 36, 0]], "type": "T", "n_corners": 2}, "geometry": {"type": "Point", "coordinates": [19.0650745, 47.50305400000003]}}, {"id": "36", "type": "Feature", "properties": {"x": 5002514.256346326, "y": 2751777.348772542, "bearings": {"36_32_0": 179.97663005051854, "36_48_0": -46.769495715332226, "36_41_0": 91.51764233157694}, "angles": {"36_48_0": 133.25387423414924, "36_41_0": 138.28713804690915, "36_32_0": 88.4589877189416}, "adj_sorted": [[36, 48, 0], [36, 41, 0], [36, 32, 0]], "type": "Y", "n_corners": 3}, "geometry": {"type": "Point", "coordinates": [19.06574755108448, 47.50329810940027]}}, {"id": "29", "type": "Feature", "properties": {"x": 5002432.615752005, "y": 2751715.057641441, "bearings": {"29_32_0": 41.03480978386414, "29_21_0": -141.6282545227431, "29_40_0": -51.41810833568593}, "angles": {"29_21_0": 177.33693569339275, "29_40_0": 90.21014618705718, "29_32_0": 92.45291811955008}, "adj_sorted": [[29, 21, 0], [29, 40, 0], [29, 32, 0]], "type": "T", "n_corners": 2}, "geometry": {"type": "Point", "coordinates": [19.064573100000004, 47.502832100000006]}}, {"id": "44", "type": "Feature", "properties": {"x": 5002613.36980452, "y": 2751602.239215131, "bearings": {"44_32_0": 135.8461370384537, "44_48_0": 41.45903821778983, "44_40_0": -138.283674359586}, "angles": {"44_40_0": 85.87018860196031, "44_48_0": 179.74271257737584, "44_32_0": 94.38709882066385}, "adj_sorted": [[44, 40, 0], [44, 48, 0], [44, 32, 0]], "type": "T", "n_corners": 2}, "geometry": {"type": "Point", "coordinates": [19.066778799999994, 47.5016265]}}, {"id": "48", "type": "Feature", "properties": {"x": 5002648.141903795, "y": 2751634.927161306, "bearings": {"48_36_0": 133.23050428466777, "48_44_0": -132.14927240155995, "48_55_0": 44.70198419142041, "48_57_0": -47.181956861242746}, "angles": {"48_44_0": 94.62022331377227, "48_57_0": 84.9673155403172, "48_55_0": 91.88394105266315, "48_36_0": 88.52852009324737}, "adj_sorted": [[48, 44, 0], [48, 57, 0], [48, 55, 0], [48, 36, 0]], "type": "X", "n_corners": 4}, "geometry": {"type": "Point", "coordinates": [19.067288702221084, 47.50187991401317]}}, {"id": "41", "type": "Feature", "properties": {"x": 5002567.7416079035, "y": 2751848.415840219, "bearings": {"41_36_0": -131.8644718360678, "41_47_0": 49.22305830806415, "41_55_0": -41.29420766819331}, "angles": {"41_36_0": 178.91246985586807, "41_55_0": 90.57026416787448, "41_47_0": 90.51726597625745}, "adj_sorted": [[41, 36, 0], [41, 55, 0], [41, 47, 0]], "type": "T", "n_corners": 2}, "geometry": {"type": "Point", "coordinates": [19.066564600000003, 47.50387340000003]}}, {"id": "47", "type": "Feature", "properties": {"x": 5002644.178747605, "y": 2751934.9232027372, "bearings": {"47_41_0": -131.6899926102055, "47_54_0": -45.01621768795651, "47_53_0": 49.121878093097095}, "angles": {"47_41_0": 179.1881292966974, "47_54_0": 86.673774922249, "47_53_0": 94.13809578105361}, "adj_sorted": [[47, 41, 0], [47, 54, 0], [47, 53, 0]], "type": "T", "n_corners": 2}, "geometry": {"type": "Point", "coordinates": [19.067708599999996, 47.50456120000003]}}, {"id": "55", "type": "Feature", "properties": {"x": 5002727.561098033, "y": 2751708.039611864, "bearings": {"55_48_0": -137.8565676271493, "55_41_0": 138.70579233180672, "55_60_0": 43.91443369928496, "55_65_0": -43.370518388389414}, "angles": {"55_48_0": 83.437640041044, "55_65_0": 94.48604923875989, "55_60_0": 87.28495208767438, "55_41_0": 94.79135863252176}, "adj_sorted": [[55, 48, 0], [55, 65, 0], [55, 60, 0], [55, 41, 0]], "type": "X", "n_corners": 4}, "geometry": {"type": "Point", "coordinates": [19.068450899999995, 47.50244490000001]}}, {"id": "40", "type": "Feature", "properties": {"x": 5002559.089909082, "y": 2751556.5234639957, "bearings": {"40_29_0": 128.58189166431407, "40_44_0": 26.54371991739432, "40_52_0": -42.16859410840858, "40_31_0": -154.42222696110483}, "angles": {"40_31_0": 76.99588137458113, "40_52_0": 112.25363285269626, "40_44_0": 68.7123140258029, "40_29_0": 102.03817174691974}, "adj_sorted": [[40, 31, 0], [40, 52, 0], [40, 44, 0], [40, 29, 0]], "type": "X", "n_corners": 4}, "geometry": {"type": "Point", "coordinates": [19.065991199999992, 47.50127830000003]}}, {"id": "57", "type": "Feature", "properties": {"x": 5002771.231226703, "y": 2751502.0867220354, "bearings": {"57_48_0": 132.81804313875725, "57_65_0": 55.15923322687952, "57_52_0": -137.232493243155, "57_63_0": -56.40675544276629}, "angles": {"57_52_0": 89.94946361808775, "57_63_0": 80.82573780038871, "57_65_0": 111.5659886696458, "57_48_0": 77.65880991187773}, "adj_sorted": [[57, 52, 0], [57, 63, 0], [57, 65, 0], [57, 48, 0]], "type": "other", "n_corners": 4}, "geometry": {"type": "Point", "coordinates": [19.06870251188675, 47.50055907533815]}}, {"id": "60", "type": "Feature", "properties": {"x": 5002800.626679057, "y": 2751778.387651958, "bearings": {"60_55_0": -136.08556630071504, "60_69_0": 41.27615119347041, "60_73_0": -45.31883555850281, "60_54_0": 134.56924531816895}, "angles": {"60_55_0": 89.34518838111603, "60_73_0": 90.76673074221223, "60_69_0": 86.59498675197322, "60_54_0": 93.29309412469854}, "adj_sorted": [[60, 55, 0], [60, 73, 0], [60, 69, 0], [60, 54, 0]], "type": "X", "n_corners": 4}, "geometry": {"type": "Point", "coordinates": [19.069525000000002, 47.50299220000003]}}, {"id": "65", "type": "Feature", "properties": {"x": 5002853.61142614, "y": 2751588.962542766, "bearings": {"65_55_0": 136.6294816116106, "65_57_0": -134.3309686204678, "65_73_0": 47.30328855381819, "65_75_0": -43.70253011327634}, "angles": {"65_57_0": 89.03954976792159, "65_75_0": 90.62843850719145, "65_73_0": 91.00581866709453, "65_55_0": 89.32619305779241}, "adj_sorted": [[65, 57, 0], [65, 75, 0], [65, 73, 0], [65, 55, 0]], "type": "X", "n_corners": 4}, "geometry": {"type": "Point", "coordinates": [19.069925400000002, 47.50124360000005]}}, {"id": "52", "type": "Feature", "properties": {"x": 5002706.897806552, "y": 2751422.587824395, "bearings": {"52_40_0": 137.8030629940867, "52_57_0": 51.710336184017486, "52_46_0": -128.98764066836534, "52_68_0": -41.51404408434624}, "angles": {"52_46_0": 93.20929633754793, "52_68_0": 87.4735965840191, "52_57_0": 93.22438026836372, "52_40_0": 86.09272681006922}, "adj_sorted": [[52, 46, 0], [52, 68, 0], [52, 57, 0], [52, 40, 0]], "type": "X", "n_corners": 4}, "geometry": {"type": "Point", "coordinates": [19.067729199999995, 47.49992050000007]}}, {"id": "46", "type": "Feature", "properties": {"x": 5002639.193463042, "y": 2751339.2310193456, "bearings": {"46_52_0": 48.62840919478369, "46_31_0": 137.51694287597886, "46_42_0": -127.8480615032671, "46_62_0": -43.01421985088436}, "angles": {"46_42_0": 94.63499562075401, "46_62_0": 84.83384165238274, "46_52_0": 91.64262904566806, "46_31_0": 88.88853368119516}, "adj_sorted": [[46, 42, 0], [46, 62, 0], [46, 52, 0], [46, 31, 0]], "type": "X", "n_corners": 4}, "geometry": {"type": "Point", "coordinates": [19.066705399999993, 47.49925120000003]}}, {"id": "68", "type": "Feature", "properties": {"x": 5002875.591056191, "y": 2751273.1104807383, "bearings": {"68_52_0": 138.48581189080826, "68_72_0": 49.22957592820281, "68_62_0": -129.2072208446779}, "angles": {"68_62_0": 92.30696726451384, "68_72_0": 178.4367967728807, "68_52_0": 89.25623596260544}, "adj_sorted": [[68, 62, 0], [68, 72, 0], [68, 52, 0]], "type": "T", "n_corners": 2}, "geometry": {"type": "Point", "coordinates": [19.069718, 47.49840100000003]}}, {"id": "63", "type": "Feature", "properties": {"x": 5002830.4326542085, "y": 2751412.9586135247, "bearings": {"63_57_0": 123.59324455723372, "63_66_0": 35.26593997954632, "63_70_0": -56.95539648061211}, "angles": {"63_70_0": 179.4513589621542, "63_66_0": 92.22133646015843, "63_57_0": 88.3273045776874}, "adj_sorted": [[63, 70, 0], [63, 66, 0], [63, 57, 0]], "type": "T", "n_corners": 2}, "geometry": {"type": "Point", "coordinates": [19.06934275464819, 47.499698601929126]}}, {"id": "73", "type": "Feature", "properties": {"x": 5002918.431975381, "y": 2751659.258620233, "bearings": {"73_60_0": 134.65610569631312, "73_65_0": -132.6783308567058, "73_75_0": -43.056755119059474, "73_80_0": 47.73781364880853}, "angles": {"73_65_0": 92.66556344698108, "73_75_0": 89.62157573764632, "73_80_0": 90.79456876786801, "73_60_0": 86.9182920475046}, "adj_sorted": [[73, 65, 0], [73, 75, 0], [73, 80, 0], [73, 60, 0]], "type": "X", "n_corners": 4}, "geometry": {"type": "Point", "coordinates": [19.070890700000003, 47.501799500000025]}}, {"id": "75", "type": "Feature", "properties": {"x": 5002933.547577721, "y": 2751512.599906194, "bearings": {"75_65_0": 136.31083840045017, "75_73_0": 47.0997113392128, "75_66_0": -134.03981823020476, "75_82_0": -43.395964924121486}, "angles": {"75_66_0": 89.64934336934505, "75_82_0": 90.64385330608327, "75_73_0": 90.49567626333429, "75_65_0": 89.21112706123736}, "adj_sorted": [[75, 66, 0], [75, 82, 0], [75, 73, 0], [75, 65, 0]], "type": "X", "n_corners": 4}, "geometry": {"type": "Point", "coordinates": [19.070859099999996, 47.500474200000006]}}, {"id": "66", "type": "Feature", "properties": {"x": 5002859.014244158, "y": 2751435.5247033047, "bearings": {"66_63_0": -140.74064882922778, "66_75_0": 45.96070318719928, "66_76_0": -42.02386937095671}, "angles": {"66_63_0": 173.29864798357295, "66_76_0": 98.71677945827108, "66_75_0": 87.98457255815599}, "adj_sorted": [[66, 63, 0], [66, 76, 0], [66, 75, 0]], "type": "T", "n_corners": 2}, "geometry": {"type": "Point", "coordinates": [19.069755099999995, 47.49986850000007]}}, {"id": "70", "type": "Feature", "properties": {"x": 5002898.104458401, "y": 2751308.9305580542, "bearings": {"70_63_0": 123.0446035193879, "70_72_0": -77.74135945131034, "70_76_0": 27.108072274140216}, "angles": {"70_72_0": 159.21403702930175, "70_76_0": 104.84943172545056, "70_63_0": 95.93653124524769}, "adj_sorted": [[70, 72, 0], [70, 76, 0], [70, 63, 0]], "type": "Y", "n_corners": 3}, "geometry": {"type": "Point", "coordinates": [19.070071196587786, 47.498695844959734]}}, {"id": "76", "type": "Feature", "properties": {"x": 5002946.762130893, "y": 2751356.449933973, "bearings": {"76_66_0": 137.9761306290433, "76_70_0": -133.7596256303201, "76_82_0": 47.598969080139526, "76_90_0": -41.77327923414404}, "angles": {"76_70_0": 88.26424374063663, "76_90_0": 91.98634639617606, "76_82_0": 89.37224831428357, "76_66_0": 90.37716154890377}, "adj_sorted": [[76, 70, 0], [76, 90, 0], [76, 82, 0], [76, 66, 0]], "type": "X", "n_corners": 4}, "geometry": {"type": "Point", "coordinates": [19.0707875, 47.4990663]}}, {"id": "72", "type": "Feature", "properties": {"x": 5002901.82964885, "y": 2751291.7858411176, "bearings": {"72_68_0": -151.16362345054287, "72_70_0": 102.25864054868967, "72_77_0": -50.1594435121687}, "angles": {"72_68_0": 106.57773600076746, "72_77_0": 101.00417993837416, "72_70_0": 152.41808406085838}, "adj_sorted": [[72, 68, 0], [72, 77, 0], [72, 70, 0]], "type": "Y", "n_corners": 3}, "geometry": {"type": "Point", "coordinates": [19.0700933217241, 47.49853875860182]}}, {"id": "62", "type": "Feature", "properties": {"x": 5002809.37288196, "y": 2751192.0418343036, "bearings": {"62_46_0": 140.67098048496317, "62_68_0": 50.80307600450516, "62_71_0": -39.40903155091274, "62_56_0": -130.4991838848561}, "angles": {"62_56_0": 88.8298356301807, "62_71_0": 91.09015233394337, "62_68_0": 90.2121075554179, "62_46_0": 89.86790448045801}, "adj_sorted": [[62, 56, 0], [62, 71, 0], [62, 68, 0], [62, 46, 0]], "type": "X", "n_corners": 4}, "geometry": {"type": "Point", "coordinates": [19.06871739999999, 47.49775050000006]}}, {"id": "77", "type": "Feature", "properties": {"x": 5002952.7019898435, "y": 2751155.7551600863, "bearings": {"77_72_0": 108.61514307543, "77_90_0": -31.13525821048585, "77_71_0": -121.43150631389969}, "angles": {"77_71_0": 129.95335061067033, "77_90_0": 90.29624810341383, "77_72_0": 139.75040128591584}, "adj_sorted": [[77, 71, 0], [77, 90, 0], [77, 72, 0]], "type": "Y", "n_corners": 3}, "geometry": {"type": "Point", "coordinates": [19.070549881714708, 47.49726892685282]}}, {"id": "82", "type": "Feature", "properties": {"x": 5003017.160034431, "y": 2751433.5426899055, "bearings": {"82_75_0": 136.60403507587853, "82_76_0": -132.40103091986046, "82_85_0": 46.99899536469499, "82_89_0": -44.00224610531608}, "angles": {"82_76_0": 90.99493400426104, "82_89_0": 88.39878481454437, "82_85_0": 91.00124147001108, "82_75_0": 89.60503971118354}, "adj_sorted": [[82, 76, 0], [82, 89, 0], [82, 85, 0], [82, 75, 0]], "type": "X", "n_corners": 4}, "geometry": {"type": "Point", "coordinates": [19.071837000000002, 47.49967670000004]}}, {"id": "90", "type": "Feature", "properties": {"x": 5003090.776859413, "y": 2751221.752045634, "bearings": {"90_76_0": 121.4201721129376, "90_77_0": -150.97391289639694, "90_99_0": 29.01000795448977}, "angles": {"90_77_0": 87.60591499066544, "90_99_0": 179.9839208508867, "90_76_0": 92.41016415844784}, "adj_sorted": [[90, 77, 0], [90, 99, 0], [90, 76, 0]], "type": "T", "n_corners": 2}, "geometry": {"type": "Point", "coordinates": [19.0724741, 47.49770580000006]}}, {"id": "71", "type": "Feature", "properties": {"x": 5002899.716249884, "y": 2751116.5922085615, "bearings": {"71_62_0": 136.35441989021783, "71_77_0": 31.150674110726655, "71_61_0": -150.9390386532422}, "angles": {"71_61_0": 72.70654145653998, "71_77_0": 182.08971276396886, "71_62_0": 105.20374577949117}, "adj_sorted": [[71, 61, 0], [71, 77, 0], [71, 62, 0]], "type": "T", "n_corners": 2}, "geometry": {"type": "Point", "coordinates": [19.0697897, 47.496977799999996]}}, {"id": "61", "type": "Feature", "properties": {"x": 5002803.863672549, "y": 2751057.161696973, "bearings": {"61_71_0": 44.72174854595966, "61_51_0": -152.95576444074456, "61_56_0": 119.9882953073518}, "angles": {"61_51_0": 87.05594025190362, "61_71_0": 197.67751298670422, "61_56_0": 75.26654676139214}, "adj_sorted": [[61, 51, 0], [61, 71, 0], [61, 56, 0]], "type": "other", "n_corners": 3}, "geometry": {"type": "Point", "coordinates": [19.0684325, 47.496553000000034]}}, {"id": "99", "type": "Feature", "properties": {"x": 5003175.830483132, "y": 2751268.9288282394, "bearings": {"99_90_0": -150.98235477657266, "99_110_0": 28.36189316677441, "99_89_0": 130.1447245253096}, "angles": {"99_90_0": 78.8729206981177, "99_110_0": 179.34424794334709, "99_89_0": 101.7828313585352}, "adj_sorted": [[99, 90, 0], [99, 110, 0], [99, 89, 0]], "type": "T", "n_corners": 2}, "geometry": {"type": "Point", "coordinates": [19.073669700000004, 47.4980331]}}, {"id": "64", "type": "Feature", "properties": {"x": 5002839.862639957, "y": 2752157.3677339847, "bearings": {"64_78_0": 48.567218662598364, "64_74_0": -40.73111466259908, "64_58_0": -131.2434610656025}, "angles": {"64_58_0": 180.18932027179915, "64_74_0": 90.51234640300342, "64_78_0": 89.29833332519745}, "adj_sorted": [[64, 58, 0], [64, 74, 0], [64, 78, 0]], "type": "T", "n_corners": 2}, "geometry": {"type": "Point", "coordinates": [19.070638999999996, 47.506330700000035]}}, {"id": "78", "type": "Feature", "properties": {"x": 5002952.865952919, "y": 2752260.4279738115, "bearings": {"78_64_0": -175.67025210238933, "78_81_0": -85.36799992933152, "78_94_0": 50.686669104632365}, "angles": {"78_64_0": 133.64307879297832, "78_81_0": 90.30225217305781, "78_94_0": 136.05466903396388}, "adj_sorted": [[78, 64, 0], [78, 81, 0], [78, 94, 0]], "type": "Y", "n_corners": 3}, "geometry": {"type": "Point", "coordinates": [19.072291342274152, 47.50712589289164]}}, {"id": "74", "type": "Feature", "properties": {"x": 5002928.688869246, "y": 2752080.881159331, "bearings": {"74_64_0": 139.26888533740095, "74_84_0": -42.39573578847403, "74_67_0": -132.14136725911567, "74_81_0": 50.38331819455439}, "angles": {"74_67_0": 88.58974740348339, "74_84_0": 89.74563147064164, "74_81_0": 92.77905398302842, "74_64_0": 88.88556714284655}, "adj_sorted": [[74, 67, 0], [74, 84, 0], [74, 81, 0], [74, 64, 0]], "type": "X", "n_corners": 4}, "geometry": {"type": "Point", "coordinates": [19.071689799999998, 47.505550400000004]}}, {"id": "58", "type": "Feature", "properties": {"x": 5002787.451436119, "y": 2752097.5904494124, "bearings": {"58_64_0": 48.7565389343975, "58_67_0": -40.86826841896051, "58_53_0": -131.7804428937656}, "angles": {"58_53_0": 179.4630181718369, "58_67_0": 90.9121744748051, "58_64_0": 89.62480735335801}, "adj_sorted": [[58, 53, 0], [58, 67, 0], [58, 64, 0]], "type": "T", "n_corners": 2}, "geometry": {"type": "Point", "coordinates": [19.069853799999997, 47.50585500000004]}}, {"id": "81", "type": "Feature", "properties": {"x": 5002999.352002008, "y": 2752199.0252670576, "bearings": {"81_78_0": 140.2162570016845, "81_74_0": -114.0986242991498, "81_92_0": -40.2332401270998}, "angles": {"81_74_0": 105.68511869916568, "81_92_0": 73.86538417205, "81_78_0": 180.44949712878432}, "adj_sorted": [[81, 74, 0], [81, 92, 0], [81, 78, 0]], "type": "T", "n_corners": 2}, "geometry": {"type": "Point", "coordinates": [19.072807600000004, 47.506526800000024]}}, {"id": "94", "type": "Feature", "properties": {"x": 5003147.173273863, "y": 2752447.349070497, "bearings": {"94_78_0": -140.46688311258987, "94_140_0": 86.92014904776022, "94_107_0": -32.37104064770925}, "angles": {"94_78_0": 132.6129678396499, "94_107_0": 108.09584246488062, "94_140_0": 119.29118969546947}, "adj_sorted": [[94, 78, 0], [94, 107, 0], [94, 140, 0]], "type": "Y", "n_corners": 3}, "geometry": {"type": "Point", "coordinates": [19.075147939506525, 47.508579801778225]}}, {"id": "92", "type": "Feature", "properties": {"x": 5003128.515660627, "y": 2752085.561268119, "bearings": {"92_81_0": 138.3188412860389, "92_102_0": 125.67732887319033, "92_103_0": -49.06151042486335, "92_84_0": -138.16932756281145}, "angles": {"92_84_0": 83.51183115114964, "92_103_0": 89.1078171379481, "92_102_0": 174.73883929805368, "92_81_0": 12.641512412848556}, "adj_sorted": [[92, 84, 0], [92, 103, 0], [92, 102, 0], [92, 81, 0]], "type": "other", "n_corners": 3}, "geometry": {"type": "Point", "coordinates": [19.07433199999999, 47.50537210000003]}}, {"id": "140", "type": "Feature", "properties": {"x": 5003684.513435413, "y": 2752625.7574638426, "bearings": {"140_94_0": 134.85869285937733, "140_129_0": -139.68485536922802, "140_145_0": -45.266744086694935}, "angles": {"140_129_0": 85.45645177139465, "140_145_0": 94.41811128253309, "140_94_0": 180.12543694607226}, "adj_sorted": [[140, 129, 0], [140, 145, 0], [140, 94, 0]], "type": "T", "n_corners": 2}, "geometry": {"type": "Point", "coordinates": [19.0825147, 47.5095796]}}, {"id": "107", "type": "Feature", "properties": {"x": 5003286.803040946, "y": 2752284.7941351756, "bearings": {"107_94_0": 129.36689968482168, "107_105_0": -139.432903267835, "107_114_0": 40.562079346171096}, "angles": {"107_105_0": 91.2001970473433, "107_114_0": 179.9949826140061, "107_94_0": 88.80482033865059}, "adj_sorted": [[107, 105, 0], [107, 114, 0], [107, 94, 0]], "type": "T", "n_corners": 2}, "geometry": {"type": "Point", "coordinates": [19.076732999999994, 47.50697550000003]}}, {"id": "129", "type": "Feature", "properties": {"x": 5003525.7589014545, "y": 2752489.693204645, "bearings": {"129_140_0": 40.61800260389644, "129_125_0": -139.3727491966443, "129_133_0": -49.71824045406089}, "angles": {"129_125_0": 180.00924819945925, "129_133_0": 89.6545087425834, "129_140_0": 90.33624305795733}, "adj_sorted": [[129, 125, 0], [129, 133, 0], [129, 140, 0]], "type": "T", "n_corners": 2}, "geometry": {"type": "Point", "coordinates": [19.080206799999992, 47.50854050000003]}}, {"id": "145", "type": "Feature", "properties": {"x": 5003755.354880527, "y": 2752551.15177627, "bearings": {"145_140_0": 133.40583818762738, "145_149_0": -45.000514479912724, "145_133_0": -136.74842849231007}, "angles": {"145_133_0": 89.84573332006255, "145_149_0": 91.74791401239735, "145_140_0": 178.4063526675401}, "adj_sorted": [[145, 133, 0], [145, 149, 0], [145, 140, 0]], "type": "T", "n_corners": 2}, "geometry": {"type": "Point", "coordinates": [19.0833312, 47.50883580000006]}}, {"id": "123", "type": "Feature", "properties": {"x": 5003453.8986853, "y": 2752027.1691617086, "bearings": {"123_128_0": -50.358859544098436, "123_132_0": 40.22220546834316, "123_119_0": 129.64536427713284}, "angles": {"123_128_0": 179.99577617876872, "123_132_0": 90.5810650124416, "123_119_0": 89.42315880878968}, "adj_sorted": [[123, 128, 0], [123, 132, 0], [123, 119, 0]], "type": "T", "n_corners": 2}, "geometry": {"type": "Point", "coordinates": [19.078530299999997, 47.50449260000004]}}, {"id": "128", "type": "Feature", "properties": {"x": 5003517.976618629, "y": 2751949.8310085596, "bearings": {"128_123_0": 129.64129833458514, "128_137_0": -51.16764143907264, "128_135_0": 40.17388289845792, "128_115_0": -138.41510064778473}, "angles": {"128_115_0": 91.94360101763016, "128_137_0": 87.24745920871209, "128_135_0": 91.34152433753056, "128_123_0": 89.46741543612723}, "adj_sorted": [[128, 115, 0], [128, 137, 0], [128, 135, 0], [128, 123, 0]], "type": "X", "n_corners": 4}, "geometry": {"type": "Point", "coordinates": [19.07925329999999, 47.50373190000004]}}, {"id": "132", "type": "Feature", "properties": {"x": 5003542.160818003, "y": 2752101.815100946, "bearings": {"132_123_0": -139.77779453165684, "132_139_0": 40.220026569342544, "132_127_0": 130.68085113446855, "132_135_0": -50.021298359369204}, "angles": {"132_123_0": 89.54135433387461, "132_135_0": 89.75649617228763, "132_139_0": 90.24132492871175, "132_127_0": 90.46082456512602}, "adj_sorted": [[132, 123, 0], [132, 135, 0], [132, 139, 0], [132, 127, 0]], "type": "X", "n_corners": 4}, "geometry": {"type": "Point", "coordinates": [19.079811699999993, 47.505061400000045]}}, {"id": "119", "type": "Feature", "properties": {"x": 5003390.523484435, "y": 2752103.6532414877, "bearings": {"119_123_0": -50.35463572286716, "119_116_0": -138.93090991829698, "119_112_0": 129.58795325442412, "119_127_0": 40.44332708918386}, "angles": {"119_116_0": 91.48113682727887, "119_123_0": 88.57627419542982, "119_127_0": 90.79796281205103, "119_112_0": 89.14462616524025}, "adj_sorted": [[119, 116, 0], [119, 123, 0], [119, 127, 0], [119, 112, 0]], "type": "X", "n_corners": 4}, "geometry": {"type": "Point", "coordinates": [19.077815199999996, 47.505244900000065]}}, {"id": "137", "type": "Feature", "properties": {"x": 5003629.364009234, "y": 2751810.9826802155, "bearings": {"137_128_0": 128.7071375713135, "137_126_0": -138.9523925374372, "137_141_0": -51.83151746793508, "137_142_0": 41.0914708790108}, "angles": {"137_126_0": 92.34046989124931, "137_141_0": 87.12087506950212, "137_142_0": 92.92298834694589, "137_128_0": 87.6156666923027}, "adj_sorted": [[137, 126, 0], [137, 141, 0], [137, 142, 0], [137, 128, 0]], "type": "X", "n_corners": 4}, "geometry": {"type": "Point", "coordinates": [19.080503100000005, 47.50237020000004]}}, {"id": "135", "type": "Feature", "properties": {"x": 5003606.218289435, "y": 2752025.416722403, "bearings": {"135_128_0": -139.01263107001927, "135_132_0": 129.9787016406308, "135_144_0": 39.34913059332144, "135_142_0": -48.9200740286271}, "angles": {"135_128_0": 91.00866728934994, "135_142_0": 90.09255704139217, "135_144_0": 88.26920462194855, "135_132_0": 90.62957104730935}, "adj_sorted": [[135, 128, 0], [135, 142, 0], [135, 144, 0], [135, 132, 0]], "type": "X", "n_corners": 4}, "geometry": {"type": "Point", "coordinates": [19.080535900000005, 47.50430910000005]}}, {"id": "115", "type": "Feature", "properties": {"x": 5003353.896216288, "y": 2751808.9936790857, "bearings": {"115_128_0": 40.628783276912415, "115_126_0": -51.54654798477968, "115_109_0": 128.64325257454203, "115_108_0": -129.45475432039203}, "angles": {"115_108_0": 101.90199310506591, "115_126_0": 77.90820633561235, "115_128_0": 92.1753312616921, "115_109_0": 88.01446929762962}, "adj_sorted": [[115, 108, 0], [115, 126, 0], [115, 128, 0], [115, 109, 0]], "type": "X", "n_corners": 4}, "geometry": {"type": "Point", "coordinates": [19.076867999999994, 47.50265600000005]}}, {"id": "126", "type": "Feature", "properties": {"x": 5003465.260978791, "y": 2751668.08875706, "bearings": {"126_137_0": 41.05948329899401, "126_115_0": 128.42685492058607, "126_130_0": -51.310699126567414, "126_120_0": -139.947509330497}, "angles": {"126_120_0": 91.62563574891692, "126_130_0": 88.6368102039296, "126_137_0": 92.37018242556142, "126_115_0": 87.36737162159206}, "adj_sorted": [[126, 120, 0], [126, 130, 0], [126, 137, 0], [126, 115, 0]], "type": "X", "n_corners": 4}, "geometry": {"type": "Point", "coordinates": [19.078114299999996, 47.50127600000004]}}, {"id": "141", "type": "Feature", "properties": {"x": 5003695.181570306, "y": 2751727.248741411, "bearings": {"141_137_0": 128.16848253206493, "141_148_0": 40.669855779721104, "141_130_0": -138.81634745789776, "141_146_0": -51.47380596860364}, "angles": {"141_130_0": 93.01517001003731, "141_146_0": 87.34254148929412, "141_148_0": 92.14366174832475, "141_137_0": 87.49862675234382}, "adj_sorted": [[141, 130, 0], [141, 146, 0], [141, 148, 0], [141, 137, 0]], "type": "X", "n_corners": 4}, "geometry": {"type": "Point", "coordinates": [19.0812389, 47.50155050000004]}}, {"id": "142", "type": "Feature", "properties": {"x": 5003722.410961265, "y": 2751892.128321299, "bearings": {"142_137_0": -138.90852912098921, "142_135_0": 131.07992597137292, "142_150_0": 41.29949837480565, "142_148_0": -49.688728604603085}, "angles": {"142_137_0": 90.01154490763787, "142_148_0": 89.21980051638613, "142_150_0": 90.98822697940874, "142_135_0": 89.78042759656726}, "adj_sorted": [[142, 137, 0], [142, 148, 0], [142, 150, 0], [142, 135, 0]], "type": "X", "n_corners": 4}, "geometry": {"type": "Point", "coordinates": [19.0818578, 47.50299170000001]}}, {"id": "144", "type": "Feature", "properties": {"x": 5003728.842588701, "y": 2752129.2462130967, "bearings": {"144_135_0": -139.6767139009649, "144_147_0": 41.32304777860181, "144_150_0": -49.04341555262585, "144_139_0": 131.0710076437583}, "angles": {"144_135_0": 89.25227845527684, "144_150_0": 90.63329834833905, "144_147_0": 90.36646333122766, "144_139_0": 89.74795986515647}, "adj_sorted": [[144, 135, 0], [144, 150, 0], [144, 147, 0], [144, 139, 0]], "type": "X", "n_corners": 4}, "geometry": {"type": "Point", "coordinates": [19.082316399999996, 47.50510040000002]}}, {"id": "2", "type": "Feature", "properties": {"x": 5001930.122987325, "y": 2751169.618996958, "bearings": {"2_4_0": -33.546595684219156, "2_0_0": -134.81755621657305, "2_6_0": 45.635442816415754}, "angles": {"2_0_0": 179.5470009670112, "2_4_0": 101.2709605323539, "2_6_0": 79.18203850063492}, "adj_sorted": [[2, 0, 0], [2, 4, 0], [2, 6, 0]], "type": "T", "n_corners": 2}, "geometry": {"type": "Point", "coordinates": [19.057090199999994, 47.49851760000004]}}, {"id": "4", "type": "Feature", "properties": {"x": 5002001.082472495, "y": 2751122.776969187, "bearings": {"4_2_0": 147.44670243419642, "4_12_0": -33.28384820894727, "4_10_0": 44.39443216832993, "4_3_0": -144.49248403906415}, "angles": {"4_3_0": 68.06081352673942, "4_12_0": 111.20863583011689, "4_10_0": 77.67828037727719, "4_2_0": 103.0522702658665}, "adj_sorted": [[4, 3, 0], [4, 12, 0], [4, 10, 0], [4, 2, 0]], "type": "X", "n_corners": 4}, "geometry": {"type": "Point", "coordinates": [19.0579521, 47.49802160000003]}}, {"id": "0", "type": "Feature", "properties": {"x": 5001864.86882192, "y": 2751104.158512582, "bearings": {"0_2_0": 45.04564602533995, "0_1_0": -134.50312497999886, "0_3_0": -28.853692069565962}, "angles": {"0_1_0": 180.4512289946612, "0_3_0": 105.64943291043289, "0_2_0": 73.89933809490591}, "adj_sorted": [[0, 1, 0], [0, 3, 0], [0, 2, 0]], "type": "T", "n_corners": 2}, "geometry": {"type": "Point", "coordinates": [19.056126999999996, 47.49800520000003]}}, {"id": "6", "type": "Feature", "properties": {"x": 5002056.434426032, "y": 2751297.8517656904, "bearings": {"6_2_0": -135.48115096912005, "6_9_0": 45.00547846875031, "6_10_0": -38.94576122545302}, "angles": {"6_2_0": 179.51337056212964, "6_10_0": 96.53538974366703, "6_9_0": 83.95123969420334}, "adj_sorted": [[6, 2, 0], [6, 10, 0], [6, 9, 0]], "type": "T", "n_corners": 2}, "geometry": {"type": "Point", "coordinates": [19.0589571, 47.49952300000004]}}, {"id": "12", "type": "Feature", "properties": {"x": 5002157.484512562, "y": 2751029.288598599, "bearings": {"12_4_0": 149.84493023564482, "12_14_0": 58.53150777490746, "12_15_0": -30.76132610139856, "12_7_0": -119.02177685124015}, "angles": {"12_7_0": 91.13329291311504, "12_15_0": 88.2604507498416, "12_14_0": 89.29283387630602, "12_4_0": 91.31342246073737}, "adj_sorted": [[12, 7, 0], [12, 15, 0], [12, 14, 0], [12, 4, 0]], "type": "X", "n_corners": 4}, "geometry": {"type": "Point", "coordinates": [19.059867099999998, 47.49701540000003]}}, {"id": "10", "type": "Feature", "properties": {"x": 5002132.977963088, "y": 2751235.987914623, "bearings": {"10_4_0": -129.8452572630287, "10_6_0": 141.054238774547, "10_17_0": -38.02152367595375, "10_13_0": 46.030486726031995}, "angles": {"10_4_0": 89.10050396242428, "10_17_0": 91.82373358707497, "10_13_0": 84.05201040198574, "10_6_0": 95.02375204851501}, "adj_sorted": [[10, 4, 0], [10, 17, 0], [10, 13, 0], [10, 6, 0]], "type": "X", "n_corners": 4}, "geometry": {"type": "Point", "coordinates": [19.059868999999996, 47.49888680000003]}}, {"id": "3", "type": "Feature", "properties": {"x": 5001948.118591409, "y": 2751059.0762694795, "bearings": {"3_4_0": 62.05256294993503, "3_0_0": 152.35672956185803, "3_1_0": -117.92015036931902, "3_5_0": -27.631687856224993}, "angles": {"3_1_0": 89.72312006882294, "3_5_0": 90.28846251309403, "3_4_0": 89.68425080616002, "3_0_0": 90.304166611923}, "adj_sorted": [[3, 1, 0], [3, 5, 0], [3, 4, 0], [3, 0, 0]], "type": "X", "n_corners": 4}, "geometry": {"type": "Point", "coordinates": [19.057153699999997, 47.497511400000036]}}, {"id": "14", "type": "Feature", "properties": {"x": 5002216.24372726, "y": 2751126.171202473, "bearings": {"14_12_0": -119.31203668857563, "14_17_0": 60.36741226634202, "14_20_0": -39.89237431903144}, "angles": {"14_12_0": 180.32055104508234, "14_20_0": 79.4196623695442, "14_17_0": 100.25978658537346}, "adj_sorted": [[14, 12, 0], [14, 20, 0], [14, 17, 0]], "type": "T", "n_corners": 2}, "geometry": {"type": "Point", "coordinates": [19.060794099999995, 47.497815300000035]}}, {"id": "15", "type": "Feature", "properties": {"x": 5002216.711657975, "y": 2750994.0362960994, "bearings": {"15_12_0": 149.23867389860146, "15_11_0": -121.48896646541401, "15_20_0": 18.78641812744571}, "angles": {"15_11_0": 89.27235963598451, "15_20_0": 140.27538459285972, "15_12_0": 130.45225577115576}, "adj_sorted": [[15, 11, 0], [15, 20, 0], [15, 12, 0]], "type": "Y", "n_corners": 3}, "geometry": {"type": "Point", "coordinates": [19.0605925, 47.49663570000001]}}, {"id": "7", "type": "Feature", "properties": {"x": 5002089.56810675, "y": 2750906.8932684064, "bearings": {"7_12_0": 60.95733094899377, "7_1_0": 153.28711101150571, "7_8_0": -40.090286916458204}, "angles": {"7_8_0": 166.62260207203607, "7_12_0": 101.04761786545197, "7_1_0": 92.32978006251194}, "adj_sorted": [[7, 8, 0], [7, 12, 0], [7, 1, 0]], "type": "T", "n_corners": 2}, "geometry": {"type": "Point", "coordinates": [19.058779300000005, 47.495997900000035]}}, {"id": "17", "type": "Feature", "properties": {"x": 5002235.054535441, "y": 2751159.240405281, "bearings": {"17_10_0": 143.59882090219105, "17_14_0": -119.63258773365797, "17_18_0": 60.54174484424866}, "angles": {"17_14_0": 96.768591364151, "17_18_0": 180.17433257790663, "17_10_0": 83.0570760579424}, "adj_sorted": [[17, 14, 0], [17, 18, 0], [17, 10, 0]], "type": "T", "n_corners": 2}, "geometry": {"type": "Point", "coordinates": [19.061094100000002, 47.49808970000004]}}, {"id": "13", "type": "Feature", "properties": {"x": 5002188.312695105, "y": 2751302.8632543217, "bearings": {"13_10_0": -138.13805851402964, "13_18_0": -49.02446132051118, "13_9_0": 130.85423509271644}, "angles": {"13_10_0": 91.0077063932539, "13_18_0": 89.11359719351846, "13_9_0": 179.8786964132276}, "adj_sorted": [[13, 10, 0], [13, 18, 0], [13, 9, 0]], "type": "T", "n_corners": 2}, "geometry": {"type": "Point", "coordinates": [19.060703699999987, 47.49942270000002]}}, {"id": "8", "type": "Feature", "properties": {"x": 5002114.996627014, "y": 2750881.8085276806, "bearings": {"8_7_0": 126.34878252017008, "8_11_0": 2.2129425270587597, "8_28_0": -57.639018461852274}, "angles": {"8_28_0": 176.01219901797765, "8_11_0": 59.85196098891103, "8_7_0": 124.13583999311132}, "adj_sorted": [[8, 28, 0], [8, 11, 0], [8, 7, 0]], "type": "Y", "n_corners": 2}, "geometry": {"type": "Point", "coordinates": [19.0590751, 47.49574610000003]}}, {"id": "11", "type": "Feature", "properties": {"x": 5002153.610671874, "y": 2750879.812148261, "bearings": {"11_15_0": 84.41344896190601, "11_8_0": 174.41344896273205, "11_24_0": -5.586551040729014}, "angles": {"11_24_0": 179.99999999653895, "11_15_0": 90.00000000263503, "11_8_0": 90.00000000082603}, "adj_sorted": [[11, 24, 0], [11, 15, 0], [11, 8, 0]], "type": "T", "n_corners": 2}, "geometry": {"type": "Point", "coordinates": [19.059581023575628, 47.49568582663531]}}, {"id": "28", "type": "Feature", "properties": {"x": 5002419.315650109, "y": 2750843.771662913, "bearings": {"28_8_0": -152.63724287211693, "28_24_0": 118.11601167378085, "28_37_0": 27.348631865672505}, "angles": {"28_8_0": 89.24674545410221, "28_37_0": 179.98587473778943, "28_24_0": 90.76737980810834}, "adj_sorted": [[28, 8, 0], [28, 37, 0], [28, 24, 0]], "type": "T", "n_corners": 2}, "geometry": {"type": "Point", "coordinates": [19.063027200000008, 47.495072000000015]}}, {"id": "24", "type": "Feature", "properties": {"x": 5002398.510928601, "y": 2750882.4136479567, "bearings": {"24_11_0": -168.4453980015902, "24_28_0": -61.610200934896795, "24_20_0": 119.19375069284314, "24_35_0": 33.39998675843002}, "angles": {"24_11_0": 72.36085130556665, "24_28_0": 106.83519706669341, "24_35_0": 95.01018769332681, "24_20_0": 85.79376393441312}, "adj_sorted": [[24, 11, 0], [24, 28, 0], [24, 35, 0], [24, 20, 0]], "type": "other", "n_corners": 4}, "geometry": {"type": "Point", "coordinates": [19.062813699999992, 47.495439700000006]}}, {"id": "20", "type": "Feature", "properties": {"x": 5002304.231773401, "y": 2751051.06147333, "bearings": {"20_14_0": 135.60611919821466, "20_15_0": -144.08169229777465, "20_24_0": -60.793043758061096, "20_23_0": 34.7173181287773}, "angles": {"20_15_0": 80.31218850401069, "20_24_0": 83.28864853971356, "20_23_0": 95.5103618868384, "20_14_0": 100.88880106943736}, "adj_sorted": [[20, 15, 0], [20, 24, 0], [20, 23, 0], [20, 14, 0]], "type": "other", "n_corners": 4}, "geometry": {"type": "Point", "coordinates": [19.061836, 47.49704830000004]}}, {"id": "35", "type": "Feature", "properties": {"x": 5002497.1448224895, "y": 2750944.140212287, "bearings": {"35_24_0": -148.04006531458475, "35_45_0": 31.239341213201378, "35_37_0": -57.96865212158693, "35_23_0": 121.17535460862975}, "angles": {"35_24_0": 90.78458007678552, "35_37_0": 90.07141319299782, "35_45_0": 89.20799333478831, "35_23_0": 89.93601339542838}, "adj_sorted": [[35, 24, 0], [35, 37, 0], [35, 45, 0], [35, 23, 0]], "type": "X", "n_corners": 4}, "geometry": {"type": "Point", "coordinates": [19.064211100000005, 47.495882000000016]}}, {"id": "84", "type": "Feature", "properties": {"x": 5003027.417364522, "y": 2751992.561778358, "bearings": {"84_74_0": 138.50568378697187, "84_92_0": 42.92014371483143, "84_95_0": -39.56029785451126, "84_79_0": -135.59440237949926}, "angles": {"84_79_0": 85.8999138335289, "84_95_0": 96.034104524988, "84_92_0": 82.4804415693427, "84_74_0": 95.58554007214045}, "adj_sorted": [[84, 79, 0], [84, 95, 0], [84, 92, 0], [84, 74, 0]], "type": "X", "n_corners": 4}, "geometry": {"type": "Point", "coordinates": [19.0728525, 47.504653599999976]}}, {"id": "67", "type": "Feature", "properties": {"x": 5002875.150322762, "y": 2752021.714807192, "bearings": {"67_74_0": 47.858632740884325, "67_58_0": 139.1344094143357, "67_59_0": -131.7356089525568, "67_79_0": -41.20908991853011}, "angles": {"67_59_0": 89.12998163310749, "67_79_0": 90.52651903402668, "67_74_0": 89.06772265941444, "67_58_0": 91.27577667345136}, "adj_sorted": [[67, 59, 0], [67, 79, 0], [67, 74, 0], [67, 58, 0]], "type": "X", "n_corners": 4}, "geometry": {"type": "Point", "coordinates": [19.070890699999996, 47.50508140000004]}}, {"id": "95", "type": "Feature", "properties": {"x": 5003149.231284804, "y": 2751891.32515215, "bearings": {"95_84_0": 135.5937107760255, "95_87_0": -139.05889619095723, "95_101_0": -49.11394508821816, "95_103_0": 41.98341491632036}, "angles": {"95_87_0": 85.34739303301728, "95_101_0": 89.94495110273907, "95_103_0": 91.09736000453853, "95_84_0": 93.61029585970513}, "adj_sorted": [[95, 87, 0], [95, 101, 0], [95, 103, 0], [95, 84, 0]], "type": "X", "n_corners": 4}, "geometry": {"type": "Point", "coordinates": [19.0742992, 47.50361610000003]}}, {"id": "79", "type": "Feature", "properties": {"x": 5002971.305351764, "y": 2751937.6044920934, "bearings": {"79_84_0": 44.39291643581137, "79_67_0": 139.32245699255668, "79_87_0": -43.61248942588444, "79_69_0": -135.4474937319796}, "angles": {"79_69_0": 85.23004927546373, "79_87_0": 91.83500430609516, "79_84_0": 88.0054058616958, "79_67_0": 94.92954055674531}, "adj_sorted": [[79, 69, 0], [79, 87, 0], [79, 84, 0], [79, 67, 0]], "type": "X", "n_corners": 4}, "geometry": {"type": "Point", "coordinates": [19.07202609999999, 47.50422500000003]}}, {"id": "87", "type": "Feature", "properties": {"x": 5003079.533629868, "y": 2751830.8571665506, "bearings": {"87_95_0": 40.97482026589069, "87_79_0": 134.57467597954272, "87_93_0": -41.09642739115196, "87_86_0": -135.53303752211357}, "angles": {"87_86_0": 89.89228649834371, "87_93_0": 94.43661013096161, "87_95_0": 82.07124765704265, "87_79_0": 93.59985571365203}, "adj_sorted": [[87, 86, 0], [87, 93, 0], [87, 95, 0], [87, 79, 0]], "type": "X", "n_corners": 4}, "geometry": {"type": "Point", "coordinates": [19.073284999999995, 47.503153299999994]}}, {"id": "69", "type": "Feature", "properties": {"x": 5002883.46176918, "y": 2751851.063015448, "bearings": {"69_60_0": -138.73887587681165, "69_79_0": 44.57335335449382, "69_59_0": 138.73002801908143, "69_80_0": -42.85164061247826}, "angles": {"69_60_0": 82.53109610410695, "69_80_0": 95.88723526433338, "69_79_0": 87.42499396697208, "69_59_0": 94.15667466458761}, "adj_sorted": [[69, 60, 0], [69, 80, 0], [69, 79, 0], [69, 59, 0]], "type": "X", "n_corners": 4}, "geometry": {"type": "Point", "coordinates": [19.070731600000006, 47.503549500000034]}}, {"id": "93", "type": "Feature", "properties": {"x": 5003135.786367299, "y": 2751774.100233574, "bearings": {"93_87_0": 134.3831323943114, "93_96_0": -45.244366742107125, "93_100_0": -74.61511113508959}, "angles": {"93_100_0": 151.00175647059902, "93_96_0": 29.370744392982466, "93_87_0": 179.62749913641852}, "adj_sorted": [[93, 100, 0], [93, 96, 0], [93, 87, 0]], "type": "Y", "n_corners": 2}, "geometry": {"type": "Point", "coordinates": [19.073937299999997, 47.50258490000005]}}, {"id": "86", "type": "Feature", "properties": {"x": 5003043.68710547, "y": 2751795.6366845807, "bearings": {"86_87_0": 44.49929919576956, "86_80_0": -133.13857404306506, "86_88_0": -76.55137349403729}, "angles": {"86_80_0": 182.36212676116537, "86_88_0": 56.58720054902777, "86_87_0": 121.05067268980685}, "adj_sorted": [[86, 80, 0], [86, 88, 0], [86, 87, 0]], "type": "Y", "n_corners": 2}, "geometry": {"type": "Point", "coordinates": [19.072756899999998, 47.502878499999994]}}, {"id": "102", "type": "Feature", "properties": {"x": 5003225.144131153, "y": 2752232.320131489, "bearings": {"102_92_0": -140.1559480740395, "102_116_0": -49.81893306736327, "102_105_0": 40.256173511903704}, "angles": {"102_92_0": 179.5878784140568, "102_116_0": 90.33701500667621, "102_105_0": 90.07510657926697}, "adj_sorted": [[102, 92, 0], [102, 116, 0], [102, 105, 0]], "type": "T", "n_corners": 2}, "geometry": {"type": "Point", "coordinates": [19.0758373, 47.50657519999999]}}, {"id": "103", "type": "Feature", "properties": {"x": 5003230.203007848, "y": 2751964.38172704, "bearings": {"103_92_0": 129.25446294363857, "103_95_0": -137.47007288312213, "103_109_0": -51.52238759357504, "103_116_0": 41.84960088991478}, "angles": {"103_95_0": 93.2754641732393, "103_109_0": 85.94768528954708, "103_116_0": 93.37198848348982, "103_92_0": 87.40486205372379}, "adj_sorted": [[103, 95, 0], [103, 109, 0], [103, 116, 0], [103, 92, 0]], "type": "X", "n_corners": 4}, "geometry": {"type": "Point", "coordinates": [19.075481899999996, 47.50417880000002]}}, {"id": "116", "type": "Feature", "properties": {"x": 5003357.243896417, "y": 2752074.6532081054, "bearings": {"116_119_0": 41.06909008170304, "116_102_0": 131.95245923578548, "116_103_0": -139.58700474587027}, "angles": {"116_103_0": 88.46053601834421, "116_119_0": 180.65609482757333, "116_102_0": 90.88336915408244}, "adj_sorted": [[116, 103, 0], [116, 119, 0], [116, 102, 0]], "type": "T", "n_corners": 2}, "geometry": {"type": "Point", "coordinates": [19.077330699999997, 47.50502280000001]}}, {"id": "105", "type": "Feature", "properties": {"x": 5003259.882703152, "y": 2752261.734929581, "bearings": {"105_107_0": 40.595119778790334, "105_102_0": -139.7438264880963, "105_112_0": -50.4410132088654}, "angles": {"105_102_0": 179.66105373311336, "105_112_0": 89.30281327923089, "105_107_0": 91.03613298765573}, "adj_sorted": [[105, 102, 0], [105, 112, 0], [105, 107, 0]], "type": "T", "n_corners": 2}, "geometry": {"type": "Point", "coordinates": [19.076341699999997, 47.506799400000034]}}, {"id": "130", "type": "Feature", "properties": {"x": 5003528.336418942, "y": 2751585.820303783, "bearings": {"130_126_0": 127.42820888546856, "130_141_0": 12.24494919007272, "130_121_0": -167.372380445644, "130_136_0": -51.78689647516204}, "angles": {"130_121_0": 65.19941066888742, "130_136_0": 115.58548397048197, "130_141_0": 64.03184566523475, "130_126_0": 115.18325969539585}, "adj_sorted": [[130, 121, 0], [130, 136, 0], [130, 141, 0], [130, 126, 0]], "type": "X", "n_corners": 4}, "geometry": {"type": "Point", "coordinates": [19.07881627997295, 47.500472413595155]}}, {"id": "120", "type": "Feature", "properties": {"x": 5003397.617250011, "y": 2751611.243753659, "bearings": {"120_126_0": 40.04173395455564, "120_117_0": -137.44724517721926, "120_108_0": 132.26748551046603}, "angles": {"120_117_0": 90.28526931231471, "120_126_0": 177.4889791317749, "120_108_0": 92.22575155591039}, "adj_sorted": [[120, 117, 0], [120, 126, 0], [120, 108, 0]], "type": "T", "n_corners": 2}, "geometry": {"type": "Point", "coordinates": [19.0771329, 47.500843300000014]}}, {"id": "121", "type": "Feature", "properties": {"x": 5003402.021572397, "y": 2751522.714865775, "bearings": {"121_130_0": 26.268847783121927, "121_117_0": 116.35335885253093, "121_124_0": -63.74782128243294, "121_111_0": -152.08352382869845}, "angles": {"121_111_0": 91.56311731877065, "121_124_0": 88.33570254626551, "121_130_0": 90.01666906555486, "121_117_0": 90.084511069409}, "adj_sorted": [[121, 111, 0], [121, 124, 0], [121, 130, 0], [121, 117, 0]], "type": "X", "n_corners": 4}, "geometry": {"type": "Point", "coordinates": [19.0770515, 47.50004850000002]}}, {"id": "136", "type": "Feature", "properties": {"x": 5003609.272205367, "y": 2751505.9629103336, "bearings": {"136_130_0": 157.51140985741287, "136_124_0": -143.05914393351503, "136_151_0": 36.94085606621041}, "angles": {"136_124_0": 59.429446209072125, "136_151_0": 179.99999999972545, "136_130_0": 120.57055379120246}, "adj_sorted": [[136, 124, 0], [136, 151, 0], [136, 130, 0]], "type": "Y", "n_corners": 2}, "geometry": {"type": "Point", "coordinates": [19.079757509357197, 47.49967065370106]}}, {"id": "117", "type": "Feature", "properties": {"x": 5003370.494756313, "y": 2751586.355251463, "bearings": {"117_120_0": 42.52794457111006, "117_121_0": -63.64664114746909, "117_113_0": -137.44738656642508}, "angles": {"117_113_0": 180.02466886246486, "117_121_0": 73.80074541895598, "117_120_0": 106.17458571857915}, "adj_sorted": [[117, 113, 0], [117, 121, 0], [117, 120, 0]], "type": "T", "n_corners": 2}, "geometry": {"type": "Point", "coordinates": [19.076736099999994, 47.50065110000004]}}, {"id": "124", "type": "Feature", "properties": {"x": 5003453.916838435, "y": 2751417.4791123145, "bearings": {"124_121_0": 116.21452097288548, "124_136_0": 27.905950155074624, "124_118_0": -152.10179112571117}, "angles": {"124_118_0": 91.68368790140335, "124_136_0": 180.0077412807858, "124_121_0": 88.30857081781086}, "adj_sorted": [[124, 118, 0], [124, 136, 0], [124, 121, 0]], "type": "T", "n_corners": 2}, "geometry": {"type": "Point", "coordinates": [19.077569900000004, 47.49905230000001]}}, {"id": "111", "type": "Feature", "properties": {"x": 5003296.455513317, "y": 2751466.781641511, "bearings": {"111_121_0": 27.916476171301547, "111_118_0": -48.94164804462813, "111_106_0": 132.35154610719988}, "angles": {"111_118_0": 178.706805848172, "111_121_0": 76.85812421592968, "111_106_0": 104.43506993589833}, "adj_sorted": [[111, 118, 0], [111, 121, 0], [111, 106, 0]], "type": "T", "n_corners": 2}, "geometry": {"type": "Point", "coordinates": [19.075571599999996, 47.4996657]}}, {"id": "148", "type": "Feature", "properties": {"x": 5003791.721874208, "y": 2751810.2054237723, "bearings": {"148_141_0": -139.3128087251773, "148_142_0": 129.7312279015807, "148_151_0": -49.06678642318486, "148_155_0": 41.05977131690219}, "angles": {"148_141_0": 90.95596337324201, "148_151_0": 90.24602230199244, "148_155_0": 90.12655774008705, "148_142_0": 88.67145658467851}, "adj_sorted": [[148, 141, 0], [148, 151, 0], [148, 155, 0], [148, 142, 0]], "type": "X", "n_corners": 4}, "geometry": {"type": "Point", "coordinates": [19.08264249999999, 47.50218430000004]}}, {"id": "151", "type": "Feature", "properties": {"x": 5003861.340247597, "y": 2751729.7220320557, "bearings": {"151_136_0": -138.90553162328922, "151_148_0": 129.8788683030656, "151_156_0": 42.14561733313961}, "angles": {"151_136_0": 91.21560007364519, "151_156_0": 181.05114895642885, "151_148_0": 87.73325096992598}, "adj_sorted": [[151, 136, 0], [151, 156, 0], [151, 148, 0]], "type": "T", "n_corners": 2}, "geometry": {"type": "Point", "coordinates": [19.083433499999998, 47.5013894]}}, {"id": "118", "type": "Feature", "properties": {"x": 5003375.574007802, "y": 2751376.0009452663, "bearings": {"118_124_0": 27.89432070593811, "118_111_0": 131.27396331373248, "118_110_0": -152.09506569518447}, "angles": {"118_110_0": 76.63097099108302, "118_124_0": 179.98938640112257, "118_111_0": 103.37964260779437}, "adj_sorted": [[118, 110, 0], [118, 124, 0], [118, 111, 0]], "type": "T", "n_corners": 2}, "geometry": {"type": "Point", "coordinates": [19.076471699999995, 47.49876850000003]}}, {"id": "156", "type": "Feature", "properties": {"x": 5003949.601233651, "y": 2751807.310427162, "bearings": {"156_151_0": -141.08789190808412, "156_166_0": -42.595514338361724, "156_160_0": 41.5032270777562}, "angles": {"156_151_0": 177.40888101415968, "156_166_0": 98.4923775697224, "156_160_0": 84.09874141611792}, "adj_sorted": [[156, 151, 0], [156, 166, 0], [156, 160, 0]], "type": "T", "n_corners": 2}, "geometry": {"type": "Point", "coordinates": [19.084719500000006, 47.5019844]}}, {"id": "1", "type": "Feature", "properties": {"x": 5001918.931719482, "y": 2750995.0665811133, "bearings": {"1_0_0": 152.54884965734507, "1_3_0": 102.63690230076782, "1_7_0": -27.43968639551601}, "angles": {"1_7_0": 180.0114639471389, "1_3_0": 130.07658869628384, "1_0_0": 49.91194735657726}, "adj_sorted": [[1, 7, 0], [1, 3, 0], [1, 0, 0]], "type": "Y", "n_corners": 2}, "geometry": {"type": "Point", "coordinates": [19.056668300000002, 47.496972300000024]}}, {"id": "9", "type": "Feature", "properties": {"x": 5002129.295753019, "y": 2751371.099876199, "bearings": {"9_6_0": -133.66490694334337, "9_13_0": -49.13705110705755, "9_16_0": 53.27673349010724}, "angles": {"9_6_0": 173.0583595665494, "9_13_0": 84.52785583628582, "9_16_0": 102.41378459716479}, "adj_sorted": [[9, 6, 0], [9, 13, 0], [9, 16, 0]], "type": "T", "n_corners": 2}, "geometry": {"type": "Point", "coordinates": [19.0600329, 47.500096500000005]}}, {"id": "16", "type": "Feature", "properties": {"x": 5002220.831595959, "y": 2751497.9883413273, "bearings": {"16_9_0": -125.91562947977785, "16_19_0": 51.5452329452677, "16_22_0": -46.56242375856944}, "angles": {"16_9_0": 182.53913757495445, "16_22_0": 79.35320572120841, "16_19_0": 98.10765670383714}, "adj_sorted": [[16, 9, 0], [16, 22, 0], [16, 19, 0]], "type": "T", "n_corners": 2}, "geometry": {"type": "Point", "coordinates": [19.061439299999993, 47.501128100000074]}}, {"id": "19", "type": "Feature", "properties": {"x": 5002290.859630119, "y": 2751586.108701377, "bearings": {"19_16_0": -128.46035518693424, "19_26_0": -49.75650933329198, "19_21_0": 45.52182681339969}, "angles": {"19_16_0": 186.01781799966608, "19_26_0": 78.70384585364226, "19_21_0": 95.27833614669167}, "adj_sorted": [[19, 16, 0], [19, 26, 0], [19, 21, 0]], "type": "T", "n_corners": 2}, "geometry": {"type": "Point", "coordinates": [19.062501199999996, 47.50183740000004]}}, {"id": "22", "type": "Feature", "properties": {"x": 5002349.240363241, "y": 2751357.2827017508, "bearings": {"22_16_0": 131.56943223309023, "22_25_0": 59.549235709424565, "22_27_0": -48.75176928346838, "22_18_0": -120.80121718906221}, "angles": {"22_18_0": 107.62935057784756, "22_27_0": 72.04944790559384, "22_25_0": 108.30100499289294, "22_16_0": 72.02019652366566}, "adj_sorted": [[22, 18, 0], [22, 27, 0], [22, 25, 0], [22, 16, 0]], "type": "X", "n_corners": 4}, "geometry": {"type": "Point", "coordinates": [19.062911, 47.499731300000036]}}, {"id": "37", "type": "Feature", "properties": {"x": 5002524.647554941, "y": 2750898.4460794087, "bearings": {"37_28_0": -151.6730795022171, "37_35_0": 118.20183969513157, "37_49_0": 27.289113167338}, "angles": {"37_28_0": 90.12508080265133, "37_49_0": 178.9621926695551, "37_35_0": 90.91272652779357}, "adj_sorted": [[37, 28, 0], [37, 49, 0], [37, 35, 0]], "type": "T", "n_corners": 2}, "geometry": {"type": "Point", "coordinates": [19.0645018, 47.49544400000001]}}, {"id": "21", "type": "Feature", "properties": {"x": 5002337.141836058, "y": 2751633.2002479522, "bearings": {"21_29_0": 43.9874813971615, "21_19_0": -134.5085890654685, "21_31_0": -45.65561511386761}, "angles": {"21_19_0": 181.50392953737, "21_31_0": 88.85297395160089, "21_29_0": 89.64309651102911}, "adj_sorted": [[21, 19, 0], [21, 31, 0], [21, 29, 0]], "type": "T", "n_corners": 2}, "geometry": {"type": "Point", "coordinates": [19.063185500000003, 47.50220670000003]}}, {"id": "31", "type": "Feature", "properties": {"x": 5002457.869135695, "y": 2751508.572952215, "bearings": {"31_40_0": 27.846261494414907, "31_46_0": -47.64692025372188, "31_21_0": 125.98619192482366, "31_26_0": -133.36481619503178}, "angles": {"31_26_0": 100.64899188014454, "31_46_0": 85.7178959413099, "31_40_0": 75.49318174813679, "31_21_0": 98.13993043040875}, "adj_sorted": [[31, 26, 0], [31, 46, 0], [31, 40, 0], [31, 21, 0]], "type": "other", "n_corners": 4}, "geometry": {"type": "Point", "coordinates": [19.064581200000003, 47.50096180000008]}}, {"id": "49", "type": "Feature", "properties": {"x": 5002657.656158856, "y": 2750973.2113470873, "bearings": {"49_37_0": -149.10956213517477, "49_51_0": 30.94360704056074, "49_45_0": 128.32618226850008}, "angles": {"49_37_0": 82.56425559632515, "49_51_0": 180.05316917573552, "49_45_0": 97.38257522793934}, "adj_sorted": [[49, 37, 0], [49, 51, 0], [49, 45, 0]], "type": "T", "n_corners": 2}, "geometry": {"type": "Point", "coordinates": [19.066372899999998, 47.495964800000046]}}, {"id": "54", "type": "Feature", "properties": {"x": 5002722.901211634, "y": 2751856.1561609786, "bearings": {"54_47_0": 134.9837823120435, "54_60_0": -44.36429156369206, "54_59_0": 46.35696087665052}, "angles": {"54_60_0": 180.65192612426443, "54_59_0": 90.72125244034258, "54_47_0": 88.62682143539298}, "adj_sorted": [[54, 60, 0], [54, 59, 0], [54, 47, 0]], "type": "T", "n_corners": 2}, "geometry": {"type": "Point", "coordinates": [19.068622600000005, 47.50377170000002]}}, {"id": "53", "type": "Feature", "properties": {"x": 5002708.43476191, "y": 2752009.1596348286, "bearings": {"53_47_0": -130.87812190690292, "53_58_0": 48.16902691937904, "53_59_0": -42.93752540772329}, "angles": {"53_47_0": 180.95285117371805, "53_59_0": 87.94059649917963, "53_58_0": 91.10655232710234}, "adj_sorted": [[53, 47, 0], [53, 59, 0], [53, 58, 0]], "type": "T", "n_corners": 2}, "geometry": {"type": "Point", "coordinates": [19.068672699999997, 47.50515290000005]}}, {"id": "51", "type": "Feature", "properties": {"x": 5002706.566856813, "y": 2751002.508370427, "bearings": {"51_61_0": 29.57998016165207, "51_49_0": -149.08079134486277, "51_50_0": 124.87398182762608}, "angles": {"51_49_0": 86.04522682751116, "51_61_0": 178.66077150651483, "51_50_0": 95.29400166597401}, "adj_sorted": [[51, 49, 0], [51, 61, 0], [51, 50, 0]], "type": "T", "n_corners": 2}, "geometry": {"type": "Point", "coordinates": [19.067063799999996, 47.496172400000056]}}, {"id": "45", "type": "Feature", "properties": {"x": 5002621.287835347, "y": 2751019.20130809, "bearings": {"45_35_0": -148.99649019001453, "45_49_0": -51.66060853807087, "45_50_0": 34.013418393432815, "45_34_0": 128.0478617432559}, "angles": {"45_35_0": 82.95564806672957, "45_49_0": 97.33588165194365, "45_50_0": 85.67402693150368, "45_34_0": 94.03444334982309}, "adj_sorted": [[45, 35, 0], [45, 49, 0], [45, 50, 0], [45, 34, 0]], "type": "X", "n_corners": 4}, "geometry": {"type": "Point", "coordinates": [19.06596579999999, 47.49641520000005]}}, {"id": "50", "type": "Feature", "properties": {"x": 5002671.374901266, "y": 2751053.002530249, "bearings": {"50_51_0": -55.11953140759601, "50_45_0": -145.9865816065672, "50_56_0": 40.84812399254828, "50_39_0": 129.92049436655233}, "angles": {"50_45_0": 84.0929240268805, "50_51_0": 90.86705019897119, "50_56_0": 95.96765540014428, "50_39_0": 89.07237037400405}, "adj_sorted": [[50, 45, 0], [50, 51, 0], [50, 56, 0], [50, 39, 0]], "type": "X", "n_corners": 4}, "geometry": {"type": "Point", "coordinates": [19.066679299999993, 47.49666170000003]}}, {"id": "110", "type": "Feature", "properties": {"x": 5003294.201486758, "y": 2751332.827631619, "bearings": {"110_99_0": -151.6391087335382, "110_118_0": 28.343520033466117, "110_97_0": -174.03719702505722}, "angles": {"110_97_0": 157.61928294147665, "110_99_0": 22.39808829151903, "110_118_0": 179.98262876700431}, "adj_sorted": [[110, 97, 0], [110, 99, 0], [110, 118, 0]], "type": "Y", "n_corners": 2}, "geometry": {"type": "Point", "coordinates": [19.075330899999997, 47.49847290000003]}}, {"id": "89", "type": "Feature", "properties": {"x": 5003084.987374461, "y": 2751368.0374502274, "bearings": {"89_82_0": 135.9977538946839, "89_99_0": -47.20262231368599, "89_97_0": 41.83474734027489}, "angles": {"89_99_0": 176.7996237916301, "89_97_0": 89.03736965396088, "89_82_0": 94.16300655440902}, "adj_sorted": [[89, 99, 0], [89, 97, 0], [89, 82, 0]], "type": "T", "n_corners": 2}, "geometry": {"type": "Point", "coordinates": [19.072628099999996, 47.499017500000036]}}, {"id": "97", "type": "Feature", "properties": {"x": 5003170.442380844, "y": 2751444.536349092, "bearings": {"97_110_0": -49.81368955401719, "97_89_0": -138.16525265972513, "97_91_0": 127.86287676579153}, "angles": {"97_89_0": 93.97187057448332, "97_110_0": 88.35156310570794, "97_91_0": 177.67656631980873}, "adj_sorted": [[97, 89, 0], [97, 110, 0], [97, 91, 0]], "type": "T", "n_corners": 2}, "geometry": {"type": "Point", "coordinates": [19.07387519999999, 47.499606]}}, {"id": "153", "type": "Feature", "properties": {"x": 5003906.162000127, "y": 2752409.4581193794, "bearings": {"153_157_0": -48.13218407460285, "153_149_0": 132.78737390272832, "153_143_0": -140.2746534153256}, "angles": {"153_143_0": 86.93797268194612, "153_157_0": 92.14246934072274, "153_149_0": 180.91955797733118}, "adj_sorted": [[153, 143, 0], [153, 157, 0], [153, 149, 0]], "type": "T", "n_corners": 2}, "geometry": {"type": "Point", "coordinates": [19.085096299999996, 47.507405200000036]}}, {"id": "157", "type": "Feature", "properties": {"x": 5003963.974063693, "y": 2752344.4065555837, "bearings": {"157_153_0": 131.42018927356955, "157_165_0": -49.80244859113753, "157_152_0": -113.72829845814134}, "angles": {"157_152_0": 114.85151226828913, "157_165_0": 63.92584986700381, "157_153_0": 181.22263786470708}, "adj_sorted": [[157, 152, 0], [157, 165, 0], [157, 153, 0]], "type": "T", "n_corners": 2}, "geometry": {"type": "Point", "coordinates": [19.085755999999996, 47.50676100000006]}}, {"id": "149", "type": "Feature", "properties": {"x": 5003831.44180764, "y": 2752485.71238606, "bearings": {"149_145_0": 164.4293494712063, "149_153_0": -45.022618579339934, "149_138_0": -139.24356255062486}, "angles": {"149_138_0": 56.327087978168834, "149_153_0": 94.22094397128492, "149_145_0": 209.45196805054624}, "adj_sorted": [[149, 138, 0], [149, 153, 0], [149, 145, 0]], "type": "other", "n_corners": 3}, "geometry": {"type": "Point", "coordinates": [19.08423129999999, 47.50816800000003]}}, {"id": "143", "type": "Feature", "properties": {"x": 5003727.076495431, "y": 2752258.189610473, "bearings": {"143_153_0": 40.22247415201839, "143_138_0": 131.74772560989368, "143_139_0": -139.78111593295407, "143_147_0": -49.28123423397919}, "angles": {"143_139_0": 88.47115845715223, "143_147_0": 90.49988169897487, "143_153_0": 89.50370838599758, "143_138_0": 91.52525145787529}, "adj_sorted": [[143, 139, 0], [143, 147, 0], [143, 153, 0], [143, 138, 0]], "type": "X", "n_corners": 4}, "geometry": {"type": "Point", "coordinates": [19.082496400000004, 47.50625290000001]}}, {"id": "165", "type": "Feature", "properties": {"x": 5004089.570819194, "y": 2752211.9287857576, "bearings": {"165_157_0": 133.31655099498596, "165_170_0": -44.08171728058936, "165_161_0": -137.41301481293502}, "angles": {"165_161_0": 89.27043419207905, "165_170_0": 93.33129753234566, "165_157_0": 177.39826827557533}, "adj_sorted": [[165, 161, 0], [165, 170, 0], [165, 157, 0]], "type": "T", "n_corners": 2}, "geometry": {"type": "Point", "coordinates": [19.087203100000004, 47.50544040000004]}}, {"id": "152", "type": "Feature", "properties": {"x": 5003865.321339298, "y": 2752246.0542687546, "bearings": {"152_157_0": 40.858791230468235, "152_159_0": -47.81107254938787, "152_147_0": -140.08781491754823}, "angles": {"152_147_0": 179.05339385198354, "152_159_0": 92.27674236816036, "152_157_0": 88.66986377985612}, "adj_sorted": [[152, 147, 0], [152, 159, 0], [152, 157, 0]], "type": "T", "n_corners": 2}, "geometry": {"type": "Point", "coordinates": [19.084300099999993, 47.50599220000005]}}, {"id": "166", "type": "Feature", "properties": {"x": 5004108.6965511255, "y": 2751810.745292559, "bearings": {"166_156_0": -173.15476284356967, "166_164_0": 113.9087480066348, "166_169_0": 6.84246224567218}, "angles": {"166_156_0": 72.93648914979553, "166_169_0": 179.99722508924185, "166_164_0": 107.06628576096261}, "adj_sorted": [[166, 156, 0], [166, 169, 0], [166, 164, 0]], "type": "T", "n_corners": 2}, "geometry": {"type": "Point", "coordinates": [19.0868225, 47.50183960000005]}}, {"id": "160", "type": "Feature", "properties": {"x": 5003982.487963996, "y": 2751836.4224665253, "bearings": {"160_156_0": -138.47937750165303, "160_162_0": 41.50388731807566, "160_155_0": 130.15912878536795}, "angles": {"160_156_0": 91.36149371297904, "160_162_0": 179.9832648197287, "160_155_0": 88.65524146729229}, "adj_sorted": [[160, 156, 0], [160, 162, 0], [160, 155, 0]], "type": "T", "n_corners": 2}, "geometry": {"type": "Point", "coordinates": [19.085199, 47.50220790000005]}}, {"id": "164", "type": "Feature", "properties": {"x": 5004082.182154638, "y": 2751849.6629234874, "bearings": {"164_166_0": -49.25132789668973, "164_162_0": 130.8439548664493, "164_173_0": 41.037762491609136}, "angles": {"164_166_0": 179.90471723686096, "164_173_0": 90.28909038829886, "164_162_0": 89.80619237484018}, "adj_sorted": [[164, 166, 0], [164, 173, 0], [164, 162, 0]], "type": "T", "n_corners": 2}, "geometry": {"type": "Point", "coordinates": [19.086534299999993, 47.50221610000003]}}, {"id": "169", "type": "Feature", "properties": {"x": 5004148.99966521, "y": 2751815.5814442155, "bearings": {"169_166_0": -173.15753775432782, "169_174_0": 6.849448350821466, "169_174_1": 97.16089328209097}, "angles": {"169_166_0": 89.68156896358119, "169_174_0": 180.00698610514928, "169_174_1": 90.3114449312695}, "adj_sorted": [[169, 166, 0], [169, 174, 0], [169, 174, 1]], "type": "T", "n_corners": 2}, "geometry": {"type": "Point", "coordinates": [19.0873615, 47.50183830000002]}}, {"id": "170", "type": "Feature", "properties": {"x": 5004164.29716249, "y": 2752135.1063351524, "bearings": {"170_165_0": 134.01222710547222, "170_172_0": -44.59443798220077, "170_167_0": -139.05169518597594}, "angles": {"170_167_0": 86.9360777085518, "170_172_0": 94.45725720377517, "170_165_0": 178.60666508767298}, "adj_sorted": [[170, 167, 0], [170, 172, 0], [170, 165, 0]], "type": "T", "n_corners": 2}, "geometry": {"type": "Point", "coordinates": [19.088067199999994, 47.50467249999998]}}, {"id": "161", "type": "Feature", "properties": {"x": 5004037.80642724, "y": 2752166.9328319705, "bearings": {"161_165_0": 40.76784218298984, "161_167_0": -47.568466997081195, "161_159_0": -138.9388824277779}, "angles": {"161_159_0": 180.29327538923224, "161_167_0": 91.37041543069671, "161_165_0": 88.33630918007103}, "adj_sorted": [[161, 159, 0], [161, 167, 0], [161, 165, 0]], "type": "T", "n_corners": 2}, "geometry": {"type": "Point", "coordinates": [19.086449600000005, 47.50509600000001]}}, {"id": "172", "type": "Feature", "properties": {"x": 5004235.451237221, "y": 2752064.5112757883, "bearings": {"172_170_0": 134.79425717620143, "172_171_0": -136.89651354717137, "172_173_0": -46.04715343704249}, "angles": {"172_171_0": 88.3092292766272, "172_173_0": 90.84936011012888, "172_170_0": 180.8414106132439}, "adj_sorted": [[172, 171, 0], [172, 173, 0], [172, 170, 0]], "type": "T", "n_corners": 2}, "geometry": {"type": "Point", "coordinates": [19.088893999999996, 47.50396410000006]}}, {"id": "167", "type": "Feature", "properties": {"x": 5004109.981129875, "y": 2752087.9787555067, "bearings": {"167_170_0": 40.94494683086487, "167_161_0": 132.43153300291883, "167_163_0": -139.05533873058852, "167_171_0": -47.57549127155357}, "angles": {"167_163_0": 88.51312826649269, "167_171_0": 91.47984745903494, "167_170_0": 88.52043810241844, "167_161_0": 91.48658617205396}, "adj_sorted": [[167, 163, 0], [167, 171, 0], [167, 170, 0], [167, 161, 0]], "type": "X", "n_corners": 4}, "geometry": {"type": "Point", "coordinates": [19.087276699999997, 47.50431190000004]}}, {"id": "174", "type": "Feature", "properties": {"x": 5004312.312909391, "y": 2751985.466338591, "bearings": {"174_169_0": -45.61913567995226, "174_169_1": -138.58643197625597, "174_173_0": 134.50839868640924}, "angles": {"174_169_1": 86.90516933733477, "174_169_0": 92.96729629630372, "174_173_0": 180.1275343663615}, "adj_sorted": [[174, 169, 1], [174, 169, 0], [174, 173, 0]], "type": "T", "n_corners": 2}, "geometry": {"type": "Point", "coordinates": [19.089782699999997, 47.50317399999999]}}, {"id": "173", "type": "Feature", "properties": {"x": 5004278.1335096285, "y": 2752020.230158476, "bearings": {"173_164_0": -138.96406006128348, "173_172_0": 133.9439558692322, "173_174_0": -45.45753597236733}, "angles": {"173_164_0": 87.09198406948428, "173_174_0": 93.50652408891614, "173_172_0": 179.40149184159955}, "adj_sorted": [[173, 164, 0], [173, 174, 0], [173, 172, 0]], "type": "T", "n_corners": 2}, "geometry": {"type": "Point", "coordinates": [19.08938689999999, 47.50352189999999]}}, {"id": "34", "type": "Feature", "properties": {"x": 5002490.693538912, "y": 2751184.4107615193, "bearings": {"34_45_0": -50.868390627065594, "34_23_0": -143.63980832341662, "34_27_0": 127.80455832886555, "34_38_0": 39.50262086018606}, "angles": {"34_23_0": 88.55563334771784, "34_45_0": 92.77141769635102, "34_38_0": 90.37101148725165, "34_27_0": 88.30193746867948}, "adj_sorted": [[34, 23, 0], [34, 45, 0], [34, 38, 0], [34, 27, 0]], "type": "X", "n_corners": 4}, "geometry": {"type": "Point", "coordinates": [19.064504000000003, 47.49803310000001]}}, {"id": "56", "type": "Feature", "properties": {"x": 5002744.724579386, "y": 2751116.4238626, "bearings": {"56_62_0": 49.46958645631371, "56_61_0": -41.71513096471328, "56_50_0": -139.1518760074517, "56_43_0": 138.54826589501155}, "angles": {"56_50_0": 82.29985809753674, "56_61_0": 97.43674504273842, "56_62_0": 91.18471742102699, "56_43_0": 89.07867943869783}, "adj_sorted": [[56, 50, 0], [56, 61, 0], [56, 62, 0], [56, 43, 0]], "type": "X", "n_corners": 4}, "geometry": {"type": "Point", "coordinates": [19.067746099999997, 47.49714690000003]}}, {"id": "39", "type": "Feature", "properties": {"x": 5002552.834509385, "y": 2751194.6728068027, "bearings": {"39_50_0": -50.073428060234995, "39_38_0": 129.89673918269366, "39_43_0": 39.498720480486234}, "angles": {"39_50_0": 180.02983275707135, "39_43_0": 89.57214854072123, "39_38_0": 90.39801870220742}, "adj_sorted": [[39, 50, 0], [39, 43, 0], [39, 38, 0]], "type": "T", "n_corners": 2}, "geometry": {"type": "Point", "coordinates": [19.065339399999992, 47.498056300000044]}}, {"id": "23", "type": "Feature", "properties": {"x": 5002394.5747428555, "y": 2751113.6585617033, "bearings": {"23_20_0": -145.2812046093694, "23_35_0": -58.82466816071687, "23_34_0": 36.35225612547668, "23_18_0": 121.67720914387692}, "angles": {"23_20_0": 93.0415862467537, "23_35_0": 86.45653644865254, "23_34_0": 95.17692428619355, "23_18_0": 85.32495301840024}, "adj_sorted": [[23, 20, 0], [23, 35, 0], [23, 34, 0], [23, 18, 0]], "type": "X", "n_corners": 4}, "geometry": {"type": "Point", "coordinates": [19.063125500000005, 47.49750750000002]}}, {"id": "27", "type": "Feature", "properties": {"x": 5002413.319990488, "y": 2751284.147293368, "bearings": {"27_22_0": 131.2194737882154, "27_34_0": -52.19713447597511, "27_30_0": 40.14634925808945}, "angles": {"27_34_0": 176.5833917358095, "27_30_0": 92.34348373406456, "27_22_0": 91.07312453012594}, "adj_sorted": [[27, 34, 0], [27, 30, 0], [27, 22, 0]], "type": "T", "n_corners": 2}, "geometry": {"type": "Point", "coordinates": [19.063640799999998, 47.49900820000004]}}, {"id": "38", "type": "Feature", "properties": {"x": 5002532.555882713, "y": 2751218.9226309545, "bearings": {"38_34_0": -140.49737913981394, "38_39_0": -50.0847018223215, "38_30_0": 129.19364742779942, "38_42_0": 43.15879531364453}, "angles": {"38_34_0": 90.30897343238667, "38_39_0": 90.41267731749244, "38_42_0": 93.24349713596604, "38_30_0": 86.03485211415489}, "adj_sorted": [[38, 34, 0], [38, 39, 0], [38, 42, 0], [38, 30, 0]], "type": "X", "n_corners": 4}, "geometry": {"type": "Point", "coordinates": [19.065110199999996, 47.49829500000001]}}, {"id": "43", "type": "Feature", "properties": {"x": 5002605.313600498, "y": 2751239.5606394676, "bearings": {"43_56_0": -41.455563716034156, "43_39_0": -138.69845188929364, "43_42_0": 134.39369073567266}, "angles": {"43_39_0": 86.9078573750337, "43_56_0": 97.24288817325947, "43_42_0": 175.84925445170683}, "adj_sorted": [[43, 39, 0], [43, 56, 0], [43, 42, 0]], "type": "T", "n_corners": 2}, "geometry": {"type": "Point", "coordinates": [19.0661019, 47.49839910000003]}}, {"id": "85", "type": "Feature", "properties": {"x": 5003036.894445021, "y": 2751454.7045103973, "bearings": {"85_82_0": -133.001004635305, "85_91_0": 47.71831420044013, "85_83_0": 98.22208278771521}, "angles": {"85_82_0": 128.77691257697978, "85_91_0": 180.71931883574513, "85_83_0": 50.503768587275076}, "adj_sorted": [[85, 82, 0], [85, 91, 0], [85, 83, 0]], "type": "Y", "n_corners": 2}, "geometry": {"type": "Point", "coordinates": [19.07213049999999, 47.49984380000003]}}, {"id": "109", "type": "Feature", "properties": {"x": 5003290.87562676, "y": 2751888.033037794, "bearings": {"109_115_0": -51.52581094566195, "109_103_0": 128.4662557087176, "109_101_0": -131.96826868217232}, "angles": {"109_101_0": 99.56547560911008, "109_115_0": 80.44245773651036, "109_103_0": 179.99206665437956}, "adj_sorted": [[109, 101, 0], [109, 115, 0], [109, 103, 0]], "type": "T", "n_corners": 2}, "geometry": {"type": "Point", "coordinates": [19.076161599999995, 47.503430700000024]}}, {"id": "101", "type": "Feature", "properties": {"x": 5003220.850178102, "y": 2751808.605367014, "bearings": {"101_95_0": 130.88605491178186, "101_109_0": 46.71264862480109, "101_108_0": -48.77011352689829, "101_96_0": -133.39592915866132}, "angles": {"101_96_0": 95.71801592955683, "101_108_0": 84.62581563176303, "101_109_0": 95.48276215169938, "101_95_0": 84.17340628698076}, "adj_sorted": [[101, 96, 0], [101, 108, 0], [101, 109, 0], [101, 95, 0]], "type": "X", "n_corners": 4}, "geometry": {"type": "Point", "coordinates": [19.075113199999993, 47.50279910000005]}}, {"id": "108", "type": "Feature", "properties": {"x": 5003287.097727647, "y": 2751733.0231553903, "bearings": {"108_115_0": 47.36947118384242, "108_120_0": -47.836273046366934, "108_101_0": 131.24162082065598, "108_104_0": -131.61141526187407}, "angles": {"108_104_0": 97.14696391746998, "108_120_0": 83.77514221550715, "108_115_0": 95.20574423020935, "108_101_0": 83.87214963681356}, "adj_sorted": [[108, 104, 0], [108, 120, 0], [108, 115, 0], [108, 101, 0]], "type": "X", "n_corners": 4}, "geometry": {"type": "Point", "coordinates": [19.075867599999988, 47.502051700000024]}}, {"id": "104", "type": "Feature", "properties": {"x": 5003236.230032944, "y": 2751675.7409431064, "bearings": {"104_108_0": 48.383846092289446, "104_96_0": 136.18763233372695, "104_100_0": -130.31312996123623, "104_113_0": -47.86751630126518}, "angles": {"104_100_0": 93.49923770503682, "104_113_0": 82.44561365997106, "104_108_0": 96.25136239355461, "104_96_0": 87.8037862414375}, "adj_sorted": [[104, 100, 0], [104, 113, 0], [104, 108, 0], [104, 96, 0]], "type": "X", "n_corners": 4}, "geometry": {"type": "Point", "coordinates": [19.075106699999992, 47.50159660000002]}}, {"id": "96", "type": "Feature", "properties": {"x": 5003161.397921837, "y": 2751748.2692751703, "bearings": {"96_93_0": 134.7556332578929, "96_101_0": 47.1824407528782, "96_104_0": -45.609776471922046}, "angles": {"96_104_0": 179.63459027018507, "96_101_0": 92.79221722480025, "96_93_0": 87.5731925050147}, "adj_sorted": [[96, 104, 0], [96, 101, 0], [96, 93, 0]], "type": "T", "n_corners": 2}, "geometry": {"type": "Point", "coordinates": [19.0742343, 47.50232620000001]}}, {"id": "80", "type": "Feature", "properties": {"x": 5002996.960994055, "y": 2751745.7714064578, "bearings": {"80_73_0": -132.08224693871384, "80_69_0": 137.14835938752177, "80_86_0": 46.861425956934944, "80_88_0": -82.30795527560909}, "angles": {"80_73_0": 90.7693936737644, "80_88_0": 49.77429166310475, "80_86_0": 129.16938123254403, "80_69_0": 90.28693343058683}, "adj_sorted": [[80, 73, 0], [80, 88, 0], [80, 86, 0], [80, 69, 0]], "type": "other", "n_corners": 4}, "geometry": {"type": "Point", "coordinates": [19.0720623, 47.50248500000003]}}, {"id": "88", "type": "Feature", "properties": {"x": 5003081.538621908, "y": 2751637.349231743, "bearings": {"88_86_0": 103.44897263454102, "88_80_0": -165.9542088716474, "88_91_0": -76.9026060409891}, "angles": {"88_80_0": 90.59681849381155, "88_91_0": 89.05160283065831, "88_86_0": 180.3515786755301}, "adj_sorted": [[88, 80, 0], [88, 91, 0], [88, 86, 0]], "type": "T", "n_corners": 2}, "geometry": {"type": "Point", "coordinates": [19.073006699999993, 47.501424400000055]}}, {"id": "59", "type": "Feature", "properties": {"x": 5002793.412826724, "y": 2751930.089365331, "bearings": {"59_67_0": 48.26439104744321, "59_69_0": -41.269971980918584, "59_54_0": -133.6430391233495, "59_53_0": 137.06247459227671}, "angles": {"59_54_0": 89.29448628437376, "59_69_0": 92.37306714243091, "59_67_0": 89.5343630283618, "59_53_0": 88.7980835448335}, "adj_sorted": [[59, 54, 0], [59, 69, 0], [59, 67, 0], [59, 53, 0]], "type": "X", "n_corners": 4}, "geometry": {"type": "Point", "coordinates": [19.069668699999998, 47.50435380000002]}}, {"id": "91", "type": "Feature", "properties": {"x": 5003106.288991108, "y": 2751530.968938212, "bearings": {"91_97_0": -73.31981563747723, "91_85_0": -132.30075784426197, "91_88_0": 103.09739395901089, "91_98_0": 47.09917010561176}, "angles": {"91_85_0": 124.60184819672713, "91_97_0": 58.98094220678473, "91_98_0": 120.418985743089, "91_88_0": 55.998223853399125}, "adj_sorted": [[91, 85, 0], [91, 97, 0], [91, 98, 0], [91, 88, 0]], "type": "X", "n_corners": 4}, "geometry": {"type": "Point", "coordinates": [19.073165499999998, 47.50044790000002]}}, {"id": "114", "type": "Feature", "properties": {"x": 5003342.379424797, "y": 2752332.43858121, "bearings": {"114_107_0": -139.38135674997682, "114_125_0": 40.61132119930901, "114_122_0": -49.11847320463406}, "angles": {"114_107_0": 180.00732205071418, "114_122_0": 90.26288354534276, "114_125_0": 89.72979440394306}, "adj_sorted": [[114, 107, 0], [114, 122, 0], [114, 125, 0]], "type": "T", "n_corners": 2}, "geometry": {"type": "Point", "coordinates": [19.077540900000002, 47.50733940000003]}}, {"id": "125", "type": "Feature", "properties": {"x": 5003461.704976741, "y": 2752434.768320547, "bearings": {"125_129_0": 40.615155575490384, "125_114_0": -139.3829179074395, "125_131_0": -48.95975980120418}, "angles": {"125_114_0": 180.00192651707013, "125_131_0": 90.42315810623532, "125_129_0": 89.57491537669456}, "adj_sorted": [[125, 114, 0], [125, 131, 0], [125, 129, 0]], "type": "T", "n_corners": 2}, "geometry": {"type": "Point", "coordinates": [19.079275599999992, 47.50812100000001]}}, {"id": "122", "type": "Feature", "properties": {"x": 5003411.2779854955, "y": 2752252.8707906846, "bearings": {"122_114_0": 130.8908555096633, "122_131_0": 40.66170536713063, "122_112_0": -139.49960572551402, "122_127_0": -48.86271665116496}, "angles": {"122_112_0": 89.60953876482267, "122_127_0": 90.63688907434906, "122_131_0": 89.52442201829558, "122_114_0": 90.22915014253269}, "adj_sorted": [[122, 112, 0], [122, 127, 0], [122, 131, 0], [122, 114, 0]], "type": "X", "n_corners": 4}, "geometry": {"type": "Point", "coordinates": [19.078324, 47.50655350000003]}}, {"id": "112", "type": "Feature", "properties": {"x": 5003326.820353732, "y": 2752180.736153516, "bearings": {"112_119_0": -50.445404883885146, "112_105_0": 129.57174950917397, "112_122_0": 40.500394274485984}, "angles": {"112_119_0": 179.98284560694088, "112_122_0": 90.94579915837113, "112_105_0": 89.07135523468799}, "adj_sorted": [[112, 119, 0], [112, 122, 0], [112, 105, 0]], "type": "T", "n_corners": 2}, "geometry": {"type": "Point", "coordinates": [19.077096699999995, 47.50600290000004]}}, {"id": "131", "type": "Feature", "properties": {"x": 5003530.731102475, "y": 2752355.475388192, "bearings": {"131_125_0": 131.04024019879583, "131_122_0": -139.34254396312863, "131_134_0": -48.64744310193415, "131_133_0": 40.35153978158386}, "angles": {"131_122_0": 89.61721583807554, "131_134_0": 90.69510086119448, "131_133_0": 88.99898288351801, "131_125_0": 90.68870041721198}, "adj_sorted": [[131, 122, 0], [131, 134, 0], [131, 133, 0], [131, 125, 0]], "type": "X", "n_corners": 4}, "geometry": {"type": "Point", "coordinates": [19.080060800000002, 47.507337400000026]}}, {"id": "127", "type": "Feature", "properties": {"x": 5003476.550656381, "y": 2752178.1455372036, "bearings": {"127_132_0": -49.31914886553147, "127_119_0": -139.0758772752051, "127_122_0": 131.13728334883504, "127_134_0": 40.930547574721835}, "angles": {"127_119_0": 89.78683937595986, "127_132_0": 89.75672840967363, "127_134_0": 90.2496964402533, "127_122_0": 90.20673577411321}, "adj_sorted": [[127, 119, 0], [127, 132, 0], [127, 134, 0], [127, 122, 0]], "type": "X", "n_corners": 4}, "geometry": {"type": "Point", "coordinates": [19.079066900000004, 47.505814800000046]}}, {"id": "138", "type": "Feature", "properties": {"x": 5003659.23421762, "y": 2752334.208702825, "bearings": {"138_149_0": 41.390547397549106, "138_143_0": -48.26791273759012, "138_134_0": -140.30525884202441, "138_133_0": 131.04479228358736}, "angles": {"138_134_0": 88.6499488743882, "138_143_0": 92.03734610443429, "138_149_0": 89.65846013513922, "138_133_0": 89.65424488603824}, "adj_sorted": [[138, 134, 0], [138, 143, 0], [138, 149, 0], [138, 133, 0]], "type": "X", "n_corners": 4}, "geometry": {"type": "Point", "coordinates": [19.0817217, 47.507006000000054]}}, {"id": "134", "type": "Feature", "properties": {"x": 5003595.754004582, "y": 2752281.5162562365, "bearings": {"134_131_0": 130.93941093629763, "134_127_0": -139.05661821280532, "134_138_0": 39.69474115797557, "134_139_0": -48.74184234586226}, "angles": {"134_127_0": 90.00397085089708, "134_139_0": 90.31477586694305, "134_138_0": 88.43658350383782, "134_131_0": 91.24466977832206}, "adj_sorted": [[134, 127, 0], [134, 139, 0], [134, 138, 0], [134, 131, 0]], "type": "X", "n_corners": 4}, "geometry": {"type": "Point", "coordinates": [19.080801599999997, 47.50660580000001]}}, {"id": "133", "type": "Feature", "properties": {"x": 5003593.952191288, "y": 2752409.1886162963, "bearings": {"133_129_0": 130.26530095991325, "133_145_0": 41.25218840504689, "133_131_0": -139.64846021841615, "133_138_0": -48.955207716412666}, "angles": {"133_131_0": 90.08623882167058, "133_138_0": 90.69325250200347, "133_145_0": 90.20739612145955, "133_129_0": 89.01311255486635}, "adj_sorted": [[133, 131, 0], [133, 138, 0], [133, 145, 0], [133, 129, 0]], "type": "X", "n_corners": 4}, "geometry": {"type": "Point", "coordinates": [19.080979099999997, 47.50774700000001]}}, {"id": "139", "type": "Feature", "properties": {"x": 5003663.427554645, "y": 2752204.366116103, "bearings": {"139_132_0": -139.77997343065746, "139_144_0": -48.95243476405086, "139_143_0": 40.21888406704592, "139_134_0": 131.25603059334512}, "angles": {"139_132_0": 88.96399597599742, "139_144_0": 90.82753866660661, "139_143_0": 89.17131883109678, "139_134_0": 91.0371465262992}, "adj_sorted": [[139, 132, 0], [139, 144, 0], [139, 143, 0], [139, 134, 0]], "type": "X", "n_corners": 4}, "geometry": {"type": "Point", "coordinates": [19.081572300000005, 47.505842800000046]}}, {"id": "147", "type": "Feature", "properties": {"x": 5003791.011634578, "y": 2752183.9073794354, "bearings": {"147_144_0": -138.67695222139818, "147_143_0": 130.7187657660208, "147_152_0": 39.819164896791726, "147_154_0": -49.191281002657675}, "angles": {"147_144_0": 90.60428201258105, "147_154_0": 89.4856712187405, "147_152_0": 89.0104458994494, "147_143_0": 90.89960086922906}, "adj_sorted": [[147, 144, 0], [147, 154, 0], [147, 152, 0], [147, 143, 0]], "type": "X", "n_corners": 4}, "geometry": {"type": "Point", "coordinates": [19.083222300000003, 47.50551960000002]}}, {"id": "150", "type": "Feature", "properties": {"x": 5003842.830921515, "y": 2751997.9179733647, "bearings": {"150_142_0": -138.70050162519436, "150_144_0": 130.95685864797326, "150_154_0": 40.61902829281359, "150_155_0": -49.53936296467215}, "angles": {"150_142_0": 90.34263972683237, "150_155_0": 89.16113866052221, "150_154_0": 90.15839125748573, "150_144_0": 90.33783035515967}, "adj_sorted": [[150, 142, 0], [150, 155, 0], [150, 154, 0], [150, 144, 0]], "type": "X", "n_corners": 4}, "geometry": {"type": "Point", "coordinates": [19.083612300000002, 47.5038029]}}, {"id": "154", "type": "Feature", "properties": {"x": 5003906.246808985, "y": 2752052.308505749, "bearings": {"154_147_0": 131.2163940956656, "154_150_0": -139.3809717071864, "154_159_0": 41.06747395968631, "154_158_0": -49.0089249383413}, "angles": {"154_150_0": 89.40263419714802, "154_158_0": 90.37204676884511, "154_159_0": 90.0763988980276, "154_147_0": 90.1489201359793}, "adj_sorted": [[154, 150, 0], [154, 158, 0], [154, 159, 0], [154, 147, 0]], "type": "X", "n_corners": 4}, "geometry": {"type": "Point", "coordinates": [19.0845342, 47.504218300000005]}}, {"id": "155", "type": "Feature", "properties": {"x": 5003912.898677845, "y": 2751915.764950757, "bearings": {"155_148_0": -138.94022868309779, "155_160_0": -48.63167454827195, "155_150_0": 130.46063703532784, "155_158_0": 41.56852424669665}, "angles": {"155_148_0": 90.59913428157438, "155_160_0": 90.30855413482584, "155_158_0": 90.2001987949686, "155_150_0": 88.89211278863118}, "adj_sorted": [[155, 148, 0], [155, 160, 0], [155, 158, 0], [155, 150, 0]], "type": "X", "n_corners": 4}, "geometry": {"type": "Point", "coordinates": [19.084406599999994, 47.5029926]}}, {"id": "159", "type": "Feature", "properties": {"x": 5003981.498193331, "y": 2752117.8792808903, "bearings": {"159_152_0": 132.18892745061214, "159_161_0": 41.061117572222116, "159_154_0": -138.93252604031372, "159_163_0": -49.30867522337107}, "angles": {"159_154_0": 88.87854650907411, "159_163_0": 89.62385081694265, "159_161_0": 90.36979279559318, "159_152_0": 91.12780987839002}, "adj_sorted": [[159, 154, 0], [159, 163, 0], [159, 161, 0], [159, 152, 0]], "type": "X", "n_corners": 4}, "geometry": {"type": "Point", "coordinates": [19.085629800000003, 47.504720400000025]}}, {"id": "158", "type": "Feature", "properties": {"x": 5003976.211050151, "y": 2751971.914138007, "bearings": {"158_154_0": 131.0345867046403, "158_155_0": -138.43147575330335, "158_163_0": 40.94758871590399, "158_162_0": -48.96800167855693}, "angles": {"158_155_0": 90.53393754205638, "158_162_0": 89.46347407474641, "158_163_0": 89.91559039446092, "158_154_0": 90.08699798873631}, "adj_sorted": [[158, 155, 0], [158, 162, 0], [158, 163, 0], [158, 154, 0]], "type": "X", "n_corners": 4}, "geometry": {"type": "Point", "coordinates": [19.085329899999994, 47.503423800000036]}}, {"id": "163", "type": "Feature", "properties": {"x": 5004051.067043135, "y": 2752036.8653375725, "bearings": {"163_167_0": 40.94466126941149, "163_159_0": 130.65366144869574, "163_158_0": -139.05241128409602, "163_168_0": -49.34280241384294}, "angles": {"163_158_0": 90.29392726720823, "163_168_0": 89.70960887025308, "163_167_0": 90.28746368325443, "163_159_0": 89.70900017928426}, "adj_sorted": [[163, 158, 0], [163, 168, 0], [163, 167, 0], [163, 159, 0]], "type": "X", "n_corners": 4}, "geometry": {"type": "Point", "coordinates": [19.08641929999999, 47.50392080000001]}}, {"id": "162", "type": "Feature", "properties": {"x": 5004045.552487785, "y": 2751892.239149859, "bearings": {"162_160_0": -138.4802299076145, "162_164_0": -50.09534100587857, "162_158_0": 131.04018344471348, "162_168_0": 41.76843699357358}, "angles": {"162_160_0": 90.47958664767202, "162_164_0": 88.38488890173593, "162_168_0": 91.86377799945215, "162_158_0": 89.2717464511399}, "adj_sorted": [[162, 160, 0], [162, 164, 0], [162, 168, 0], [162, 158, 0]], "type": "X", "n_corners": 4}, "geometry": {"type": "Point", "coordinates": [19.086118499999998, 47.50263639999999]}}, {"id": "168", "type": "Feature", "properties": {"x": 5004118.9185171425, "y": 2751957.858765141, "bearings": {"168_163_0": 130.64763133490962, "168_162_0": -138.18669058579815, "168_171_0": 41.81005370090674}, "angles": {"168_162_0": 91.1656780792922, "168_171_0": 179.99674428670488, "168_163_0": 88.83757763400288}, "adj_sorted": [[168, 162, 0], [168, 171, 0], [168, 163, 0]], "type": "T", "n_corners": 2}, "geometry": {"type": "Point", "coordinates": [19.0871893, 47.50314100000002]}}, {"id": "171", "type": "Feature", "properties": {"x": 5004177.484174269, "y": 2752010.241000765, "bearings": {"171_172_0": 43.11582531095059, "171_167_0": 130.65293941188008, "171_168_0": -138.18994629909326}, "angles": {"171_168_0": 91.15711428902665, "171_172_0": 181.30577161004385, "171_167_0": 87.5371141009295}, "adj_sorted": [[171, 168, 0], [171, 172, 0], [171, 167, 0]], "type": "T", "n_corners": 2}, "geometry": {"type": "Point", "coordinates": [19.08804409999999, 47.503543800000074]}}, {"id": "98", "type": "Feature", "properties": {"x": 5003173.564982326, "y": 2751603.3644242263, "bearings": {"98_91_0": -132.90082989438824, "98_106_0": -48.03794967528567, "98_100_0": 44.30896178411547}, "angles": {"98_91_0": 182.7902083214963, "98_106_0": 84.86288021910258, "98_100_0": 92.34691145940113}, "adj_sorted": [[98, 91, 0], [98, 106, 0], [98, 100, 0]], "type": "T", "n_corners": 2}, "geometry": {"type": "Point", "coordinates": [19.074166499999997, 47.501019800000016]}}, {"id": "106", "type": "Feature", "properties": {"x": 5003270.4871267965, "y": 2751495.268997714, "bearings": {"106_111_0": -47.64845389280013, "106_98_0": 131.7230662029096, "106_113_0": 42.233007816710725}, "angles": {"106_111_0": 180.6284799042903, "106_113_0": 89.88146170951086, "106_98_0": 89.49005838619887}, "adj_sorted": [[106, 111, 0], [106, 113, 0], [106, 98, 0]], "type": "T", "n_corners": 2}, "geometry": {"type": "Point", "coordinates": [19.075274099999994, 47.49994850000004]}}, {"id": "100", "type": "Feature", "properties": {"x": 5003180.820843145, "y": 2751610.4350135685, "bearings": {"100_93_0": 105.38488886491042, "100_104_0": 49.686870038763786, "100_98_0": -135.7908584596432}, "angles": {"100_98_0": 118.82425267544636, "100_104_0": 185.47772849840698, "100_93_0": 55.69801882614664}, "adj_sorted": [[100, 98, 0], [100, 104, 0], [100, 93, 0]], "type": "Y", "n_corners": 2}, "geometry": {"type": "Point", "coordinates": [19.0742733, 47.50107490000004]}}, {"id": "113", "type": "Feature", "properties": {"x": 5003340.871204485, "y": 2751559.1633066437, "bearings": {"113_117_0": 42.5472405598478, "113_104_0": 131.79936207620543, "113_106_0": -137.7669921832893}, "angles": {"113_106_0": 90.43364574050531, "113_117_0": 180.3142327431371, "113_104_0": 89.25212151635762}, "adj_sorted": [[113, 106, 0], [113, 117, 0], [113, 104, 0]], "type": "T", "n_corners": 2}, "geometry": {"type": "Point", "coordinates": [19.076302699999996, 47.50044110000005]}}, {"id": "18", "type": "Feature", "properties": {"x": 5002275.23430162, "y": 2751230.378785815, "bearings": {"18_17_0": -119.45825515575135, "18_13_0": 141.80803461721305, "18_22_0": 60.16750051318568, "18_23_0": -23.832846183981832}, "angles": {"18_17_0": 98.7337102270356, "18_23_0": 95.62540897176952, "18_22_0": 84.00034669716752, "18_13_0": 81.64053410402738}, "adj_sorted": [[18, 17, 0], [18, 23, 0], [18, 22, 0], [18, 13, 0]], "type": "X", "n_corners": 4}, "geometry": {"type": "Point", "coordinates": [19.0617357, 47.498680300000025]}}, {"id": "25", "type": "Feature", "properties": {"x": 5002399.908167522, "y": 2751443.7909734114, "bearings": {"25_22_0": -119.21442165228616, "25_26_0": 61.30441139351046, "25_33_0": -47.525195322167875}, "angles": {"25_22_0": 179.4811669542034, "25_33_0": 71.68922633011829, "25_26_0": 108.82960671567834}, "adj_sorted": [[25, 22, 0], [25, 33, 0], [25, 26, 0]], "type": "T", "n_corners": 2}, "geometry": {"type": "Point", "coordinates": [19.0637151, 47.50044750000005]}}, {"id": "26", "type": "Feature", "properties": {"x": 5002404.460333454, "y": 2751452.1071946044, "bearings": {"26_19_0": 130.65549542807193, "26_31_0": 45.98896064738557, "26_25_0": -118.69558860648955}, "angles": {"26_25_0": 110.6489159654385, "26_31_0": 164.6845492538751, "26_19_0": 84.66653478068636}, "adj_sorted": [[26, 25, 0], [26, 31, 0], [26, 19, 0]], "type": "Y", "n_corners": 3}, "geometry": {"type": "Point", "coordinates": [19.063788199999998, 47.50051669999999]}}, {"id": "33", "type": "Feature", "properties": {"x": 5002487.507944292, "y": 2751348.475622299, "bearings": {"33_25_0": 137.96599640947485, "33_30_0": -135.8841945888294, "33_42_0": -31.581271635521098}, "angles": {"33_30_0": 86.14980900169576, "33_42_0": 104.3029229533083, "33_25_0": 169.54726804499595}, "adj_sorted": [[33, 30, 0], [33, 42, 0], [33, 25, 0]], "type": "T", "n_corners": 2}, "geometry": {"type": "Point", "coordinates": [19.06472009999999, 47.499500600000026]}}, {"id": "30", "type": "Feature", "properties": {"x": 5002452.456003464, "y": 2751317.157021487, "bearings": {"30_27_0": -139.85365074191057, "30_38_0": -50.80635257220059, "30_33_0": 41.28770295450389}, "angles": {"30_27_0": 178.85864630358554, "30_38_0": 89.04729816970999, "30_33_0": 92.09405552670448}, "adj_sorted": [[30, 27, 0], [30, 38, 0], [30, 33, 0]], "type": "T", "n_corners": 2}, "geometry": {"type": "Point", "coordinates": [19.064208699999995, 47.49925970000004]}}, {"id": "42", "type": "Feature", "properties": {"x": 5002581.023961998, "y": 2751264.369101713, "bearings": {"42_46_0": 52.151938496732896, "42_38_0": -136.84484311364048, "42_43_0": -45.60387386604952, "42_33_0": 139.3045122892129}, "angles": {"42_38_0": 83.85064459714658, "42_43_0": 91.24096924759095, "42_46_0": 97.75581236278242, "42_33_0": 87.15257379248001}, "adj_sorted": [[42, 38, 0], [42, 43, 0], [42, 46, 0], [42, 33, 0]], "type": "X", "n_corners": 4}, "geometry": {"type": "Point", "coordinates": [19.065820699999993, 47.498647200000015]}}]}