{"type": "FeatureCollection", "features": [{"id": "0", "type": "Feature", "properties": {"index": 0, "n_sides": 4, "edges": "[(32, 36, 0), (36, 48, 0), (48, 44, 0), (44, 32, 0)]", "area": 10635.425035271015, "roundabout": false}, "geometry": {"type": "Polygon", "coordinates": [[[19.0650745, 47.50305400000003], [19.065510899999996, 47.503263900000015], [19.065594799999996, 47.50331090000001], [19.06574755108448, 47.50329810940027], [19.067288702221084, 47.50187991401317], [19.067221199999995, 47.50184030000003], [19.067132499999996, 47.50179110000002], [19.066778799999994, 47.5016265], [19.0650745, 47.50305400000003]]]}}, {"id": "2", "type": "Feature", "properties": {"index": 2, "n_sides": 4, "edges": "[(32, 44, 0), (44, 40, 0), (40, 29, 0), (29, 32, 0)]", "area": 11842.35957325295, "roundabout": false}, "geometry": {"type": "Polygon", "coordinates": [[[19.0650745, 47.50305400000003], [19.066778799999994, 47.5016265], [19.066086499999997, 47.50130120000004], [19.065991199999992, 47.50127830000003], [19.064573100000004, 47.502832100000006], [19.064690999999996, 47.50288610000002], [19.0650745, 47.50305400000003]]]}}, {"id": "3", "type": "Feature", "properties": {"index": 3, "n_sides": 4, "edges": "[(48, 36, 0), (36, 41, 0), (41, 55, 0), (55, 48, 0)]", "area": 20253.067534483678, "roundabout": false}, "geometry": {"type": "Polygon", "coordinates": [[[19.067288702221084, 47.50187991401317], [19.06574755108448, 47.50329810940027], [19.065762099999993, 47.50340450000006], [19.06584119999999, 47.503448999999996], [19.065965399999993, 47.503518199999995], [19.066564600000003, 47.50387340000003], [19.068450899999995, 47.50244490000001], [19.067446500000003, 47.501965400000046], [19.067360000000004, 47.50191730000002], [19.067288702221084, 47.50187991401317]]]}}, {"id": "4", "type": "Feature", "properties": {"index": 4, "n_sides": 4, "edges": "[(48, 57, 0), (57, 52, 0), (52, 40, 0), (40, 44, 0), (44, 48, 0)]", "area": 20680.015395531685, "roundabout": false}, "geometry": {"type": "Polygon", "coordinates": [[[19.067288702221084, 47.50187991401317], [19.06870251188675, 47.50055907533815], [19.068612300000005, 47.50051500000004], [19.068550500000004, 47.50047340000002], [19.067783500000004, 47.49995700000006], [19.067729199999995, 47.49992050000007], [19.0676669, 47.49996919999998], [19.067633099999995, 47.499995600000005], [19.0672797, 47.50027170000003], [19.066914, 47.50055770000001], [19.065991199999992, 47.50127830000003], [19.066086499999997, 47.50130120000004], [19.066778799999994, 47.5016265], [19.067132499999996, 47.50179110000002], [19.067221199999995, 47.50184030000003], [19.067288702221084, 47.50187991401317]]]}}, {"id": "5", "type": "Feature", "properties": {"index": 5, "n_sides": 4, "edges": "[(48, 55, 0), (55, 65, 0), (65, 57, 0), (57, 48, 0)]", "area": 20101.170924946986, "roundabout": false}, "geometry": {"type": "Polygon", "coordinates": [[[19.067288702221084, 47.50187991401317], [19.067360000000004, 47.50191730000002], [19.067446500000003, 47.501965400000046], [19.068450899999995, 47.50244490000001], [19.069925400000002, 47.50124360000005], [19.069413000000004, 47.500965400000005], [19.068886400000004, 47.500679500000054], [19.0687782, 47.50061649999999], [19.06870251188675, 47.50055907533815], [19.067288702221084, 47.50187991401317]]]}}, {"id": "6", "type": "Feature", "properties": {"index": 6, "n_sides": 4, "edges": "[(21, 29, 0), (29, 40, 0), (40, 31, 0), (31, 21, 0)]", "area": 22021.541010346875, "roundabout": false}, "geometry": {"type": "Polygon", "coordinates": [[[19.063185500000003, 47.50220670000003], [19.0634221, 47.502327600000015], [19.06369969999999, 47.5024612], [19.064469799999998, 47.50278940000004], [19.064573100000004, 47.502832100000006], [19.065991199999992, 47.50127830000003], [19.0655692, 47.501182300000025], [19.064664199999992, 47.500983200000064], [19.064581200000003, 47.50096180000008], [19.06454679999999, 47.50100359999999], [19.063185500000003, 47.50220670000003]]]}}, {"id": "7", "type": "Feature", "properties": {"index": 7, "n_sides": 4, "edges": "[(21, 31, 0), (31, 26, 0), (26, 19, 0), (19, 21, 0)]", "area": 12651.707043381597, "roundabout": false}, "geometry": {"type": "Polygon", "coordinates": [[[19.063185500000003, 47.50220670000003], [19.06454679999999, 47.50100359999999], [19.064581200000003, 47.50096180000008], [19.0642101, 47.50075320000005], [19.063830799999998, 47.50054010000004], [19.063788199999998, 47.50051669999999], [19.062799100000003, 47.50151780000006], [19.062547700000003, 47.5017896], [19.062501199999996, 47.50183740000004], [19.062618200000003, 47.501900600000006], [19.063185500000003, 47.50220670000003]]]}}, {"id": "8", "type": "Feature", "properties": {"index": 8, "n_sides": 4, "edges": "[(41, 47, 0), (47, 54, 0), (54, 60, 0), (60, 55, 0), (55, 41, 0)]", "area": 23545.370886314373, "roundabout": false}, "geometry": {"type": "Polygon", "coordinates": [[[19.066564600000003, 47.50387340000003], [19.066845299999997, 47.504046300000034], [19.067708599999996, 47.50456120000003], [19.068622600000005, 47.50377170000002], [19.068971799999996, 47.503477000000046], [19.069482800000007, 47.503029200000036], [19.069525000000002, 47.50299220000003], [19.068450899999995, 47.50244490000001], [19.066564600000003, 47.50387340000003]]]}}, {"id": "9", "type": "Feature", "properties": {"index": 9, "n_sides": 4, "edges": "[(54, 47, 0), (47, 53, 0), (53, 59, 0), (59, 54, 0)]", "area": 11381.702028154305, "roundabout": false}, "geometry": {"type": "Polygon", "coordinates": [[[19.068622600000005, 47.50377170000002], [19.067708599999996, 47.50456120000003], [19.068672699999997, 47.50515290000005], [19.069668699999998, 47.50435380000002], [19.068622600000005, 47.50377170000002]]]}}, {"id": "10", "type": "Feature", "properties": {"index": 10, "n_sides": 4, "edges": "[(54, 59, 0), (59, 69, 0), (69, 60, 0), (60, 54, 0)]", "area": 12133.927260197595, "roundabout": false}, "geometry": {"type": "Polygon", "coordinates": [[[19.068622600000005, 47.50377170000002], [19.069668699999998, 47.50435380000002], [19.070731600000006, 47.503549500000034], [19.069602899999992, 47.50302820000001], [19.069525000000002, 47.50299220000003], [19.069482800000007, 47.503029200000036], [19.068971799999996, 47.503477000000046], [19.068622600000005, 47.50377170000002]]]}}, {"id": "11", "type": "Feature", "properties": {"index": 11, "n_sides": 4, "edges": "[(55, 60, 0), (60, 73, 0), (73, 65, 0), (65, 55, 0)]", "area": 16785.918746474097, "roundabout": false}, "geometry": {"type": "Polygon", "coordinates": [[[19.068450899999995, 47.50244490000001], [19.069525000000002, 47.50299220000003], [19.070821600000006, 47.50185990000004], [19.070890700000003, 47.501799500000025], [19.06998099999999, 47.50127560000002], [19.069925400000002, 47.50124360000005], [19.068450899999995, 47.50244490000001]]]}}, {"id": "12", "type": "Feature", "properties": {"index": 12, "n_sides": 4, "edges": "[(40, 52, 0), (52, 46, 0), (46, 31, 0), (31, 40, 0)]", "area": 23876.442952421392, "roundabout": false}, "geometry": {"type": "Polygon", "coordinates": [[[19.065991199999992, 47.50127830000003], [19.066914, 47.50055770000001], [19.0672797, 47.50027170000003], [19.067633099999995, 47.499995600000005], [19.0676669, 47.49996919999998], [19.067729199999995, 47.49992050000007], [19.066748499999996, 47.499277200000044], [19.066705399999993, 47.49925120000003], [19.06666119999999, 47.49928610000001], [19.066098500000003, 47.49973070000006], [19.0659083, 47.49988090000006], [19.06583729999999, 47.49993700000003], [19.065569999999997, 47.500148100000004], [19.0652774, 47.500372200000065], [19.064979899999997, 47.50061900000004], [19.0646455, 47.500900700000045], [19.064581200000003, 47.50096180000008], [19.064664199999992, 47.500983200000064], [19.0655692, 47.501182300000025], [19.065991199999992, 47.50127830000003]]]}}, {"id": "13", "type": "Feature", "properties": {"index": 13, "n_sides": 4, "edges": "[(57, 65, 0), (65, 75, 0), (75, 66, 0), (66, 63, 0), (63, 57, 0)]", "area": 14526.751272679641, "roundabout": false}, "geometry": {"type": "Polygon", "coordinates": [[[19.06870251188675, 47.50055907533815], [19.0687782, 47.50061649999999], [19.068886400000004, 47.500679500000054], [19.069413000000004, 47.500965400000005], [19.069925400000002, 47.50124360000005], [19.0700017, 47.501180700000035], [19.070859099999996, 47.500474200000006], [19.07049509999999, 47.500274500000025], [19.069755099999995, 47.49986850000007], [19.069517900000005, 47.49976699999998], [19.069444300000004, 47.49973560000002], [19.06934275464819, 47.499698601929126], [19.06870251188675, 47.50055907533815]]]}}, {"id": "14", "type": "Feature", "properties": {"index": 14, "n_sides": 5, "edges": "[(57, 63, 0), (63, 70, 0), (70, 72, 0), (72, 68, 0), (68, 52, 0), (52, 57, 0)]", "area": 16304.488078356047, "roundabout": false}, "geometry": {"type": "Polygon", "coordinates": [[[19.06870251188675, 47.50055907533815], [19.06934275464819, 47.499698601929126], [19.070071196587786, 47.498695844959734], [19.0700933217241, 47.49853875860182], [19.0698222, 47.49846520000005], [19.069718, 47.49840100000003], [19.069644499999992, 47.49845710000005], [19.0678143, 47.49985550000003], [19.0677879, 47.49987570000003], [19.067729199999995, 47.49992050000007], [19.067783500000004, 47.49995700000006], [19.068550500000004, 47.50047340000002], [19.068612300000005, 47.50051500000004], [19.06870251188675, 47.50055907533815]]]}}, {"id": "15", "type": "Feature", "properties": {"index": 15, "n_sides": 4, "edges": "[(60, 69, 0), (69, 80, 0), (80, 73, 0), (73, 60, 0)]", "area": 18264.76750780517, "roundabout": false}, "geometry": {"type": "Polygon", "coordinates": [[[19.069525000000002, 47.50299220000003], [19.069602899999992, 47.50302820000001], [19.070731600000006, 47.503549500000034], [19.0720623, 47.50248500000003], [19.071624499999988, 47.502227500000025], [19.070957600000003, 47.501838600000006], [19.070890700000003, 47.501799500000025], [19.070821600000006, 47.50185990000004], [19.069525000000002, 47.50299220000003]]]}}, {"id": "16", "type": "Feature", "properties": {"index": 16, "n_sides": 3, "edges": "[(65, 73, 0), (73, 75, 0), (75, 65, 0)]", "area": 10640.526449705305, "roundabout": false}, "geometry": {"type": "Polygon", "coordinates": [[[19.069925400000002, 47.50124360000005], [19.06998099999999, 47.50127560000002], [19.070890700000003, 47.501799500000025], [19.07127839999999, 47.501487100000006], [19.071367299999995, 47.50141550000001], [19.0717215, 47.50113009999999], [19.071790199999995, 47.50106520000003], [19.071800900000007, 47.50102800000001], [19.071788899999998, 47.5010054], [19.07145379999999, 47.50081400000003], [19.070859099999996, 47.500474200000006], [19.0700017, 47.501180700000035], [19.069925400000002, 47.50124360000005]]]}}, {"id": "17", "type": "Feature", "properties": {"index": 17, "n_sides": 4, "edges": "[(46, 52, 0), (52, 68, 0), (68, 62, 0), (62, 46, 0)]", "area": 24016.13316986807, "roundabout": false}, "geometry": {"type": "Polygon", "coordinates": [[[19.066705399999993, 47.49925120000003], [19.066748499999996, 47.499277200000044], [19.067729199999995, 47.49992050000007], [19.0677879, 47.49987570000003], [19.0678143, 47.49985550000003], [19.069644499999992, 47.49845710000005], [19.069718, 47.49840100000003], [19.069447300000004, 47.49822480000004], [19.068929599999993, 47.49788770000003], [19.0687647, 47.49778130000004], [19.06871739999999, 47.49775050000006], [19.06864259999999, 47.497803400000016], [19.068216100000008, 47.49811680000003], [19.067401900000007, 47.49871910000005], [19.066891799999997, 47.499096399999985], [19.066779199999996, 47.49919110000002], [19.066758600000004, 47.49920840000002], [19.066705399999993, 47.49925120000003]]]}}, {"id": "18", "type": "Feature", "properties": {"index": 18, "n_sides": 5, "edges": "[(46, 42, 0), (42, 33, 0), (33, 25, 0), (25, 26, 0), (26, 31, 0), (31, 46, 0)]", "area": 23473.842987464686, "roundabout": false}, "geometry": {"type": "Polygon", "coordinates": [[[19.066705399999993, 47.49925120000003], [19.065820699999993, 47.498647200000015], [19.06550059999999, 47.498884600000025], [19.065193800000007, 47.499112100000026], [19.0648212, 47.499446100000014], [19.06472009999999, 47.499500600000026], [19.06462629999999, 47.49957350000001], [19.064583299999995, 47.49961559999999], [19.064262300000006, 47.499929700000045], [19.0639539, 47.500221599999996], [19.0637151, 47.50044750000005], [19.063788199999998, 47.50051669999999], [19.063830799999998, 47.50054010000004], [19.0642101, 47.50075320000005], [19.064581200000003, 47.50096180000008], [19.0646455, 47.500900700000045], [19.064979899999997, 47.50061900000004], [19.0652774, 47.500372200000065], [19.065569999999997, 47.500148100000004], [19.06583729999999, 47.49993700000003], [19.0659083, 47.49988090000006], [19.066098500000003, 47.49973070000006], [19.06666119999999, 47.49928610000001], [19.066705399999993, 47.49925120000003]]]}}, {"id": "19", "type": "Feature", "properties": {"index": 19, "n_sides": 4, "edges": "[(46, 62, 0), (62, 56, 0), (56, 43, 0), (43, 42, 0), (42, 46, 0)]", "area": 21696.190906183816, "roundabout": false}, "geometry": {"type": "Polygon", "coordinates": [[[19.066705399999993, 47.49925120000003], [19.066758600000004, 47.49920840000002], [19.066779199999996, 47.49919110000002], [19.066891799999997, 47.499096399999985], [19.067401900000007, 47.49871910000005], [19.068216100000008, 47.49811680000003], [19.06864259999999, 47.497803400000016], [19.06871739999999, 47.49775050000006], [19.068649399999998, 47.4977082], [19.067746099999997, 47.49714690000003], [19.066653999999993, 47.49797860000004], [19.0661019, 47.49839910000003], [19.065922600000004, 47.498557299999995], [19.065820699999993, 47.498647200000015], [19.066705399999993, 47.49925120000003]]]}}, {"id": "20", "type": "Feature", "properties": {"index": 20, "n_sides": 4, "edges": "[(68, 72, 0), (72, 77, 0), (77, 71, 0), (71, 62, 0), (62, 68, 0)]", "area": 13512.65992635733, "roundabout": false}, "geometry": {"type": "Polygon", "coordinates": [[[19.069718, 47.49840100000003], [19.0698222, 47.49846520000005], [19.0700933217241, 47.49853875860182], [19.070189052102684, 47.49843880713767], [19.070549881714708, 47.49726892685282], [19.0704407, 47.49717540000006], [19.070117000000003, 47.497077200000035], [19.0697897, 47.496977799999996], [19.0696887, 47.49706090000001], [19.068801999999994, 47.49769050000001], [19.068770700000005, 47.49771269999999], [19.06871739999999, 47.49775050000006], [19.0687647, 47.49778130000004], [19.068929599999993, 47.49788770000003], [19.069447300000004, 47.49822480000004], [19.069718, 47.49840100000003]]]}}, {"id": "21", "type": "Feature", "properties": {"index": 21, "n_sides": 4, "edges": "[(63, 66, 0), (66, 76, 0), (76, 70, 0), (70, 63, 0)]", "area": 6320.687185259769, "roundabout": false}, "geometry": {"type": "Polygon", "coordinates": [[[19.06934275464819, 47.499698601929126], [19.069444300000004, 47.49973560000002], [19.069517900000005, 47.49976699999998], [19.069755099999995, 47.49986850000007], [19.0707875, 47.4990663], [19.0702485, 47.49876760000004], [19.070161000000002, 47.49871810000004], [19.070071196587786, 47.498695844959734], [19.06934275464819, 47.499698601929126]]]}}, {"id": "22", "type": "Feature", "properties": {"index": 22, "n_sides": 6, "edges": "[(75, 73, 0), (73, 80, 0), (80, 88, 0), (88, 91, 0), (91, 85, 0), (85, 82, 0), (82, 75, 0)]", "area": 26996.189430783605, "roundabout": false}, "geometry": {"type": "Polygon", "coordinates": [[[19.070859099999996, 47.500474200000006], [19.07145379999999, 47.50081400000003], [19.071788899999998, 47.5010054], [19.071800900000007, 47.50102800000001], [19.071790199999995, 47.50106520000003], [19.0717215, 47.50113009999999], [19.071367299999995, 47.50141550000001], [19.07127839999999, 47.501487100000006], [19.070890700000003, 47.501799500000025], [19.070957600000003, 47.501838600000006], [19.071624499999988, 47.502227500000025], [19.0720623, 47.50248500000003], [19.07206469999999, 47.50237940000003], [19.0720884, 47.50134790000006], [19.073006699999993, 47.501424400000055], [19.073165499999998, 47.50044790000002], [19.072188199999996, 47.49987750000003], [19.07213049999999, 47.49984380000003], [19.071837000000002, 47.49967670000004], [19.070859099999996, 47.500474200000006]]]}}, {"id": "23", "type": "Feature", "properties": {"index": 23, "n_sides": 4, "edges": "[(75, 82, 0), (82, 76, 0), (76, 66, 0), (66, 75, 0)]", "area": 12334.146228461686, "roundabout": false}, "geometry": {"type": "Polygon", "coordinates": [[[19.070859099999996, 47.500474200000006], [19.071837000000002, 47.49967670000004], [19.0707875, 47.4990663], [19.069755099999995, 47.49986850000007], [19.07049509999999, 47.500274500000025], [19.070859099999996, 47.500474200000006]]]}}, {"id": "24", "type": "Feature", "properties": {"index": 24, "n_sides": 5, "edges": "[(72, 70, 0), (70, 76, 0), (76, 90, 0), (90, 77, 0), (77, 72, 0)]", "area": 20027.331832183976, "roundabout": false}, "geometry": {"type": "Polygon", "coordinates": [[[19.0700933217241, 47.49853875860182], [19.070071196587786, 47.498695844959734], [19.070161000000002, 47.49871810000004], [19.0702485, 47.49876760000004], [19.0707875, 47.4990663], [19.072095499999993, 47.49805880000005], [19.072368399999995, 47.497848600000026], [19.072403, 47.497811100000064], [19.0724741, 47.49770580000006], [19.0722963, 47.49765710000004], [19.071649699999988, 47.49748100000003], [19.0709431, 47.49727440000004], [19.070682599999998, 47.49719850000001], [19.070549881714708, 47.49726892685282], [19.070189052102684, 47.49843880713767], [19.0700933217241, 47.49853875860182]]]}}, {"id": "25", "type": "Feature", "properties": {"index": 25, "n_sides": 4, "edges": "[(76, 82, 0), (82, 89, 0), (89, 99, 0), (99, 90, 0), (90, 76, 0)]", "area": 21051.795569234164, "roundabout": false}, "geometry": {"type": "Polygon", "coordinates": [[[19.0707875, 47.4990663], [19.071837000000002, 47.49967670000004], [19.072628099999996, 47.499017500000036], [19.073545200000005, 47.49815990000006], [19.0735619, 47.49814430000002], [19.073610700000007, 47.49809400000006], [19.073669700000004, 47.4980331], [19.072975700000004, 47.49784310000001], [19.0728278, 47.49780260000003], [19.0724741, 47.49770580000006], [19.072403, 47.497811100000064], [19.072368399999995, 47.497848600000026], [19.072095499999993, 47.49805880000005], [19.0707875, 47.4990663]]]}}, {"id": "26", "type": "Feature", "properties": {"index": 26, "n_sides": 4, "edges": "[(62, 71, 0), (71, 61, 0), (61, 56, 0), (56, 62, 0)]", "area": 10083.710024903867, "roundabout": false}, "geometry": {"type": "Polygon", "coordinates": [[[19.06871739999999, 47.49775050000006], [19.068770700000005, 47.49771269999999], [19.068801999999994, 47.49769050000001], [19.0696887, 47.49706090000001], [19.0697897, 47.496977799999996], [19.069198999999998, 47.49681570000004], [19.0689255, 47.49674070000001], [19.068624099999997, 47.49665359999998], [19.068569699999998, 47.49662500000004], [19.0684325, 47.496553000000034], [19.068351, 47.49668210000002], [19.068311100000003, 47.496712700000046], [19.068098799999998, 47.49687580000003], [19.067746099999997, 47.49714690000003], [19.068649399999998, 47.4977082], [19.06871739999999, 47.49775050000006]]]}}, {"id": "27", "type": "Feature", "properties": {"index": 27, "n_sides": 4, "edges": "[(82, 85, 0), (85, 91, 0), (91, 97, 0), (97, 89, 0), (89, 82, 0)]", "area": 12229.762267710043, "roundabout": false}, "geometry": {"type": "Polygon", "coordinates": [[[19.071837000000002, 47.49967670000004], [19.07213049999999, 47.49984380000003], [19.072188199999996, 47.49987750000003], [19.073165499999998, 47.50044790000002], [19.073180699999995, 47.50038870000003], [19.07371180000001, 47.49979020000001], [19.07387519999999, 47.499606], [19.072628099999996, 47.499017500000036], [19.071837000000002, 47.49967670000004]]]}}, {"id": "28", "type": "Feature", "properties": {"index": 28, "n_sides": 4, "edges": "[(61, 51, 0), (51, 50, 0), (50, 56, 0), (56, 61, 0)]", "area": 7609.986118573613, "roundabout": false}, "geometry": {"type": "Polygon", "coordinates": [[[19.0684325, 47.496553000000034], [19.0682912, 47.49651810000001], [19.0681347, 47.49647400000003], [19.067063799999996, 47.496172400000056], [19.066716400000004, 47.49661450000001], [19.066679299999993, 47.49666170000003], [19.067746099999997, 47.49714690000003], [19.068098799999998, 47.49687580000003], [19.068311100000003, 47.496712700000046], [19.068351, 47.49668210000002], [19.0684325, 47.496553000000034]]]}}, {"id": "29", "type": "Feature", "properties": {"index": 29, "n_sides": 4, "edges": "[(110, 99, 0), (99, 89, 0), (89, 97, 0), (97, 110, 0)]", "area": 16558.861172836238, "roundabout": false}, "geometry": {"type": "Polygon", "coordinates": [[[19.075330899999997, 47.49847290000003], [19.073806800000003, 47.49806939999998], [19.073669700000004, 47.4980331], [19.073610700000007, 47.49809400000006], [19.0735619, 47.49814430000002], [19.073545200000005, 47.49815990000006], [19.072628099999996, 47.499017500000036], [19.07387519999999, 47.499606], [19.074143500000005, 47.4993295], [19.074590300000004, 47.4988691], [19.0749286, 47.498520600000006], [19.074978800000004, 47.49849000000002], [19.075047399999995, 47.498476499999995], [19.075330899999997, 47.49847290000003]]]}}, {"id": "30", "type": "Feature", "properties": {"index": 30, "n_sides": 4, "edges": "[(110, 97, 0), (97, 91, 0), (91, 98, 0), (98, 106, 0), (106, 111, 0), (111, 118, 0), (118, 110, 0)]", "area": 30798.24588552154, "roundabout": false}, "geometry": {"type": "Polygon", "coordinates": [[[19.075330899999997, 47.49847290000003], [19.075047399999995, 47.498476499999995], [19.074978800000004, 47.49849000000002], [19.0749286, 47.498520600000006], [19.074590300000004, 47.4988691], [19.074143500000005, 47.4993295], [19.07387519999999, 47.499606], [19.07371180000001, 47.49979020000001], [19.073180699999995, 47.50038870000003], [19.073165499999998, 47.50044790000002], [19.074166499999997, 47.501019800000016], [19.0748977, 47.50031470000005], [19.075274099999994, 47.49994850000004], [19.075571599999996, 47.4996657], [19.076320999999997, 47.498918300000035], [19.0763778, 47.49886140000001], [19.076471699999995, 47.49876850000003], [19.075444699999995, 47.498503], [19.075330899999997, 47.49847290000003]]]}}, {"id": "31", "type": "Feature", "properties": {"index": 31, "n_sides": 4, "edges": "[(64, 78, 0), (78, 81, 0), (81, 74, 0), (74, 64, 0)]", "area": 15058.776662909942, "roundabout": false}, "geometry": {"type": "Polygon", "coordinates": [[[19.070638999999996, 47.506330700000035], [19.071843599999994, 47.50705559999998], [19.0719816, 47.507135800000015], [19.072291342274152, 47.50712589289164], [19.072278999999995, 47.50690630000001], [19.0723835, 47.50683150000004], [19.072807600000004, 47.506526800000024], [19.072274699999998, 47.50592560000001], [19.071689799999998, 47.505550400000004], [19.070638999999996, 47.506330700000035]]]}}, {"id": "32", "type": "Feature", "properties": {"index": 32, "n_sides": 4, "edges": "[(64, 74, 0), (74, 67, 0), (67, 58, 0), (58, 64, 0)]", "area": 9284.8444845889, "roundabout": false}, "geometry": {"type": "Polygon", "coordinates": [[[19.070638999999996, 47.506330700000035], [19.071689799999998, 47.505550400000004], [19.070890699999996, 47.50508140000004], [19.069944000000003, 47.50578770000005], [19.069853799999997, 47.50585500000004], [19.070638999999996, 47.506330700000035]]]}}, {"id": "33", "type": "Feature", "properties": {"index": 33, "n_sides": 4, "edges": "[(81, 78, 0), (78, 94, 0), (94, 107, 0), (107, 105, 0), (105, 102, 0), (102, 92, 0), (92, 81, 0)]", "area": 58501.44935711821, "roundabout": false}, "geometry": {"type": "Polygon", "coordinates": [[[19.072807600000004, 47.506526800000024], [19.0723835, 47.50683150000004], [19.072278999999995, 47.50690630000001], [19.072291342274152, 47.50712589289164], [19.072659837445258, 47.507364792414656], [19.072693796731667, 47.50747248752796], [19.072785887170415, 47.507558607226194], [19.075147939506525, 47.508579801778225], [19.075306987035983, 47.508491611015685], [19.076732999999994, 47.50697550000003], [19.076555799999994, 47.50689580000002], [19.076341699999997, 47.506799400000034], [19.0758373, 47.50657519999999], [19.074899099999993, 47.50616470000001], [19.074416299999996, 47.505953600000026], [19.074070037028815, 47.50569454682904], [19.07433199999999, 47.50537210000003], [19.073869599999995, 47.505727100000044], [19.0738202, 47.505765000000025], [19.0737806, 47.505795300000045], [19.073722499999995, 47.50583990000002], [19.07370179999999, 47.50585530000001], [19.073390599999996, 47.50608720000001], [19.072936399999996, 47.50643280000007], [19.072807600000004, 47.506526800000024]]]}}, {"id": "34", "type": "Feature", "properties": {"index": 34, "n_sides": 4, "edges": "[(81, 92, 0), (92, 84, 0), (84, 74, 0), (74, 81, 0)]", "area": 20076.81025482504, "roundabout": false}, "geometry": {"type": "Polygon", "coordinates": [[[19.072807600000004, 47.506526800000024], [19.072936399999996, 47.50643280000007], [19.073390599999996, 47.50608720000001], [19.07370179999999, 47.50585530000001], [19.073722499999995, 47.50583990000002], [19.0737806, 47.505795300000045], [19.0738202, 47.505765000000025], [19.073869599999995, 47.505727100000044], [19.07433199999999, 47.50537210000003], [19.074255899999997, 47.50533620000003], [19.073911900000002, 47.50517400000001], [19.0728525, 47.504653599999976], [19.0728348, 47.504667100000034], [19.071878699999996, 47.505401700000036], [19.071689799999998, 47.505550400000004], [19.072274699999998, 47.50592560000001], [19.072807600000004, 47.506526800000024]]]}}, {"id": "35", "type": "Feature", "properties": {"index": 35, "n_sides": 4, "edges": "[(74, 84, 0), (84, 79, 0), (79, 67, 0), (67, 74, 0)]", "area": 10276.244844930095, "roundabout": false}, "geometry": {"type": "Polygon", "coordinates": [[[19.071689799999998, 47.505550400000004], [19.071878699999996, 47.505401700000036], [19.0728348, 47.504667100000034], [19.0728525, 47.504653599999976], [19.072107499999998, 47.50426720000007], [19.07202609999999, 47.50422500000003], [19.07195769999999, 47.504275700000036], [19.070890699999996, 47.50508140000004], [19.071689799999998, 47.505550400000004]]]}}, {"id": "36", "type": "Feature", "properties": {"index": 36, "n_sides": 4, "edges": "[(58, 67, 0), (67, 59, 0), (59, 53, 0), (53, 58, 0)]", "area": 13999.715961069947, "roundabout": false}, "geometry": {"type": "Polygon", "coordinates": [[[19.069853799999997, 47.50585500000004], [19.069944000000003, 47.50578770000005], [19.070890699999996, 47.50508140000004], [19.069668699999998, 47.50435380000002], [19.068672699999997, 47.50515290000005], [19.068712299999998, 47.505176400000025], [19.069853799999997, 47.50585500000004]]]}}, {"id": "38", "type": "Feature", "properties": {"index": 38, "n_sides": 3, "edges": "[(92, 102, 0), (102, 116, 0), (116, 103, 0), (103, 92, 0)]", "area": 34583.15476569748, "roundabout": false}, "geometry": {"type": "Polygon", "coordinates": [[[19.07433199999999, 47.50537210000003], [19.074070037028815, 47.50569454682904], [19.074416299999996, 47.505953600000026], [19.074899099999993, 47.50616470000001], [19.0758373, 47.50657519999999], [19.07596109999999, 47.506447600000065], [19.0760004, 47.50641000000001], [19.076059199999992, 47.50637170000006], [19.076710300000002, 47.50567720000004], [19.0767448, 47.505634500000006], [19.077123099999998, 47.50522360000003], [19.0772652, 47.505086100000035], [19.077291100000004, 47.50506100000005], [19.077330699999997, 47.50502280000001], [19.077281499999998, 47.5050008], [19.075724700000002, 47.50429100000003], [19.075654099999994, 47.5042588], [19.0755768, 47.50422360000005], [19.075481899999996, 47.50417880000002], [19.075436200000006, 47.504227600000014], [19.0748488, 47.504854000000066], [19.074391999999996, 47.505312000000025], [19.07433199999999, 47.50537210000003]]]}}, {"id": "39", "type": "Feature", "properties": {"index": 39, "n_sides": 4, "edges": "[(92, 103, 0), (103, 95, 0), (95, 84, 0), (84, 92, 0)]", "area": 19497.809822604995, "roundabout": false}, "geometry": {"type": "Polygon", "coordinates": [[[19.07433199999999, 47.50537210000003], [19.074391999999996, 47.505312000000025], [19.0748488, 47.504854000000066], [19.075436200000006, 47.504227600000014], [19.075481899999996, 47.50417880000002], [19.075320799999997, 47.504100800000025], [19.0742992, 47.50361610000003], [19.074253300000002, 47.50365490000001], [19.073827899999994, 47.50395820000004], [19.0728525, 47.504653599999976], [19.073911900000002, 47.50517400000001], [19.074255899999997, 47.50533620000003], [19.07433199999999, 47.50537210000003]]]}}, {"id": "40", "type": "Feature", "properties": {"index": 40, "n_sides": 4, "edges": "[(129, 140, 0), (140, 145, 0), (145, 133, 0), (133, 129, 0)]", "area": 22126.37159876121, "roundabout": false}, "geometry": {"type": "Polygon", "coordinates": [[[19.080206799999992, 47.50854050000003], [19.0817109, 47.509218200000014], [19.082013499999995, 47.509354500000015], [19.0823603, 47.50951080000002], [19.082383799999995, 47.50952129999999], [19.0825147, 47.5095796], [19.082585699999992, 47.50951770000003], [19.0829257, 47.50920670000004], [19.0833312, 47.50883580000006], [19.083228999999996, 47.50878500000002], [19.083167, 47.508756700000006], [19.080979099999997, 47.50774700000001], [19.080288699999993, 47.50845640000003], [19.080206799999992, 47.50854050000003]]]}}, {"id": "41", "type": "Feature", "properties": {"index": 41, "n_sides": 4, "edges": "[(129, 133, 0), (133, 131, 0), (131, 125, 0), (125, 129, 0)]", "area": 8811.553496564877, "roundabout": false}, "geometry": {"type": "Polygon", "coordinates": [[[19.080206799999992, 47.50854050000003], [19.080288699999993, 47.50845640000003], [19.080979099999997, 47.50774700000001], [19.080060800000002, 47.507337400000026], [19.079275599999992, 47.50812100000001], [19.079780099999997, 47.508348300000044], [19.080092099999995, 47.508488800000045], [19.080206799999992, 47.50854050000003]]]}}, {"id": "42", "type": "Feature", "properties": {"index": 42, "n_sides": 4, "edges": "[(105, 107, 0), (107, 114, 0), (114, 122, 0), (122, 112, 0), (112, 105, 0)]", "area": 11551.57799512797, "roundabout": false}, "geometry": {"type": "Polygon", "coordinates": [[[19.076341699999997, 47.506799400000034], [19.076555799999994, 47.50689580000002], [19.076732999999994, 47.50697550000003], [19.076891999999994, 47.50704700000004], [19.077021200000004, 47.507105200000034], [19.077540900000002, 47.50733940000003], [19.077644399999997, 47.5072355], [19.078324, 47.50655350000003], [19.077096699999995, 47.50600290000004], [19.076419299999998, 47.506717500000036], [19.076341699999997, 47.506799400000034]]]}}, {"id": "43", "type": "Feature", "properties": {"index": 43, "n_sides": 4, "edges": "[(105, 112, 0), (112, 119, 0), (119, 116, 0), (116, 102, 0), (102, 105, 0)]", "area": 9127.44012961958, "roundabout": false}, "geometry": {"type": "Polygon", "coordinates": [[[19.076341699999997, 47.506799400000034], [19.076419299999998, 47.506717500000036], [19.077096699999995, 47.50600290000004], [19.077247699999997, 47.505843500000005], [19.077752599999993, 47.5053109], [19.077815199999996, 47.505244900000065], [19.077330699999997, 47.50502280000001], [19.077291100000004, 47.50506100000005], [19.0772652, 47.505086100000035], [19.077123099999998, 47.50522360000003], [19.0767448, 47.505634500000006], [19.076710300000002, 47.50567720000004], [19.076059199999992, 47.50637170000006], [19.0760004, 47.50641000000001], [19.07596109999999, 47.506447600000065], [19.0758373, 47.50657519999999], [19.076341699999997, 47.506799400000034]]]}}, {"id": "44", "type": "Feature", "properties": {"index": 44, "n_sides": 4, "edges": "[(145, 149, 0), (149, 138, 0), (138, 133, 0), (133, 145, 0)]", "area": 21710.980971700614, "roundabout": false}, "geometry": {"type": "Polygon", "coordinates": [[[19.0833312, 47.50883580000006], [19.083790100000005, 47.50843950000004], [19.083893900000003, 47.50834989999999], [19.0840626, 47.50821549999999], [19.08423129999999, 47.50816800000003], [19.084031699999997, 47.50807760000001], [19.0817217, 47.507006000000054], [19.080979099999997, 47.50774700000001], [19.083167, 47.508756700000006], [19.083228999999996, 47.50878500000002], [19.0833312, 47.50883580000006]]]}}, {"id": "45", "type": "Feature", "properties": {"index": 45, "n_sides": 4, "edges": "[(123, 128, 0), (128, 115, 0), (115, 109, 0), (109, 103, 0), (103, 116, 0), (116, 119, 0), (119, 123, 0)]", "area": 42711.665038210995, "roundabout": false}, "geometry": {"type": "Polygon", "coordinates": [[[19.078530299999997, 47.50449260000004], [19.07855519999999, 47.50446640000002], [19.078887600000005, 47.50411670000005], [19.07925329999999, 47.50373190000004], [19.0791598, 47.50368820000003], [19.078757199999995, 47.50350090000004], [19.07861759999999, 47.50344399999998], [19.0780927, 47.50320760000001], [19.076937199999996, 47.50268720000002], [19.076867999999994, 47.50265600000005], [19.0764816, 47.503078500000036], [19.076161599999995, 47.503430700000024], [19.075909000000003, 47.50370880000002], [19.075481899999996, 47.50417880000002], [19.0755768, 47.50422360000005], [19.075654099999994, 47.5042588], [19.075724700000002, 47.50429100000003], [19.077281499999998, 47.5050008], [19.077330699999997, 47.50502280000001], [19.077815199999996, 47.505244900000065], [19.078530299999997, 47.50449260000004]]]}}, {"id": "46", "type": "Feature", "properties": {"index": 46, "n_sides": 4, "edges": "[(123, 132, 0), (132, 135, 0), (135, 128, 0), (128, 123, 0)]", "area": 11621.332847351128, "roundabout": false}, "geometry": {"type": "Polygon", "coordinates": [[[19.078530299999997, 47.50449260000004], [19.079811699999993, 47.505061400000045], [19.080535900000005, 47.50430910000005], [19.079794500000002, 47.50397030000003], [19.079691600000004, 47.50392610000004], [19.07925329999999, 47.50373190000004], [19.078887600000005, 47.50411670000005], [19.07855519999999, 47.50446640000002], [19.078530299999997, 47.50449260000004]]]}}, {"id": "47", "type": "Feature", "properties": {"index": 47, "n_sides": 4, "edges": "[(123, 119, 0), (119, 127, 0), (127, 132, 0), (132, 123, 0)]", "area": 11464.045285505013, "roundabout": false}, "geometry": {"type": "Polygon", "coordinates": [[[19.078530299999997, 47.50449260000004], [19.077815199999996, 47.505244900000065], [19.077904999999998, 47.50528510000003], [19.079066900000004, 47.505814800000046], [19.079811699999993, 47.505061400000045], [19.078530299999997, 47.50449260000004]]]}}, {"id": "48", "type": "Feature", "properties": {"index": 48, "n_sides": 4, "edges": "[(128, 137, 0), (137, 126, 0), (126, 115, 0), (115, 128, 0)]", "area": 38744.11634261596, "roundabout": false}, "geometry": {"type": "Polygon", "coordinates": [[[19.07925329999999, 47.50373190000004], [19.0795562, 47.503403100000064], [19.080503100000005, 47.50237020000004], [19.07818499999999, 47.50130840000003], [19.078114299999996, 47.50127600000004], [19.078059799999995, 47.50133610000004], [19.077502500000005, 47.50195060000001], [19.076913299999994, 47.502606100000044], [19.076867999999994, 47.50265600000005], [19.076937199999996, 47.50268720000002], [19.0780927, 47.50320760000001], [19.07861759999999, 47.50344399999998], [19.078757199999995, 47.50350090000004], [19.0791598, 47.50368820000003], [19.07925329999999, 47.50373190000004]]]}}, {"id": "49", "type": "Feature", "properties": {"index": 49, "n_sides": 4, "edges": "[(128, 135, 0), (135, 142, 0), (142, 137, 0), (137, 128, 0)]", "area": 21219.56787686842, "roundabout": false}, "geometry": {"type": "Polygon", "coordinates": [[[19.07925329999999, 47.50373190000004], [19.079691600000004, 47.50392610000004], [19.079794500000002, 47.50397030000003], [19.080535900000005, 47.50430910000005], [19.0818578, 47.50299170000001], [19.080503100000005, 47.50237020000004], [19.0795562, 47.503403100000064], [19.07925329999999, 47.50373190000004]]]}}, {"id": "50", "type": "Feature", "properties": {"index": 50, "n_sides": 4, "edges": "[(132, 139, 0), (139, 144, 0), (144, 135, 0), (135, 132, 0)]", "area": 15926.253767490925, "roundabout": false}, "geometry": {"type": "Polygon", "coordinates": [[[19.079811699999993, 47.505061400000045], [19.081572300000005, 47.505842800000046], [19.082251199999998, 47.50516540000003], [19.082316399999996, 47.50510040000002], [19.082256700000002, 47.50507379999999], [19.080602300000002, 47.50433760000002], [19.080535900000005, 47.50430910000005], [19.079811699999993, 47.505061400000045]]]}}, {"id": "51", "type": "Feature", "properties": {"index": 51, "n_sides": 4, "edges": "[(132, 127, 0), (127, 134, 0), (134, 139, 0), (139, 132, 0)]", "area": 16088.25936359766, "roundabout": false}, "geometry": {"type": "Polygon", "coordinates": [[[19.079811699999993, 47.505061400000045], [19.079066900000004, 47.505814800000046], [19.080718299999997, 47.50656780000003], [19.080801599999997, 47.50660580000001], [19.080851200000005, 47.506556700000004], [19.081572300000005, 47.505842800000046], [19.079811699999993, 47.505061400000045]]]}}, {"id": "52", "type": "Feature", "properties": {"index": 52, "n_sides": 4, "edges": "[(119, 112, 0), (112, 122, 0), (122, 127, 0), (127, 119, 0)]", "area": 11202.05675056013, "roundabout": false}, "geometry": {"type": "Polygon", "coordinates": [[[19.077815199999996, 47.505244900000065], [19.077752599999993, 47.5053109], [19.077247699999997, 47.505843500000005], [19.077096699999995, 47.50600290000004], [19.078324, 47.50655350000003], [19.079066900000004, 47.505814800000046], [19.077904999999998, 47.50528510000003], [19.077815199999996, 47.505244900000065]]]}}, {"id": "53", "type": "Feature", "properties": {"index": 53, "n_sides": 4, "edges": "[(126, 137, 0), (137, 141, 0), (141, 130, 0), (130, 126, 0)]", "area": 23259.99037401469, "roundabout": false}, "geometry": {"type": "Polygon", "coordinates": [[[19.078114299999996, 47.50127600000004], [19.07818499999999, 47.50130840000003], [19.080503100000005, 47.50237020000004], [19.0812389, 47.50155050000004], [19.079624199999994, 47.5008071], [19.0789133, 47.50047840000005], [19.07881627997295, 47.500472413595155], [19.078142699999994, 47.50124500000003], [19.078114299999996, 47.50127600000004]]]}}, {"id": "54", "type": "Feature", "properties": {"index": 54, "n_sides": 4, "edges": "[(126, 120, 0), (120, 108, 0), (108, 115, 0), (115, 126, 0)]", "area": 16120.062476464409, "roundabout": false}, "geometry": {"type": "Polygon", "coordinates": [[[19.078114299999996, 47.50127600000004], [19.078061700000003, 47.50125280000004], [19.0771329, 47.500843300000014], [19.07665709999999, 47.50129700000003], [19.07638830000001, 47.50155330000004], [19.075867599999988, 47.502051700000024], [19.076467999999995, 47.502397999999985], [19.0767087, 47.50255320000004], [19.076730499999993, 47.50256730000005], [19.076867999999994, 47.50265600000005], [19.076913299999994, 47.502606100000044], [19.077502500000005, 47.50195060000001], [19.078059799999995, 47.50133610000004], [19.078114299999996, 47.50127600000004]]]}}, {"id": "55", "type": "Feature", "properties": {"index": 55, "n_sides": 4, "edges": "[(126, 130, 0), (130, 121, 0), (121, 117, 0), (117, 120, 0), (120, 126, 0)]", "area": 11508.61188853572, "roundabout": false}, "geometry": {"type": "Polygon", "coordinates": [[[19.078114299999996, 47.50127600000004], [19.078142699999994, 47.50124500000003], [19.07881627997295, 47.500472413595155], [19.078719499999995, 47.50046600000007], [19.07775629999999, 47.500215200000056], [19.0770515, 47.50004850000002], [19.076736099999994, 47.50065110000004], [19.07693169999999, 47.50074580000003], [19.0771329, 47.500843300000014], [19.078061700000003, 47.50125280000004], [19.078114299999996, 47.50127600000004]]]}}, {"id": "56", "type": "Feature", "properties": {"index": 56, "n_sides": 4, "edges": "[(141, 137, 0), (137, 142, 0), (142, 148, 0), (148, 141, 0)]", "area": 13402.536502690542, "roundabout": false}, "geometry": {"type": "Polygon", "coordinates": [[[19.0812389, 47.50155050000004], [19.080503100000005, 47.50237020000004], [19.0818578, 47.50299170000001], [19.082537900000002, 47.50229399999999], [19.08264249999999, 47.50218430000004], [19.082467199999993, 47.50210510000001], [19.0819807, 47.50188540000003], [19.081719499999988, 47.501767500000014], [19.0812389, 47.50155050000004]]]}}, {"id": "57", "type": "Feature", "properties": {"index": 57, "n_sides": 4, "edges": "[(141, 148, 0), (148, 151, 0), (151, 136, 0), (136, 130, 0), (130, 141, 0)]", "area": 37929.388383852944, "roundabout": false}, "geometry": {"type": "Polygon", "coordinates": [[[19.0812389, 47.50155050000004], [19.081719499999988, 47.501767500000014], [19.0819807, 47.50188540000003], [19.082467199999993, 47.50210510000001], [19.08264249999999, 47.50218430000004], [19.083379899999997, 47.50144530000001], [19.083433499999998, 47.5013894], [19.083275699999994, 47.501317000000036], [19.0827714, 47.50108719999999], [19.082604399999997, 47.501011700000014], [19.082436400000002, 47.50093300000006], [19.082234299999993, 47.50083840000001], [19.081998199999997, 47.500718800000016], [19.081732999999996, 47.500585500000035], [19.081286999999996, 47.500371000000044], [19.081081500000003, 47.500268100000014], [19.08083630000001, 47.500143900000005], [19.080826499999997, 47.50013950000006], [19.080570499999993, 47.5000246], [19.080145400000003, 47.49982920000005], [19.0799534, 47.49974710000002], [19.079757509357197, 47.49967065370106], [19.079559393585576, 47.49974647472733], [19.079356529319586, 47.49987162556424], [19.07881627997295, 47.500472413595155], [19.0789133, 47.50047840000005], [19.079624199999994, 47.5008071], [19.0812389, 47.50155050000004]]]}}, {"id": "58", "type": "Feature", "properties": {"index": 58, "n_sides": 4, "edges": "[(135, 144, 0), (144, 150, 0), (150, 142, 0), (142, 135, 0)]", "area": 28133.192795619692, "roundabout": false}, "geometry": {"type": "Polygon", "coordinates": [[[19.080535900000005, 47.50430910000005], [19.080602300000002, 47.50433760000002], [19.082256700000002, 47.50507379999999], [19.082316399999996, 47.50510040000002], [19.082398599999998, 47.50501810000001], [19.083612300000002, 47.5038029], [19.0818578, 47.50299170000001], [19.080535900000005, 47.50430910000005]]]}}, {"id": "59", "type": "Feature", "properties": {"index": 59, "n_sides": 4, "edges": "[(109, 115, 0), (115, 108, 0), (108, 101, 0), (101, 109, 0)]", "area": 10291.780076119458, "roundabout": false}, "geometry": {"type": "Polygon", "coordinates": [[[19.076161599999995, 47.503430700000024], [19.0764816, 47.503078500000036], [19.076867999999994, 47.50265600000005], [19.076730499999993, 47.50256730000005], [19.0767087, 47.50255320000004], [19.076467999999995, 47.502397999999985], [19.075867599999988, 47.502051700000024], [19.075573900000002, 47.50234260000002], [19.075113199999993, 47.50279910000005], [19.075719800000005, 47.5031409], [19.075791800000005, 47.50318290000007], [19.0758177, 47.50319890000005], [19.0758401, 47.503216100000024], [19.075852799999996, 47.503231199999995], [19.075867199999998, 47.5032486], [19.075892899999996, 47.50327020000005], [19.075937199999995, 47.503298200000046], [19.076161599999995, 47.503430700000024]]]}}, {"id": "60", "type": "Feature", "properties": {"index": 60, "n_sides": 4, "edges": "[(109, 101, 0), (101, 95, 0), (95, 103, 0), (103, 109, 0)]", "area": 11125.742775022276, "roundabout": false}, "geometry": {"type": "Polygon", "coordinates": [[[19.076161599999995, 47.503430700000024], [19.075937199999995, 47.503298200000046], [19.075892899999996, 47.50327020000005], [19.075867199999998, 47.5032486], [19.075852799999996, 47.503231199999995], [19.0758401, 47.503216100000024], [19.0758177, 47.50319890000005], [19.075791800000005, 47.50318290000007], [19.075719800000005, 47.5031409], [19.075113199999993, 47.50279910000005], [19.0742992, 47.50361610000003], [19.075320799999997, 47.504100800000025], [19.075481899999996, 47.50417880000002], [19.075909000000003, 47.50370880000002], [19.076161599999995, 47.503430700000024]]]}}, {"id": "61", "type": "Feature", "properties": {"index": 61, "n_sides": 4, "edges": "[(142, 150, 0), (150, 155, 0), (155, 148, 0), (148, 142, 0)]", "area": 17267.633832213778, "roundabout": false}, "geometry": {"type": "Polygon", "coordinates": [[[19.0818578, 47.50299170000001], [19.083612300000002, 47.5038029], [19.084406599999994, 47.5029926], [19.08264249999999, 47.50218430000004], [19.082537900000002, 47.50229399999999], [19.0818578, 47.50299170000001]]]}}, {"id": "62", "type": "Feature", "properties": {"index": 62, "n_sides": 4, "edges": "[(144, 147, 0), (147, 154, 0), (154, 150, 0), (150, 144, 0)]", "area": 14501.819831492316, "roundabout": false}, "geometry": {"type": "Polygon", "coordinates": [[[19.082316399999996, 47.50510040000002], [19.083222300000003, 47.50551960000002], [19.083251699999998, 47.505490000000016], [19.0845342, 47.504218300000005], [19.083612300000002, 47.5038029], [19.082398599999998, 47.50501810000001], [19.082316399999996, 47.50510040000002]]]}}, {"id": "63", "type": "Feature", "properties": {"index": 63, "n_sides": 4, "edges": "[(144, 139, 0), (139, 143, 0), (143, 147, 0), (147, 144, 0)]", "area": 8207.658534249786, "roundabout": false}, "geometry": {"type": "Polygon", "coordinates": [[[19.082316399999996, 47.50510040000002], [19.082251199999998, 47.50516540000003], [19.081572300000005, 47.505842800000046], [19.082496400000004, 47.50625290000001], [19.083222300000003, 47.50551960000002], [19.082316399999996, 47.50510040000002]]]}}, {"id": "64", "type": "Feature", "properties": {"index": 64, "n_sides": 4, "edges": "[(2, 4, 0), (4, 3, 0), (3, 0, 0), (0, 2, 0)]", "area": 7393.686784073227, "roundabout": false}, "geometry": {"type": "Polygon", "coordinates": [[[19.057090199999994, 47.49851760000004], [19.057849400000002, 47.498078899999996], [19.0579521, 47.49802160000003], [19.05783069999999, 47.49797690000002], [19.05771929999999, 47.49793430000001], [19.057347800000006, 47.497698800000045], [19.057277299999996, 47.497631600000055], [19.057268600000004, 47.49762330000002], [19.057187799999998, 47.49754459999998], [19.057153699999997, 47.497511400000036], [19.0569762, 47.49759430000004], [19.0569047, 47.49762830000004], [19.056182899999992, 47.497977899999995], [19.056126999999996, 47.49800520000003], [19.056735899999993, 47.49832860000007], [19.056877000000004, 47.498403800000034], [19.057007199999994, 47.498473299999986], [19.057090199999994, 47.49851760000004]]]}}, {"id": "65", "type": "Feature", "properties": {"index": 65, "n_sides": 4, "edges": "[(2, 6, 0), (6, 10, 0), (10, 4, 0), (4, 2, 0)]", "area": 16433.568305478213, "roundabout": false}, "geometry": {"type": "Polygon", "coordinates": [[[19.057090199999994, 47.49851760000004], [19.058218699999994, 47.49912980000003], [19.058342, 47.49920250000002], [19.0589571, 47.49952300000004], [19.059868999999996, 47.49888680000003], [19.0598379, 47.498867000000004], [19.0595991, 47.49871520000002], [19.059375, 47.49864700000003], [19.059305099999996, 47.49862470000005], [19.05918929999999, 47.49853690000001], [19.059029, 47.498426300000006], [19.058940200000002, 47.49836310000005], [19.0586345, 47.498306], [19.0585294, 47.498253700000035], [19.058339075328153, 47.4982223352032], [19.0579521, 47.49802160000003], [19.057849400000002, 47.498078899999996], [19.057090199999994, 47.49851760000004]]]}}, {"id": "66", "type": "Feature", "properties": {"index": 66, "n_sides": 4, "edges": "[(4, 12, 0), (12, 7, 0), (7, 1, 0), (1, 3, 0), (3, 4, 0)]", "area": 28395.714435662107, "roundabout": false}, "geometry": {"type": "Polygon", "coordinates": [[[19.0579521, 47.49802160000003], [19.058016900000002, 47.49798450000003], [19.058153200000003, 47.49790940000003], [19.05892299999999, 47.497499000000005], [19.059360200000004, 47.497277200000056], [19.059426100000003, 47.49724120000003], [19.059508, 47.497199300000055], [19.059867099999998, 47.49701540000003], [19.0592904, 47.49647590000004], [19.058860599999992, 47.496073900000034], [19.058779300000005, 47.495997900000035], [19.058178300000005, 47.49626900000003], [19.0581387, 47.49628890000001], [19.05788069999999, 47.49641100000002], [19.057699299999996, 47.49649450000003], [19.05728819999999, 47.49668500000004], [19.057016799999996, 47.49681080000005], [19.0568415, 47.496892100000025], [19.056742299999996, 47.496938000000036], [19.056668300000002, 47.496972300000024], [19.0566643, 47.49699880000005], [19.056661900000005, 47.49701510000002], [19.056675499999994, 47.497045400000026], [19.0566889, 47.49705840000002], [19.057153699999997, 47.497511400000036], [19.057187799999998, 47.49754459999998], [19.057268600000004, 47.49762330000002], [19.057277299999996, 47.497631600000055], [19.057347800000006, 47.497698800000045], [19.05771929999999, 47.49793430000001], [19.05783069999999, 47.49797690000002], [19.0579521, 47.49802160000003]]]}}, {"id": "67", "type": "Feature", "properties": {"index": 67, "n_sides": 4, "edges": "[(4, 10, 0), (10, 17, 0), (17, 14, 0), (14, 12, 0), (12, 4, 0)]", "area": 24322.731453085755, "roundabout": false}, "geometry": {"type": "Polygon", "coordinates": [[[19.0579521, 47.49802160000003], [19.058339075328153, 47.4982223352032], [19.0585294, 47.498253700000035], [19.0586345, 47.498306], [19.058940200000002, 47.49836310000005], [19.059029, 47.498426300000006], [19.05918929999999, 47.49853690000001], [19.059305099999996, 47.49862470000005], [19.059375, 47.49864700000003], [19.0595991, 47.49871520000002], [19.0598379, 47.498867000000004], [19.059868999999996, 47.49888680000003], [19.0602676, 47.49861750000002], [19.061094100000002, 47.49808970000004], [19.060794099999995, 47.497815300000035], [19.060698799999997, 47.49772710000004], [19.059867099999998, 47.49701540000003], [19.059508, 47.497199300000055], [19.059426100000003, 47.49724120000003], [19.059360200000004, 47.497277200000056], [19.05892299999999, 47.497499000000005], [19.058153200000003, 47.49790940000003], [19.058016900000002, 47.49798450000003], [19.0579521, 47.49802160000003]]]}}, {"id": "68", "type": "Feature", "properties": {"index": 68, "n_sides": 3, "edges": "[(1, 0, 0), (0, 3, 0), (3, 1, 0)]", "area": 7536.620460638605, "roundabout": false}, "geometry": {"type": "Polygon", "coordinates": [[[19.056668300000002, 47.496972300000024], [19.056494699999995, 47.49705280000003], [19.056456499999992, 47.49707050000003], [19.0561285, 47.497222500000035], [19.055828499999997, 47.49736260000005], [19.0556896, 47.497425599999985], [19.055419400000005, 47.49753440000003], [19.055315500000006, 47.49758240000002], [19.05546049999999, 47.497645600000006], [19.0554944, 47.49766370000005], [19.056126999999996, 47.49800520000003], [19.056182899999992, 47.497977899999995], [19.0569047, 47.49762830000004], [19.0569762, 47.49759430000004], [19.057153699999997, 47.497511400000036], [19.0566889, 47.49705840000002], [19.056675499999994, 47.497045400000026], [19.056661900000005, 47.49701510000002], [19.0566643, 47.49699880000005], [19.056668300000002, 47.496972300000024]]]}}, {"id": "69", "type": "Feature", "properties": {"index": 69, "n_sides": 4, "edges": "[(6, 9, 0), (9, 13, 0), (13, 10, 0), (10, 6, 0)]", "area": 9057.558997729158, "roundabout": false}, "geometry": {"type": "Polygon", "coordinates": [[[19.0589571, 47.49952300000004], [19.059868299999994, 47.500006200000044], [19.059912799999996, 47.500029700000034], [19.0600329, 47.500096500000005], [19.060175699999995, 47.49995310000002], [19.060703699999987, 47.49942270000002], [19.060490599999994, 47.499322], [19.060553099999993, 47.499252100000035], [19.0602665, 47.49910550000005], [19.059868999999996, 47.49888680000003], [19.0589571, 47.49952300000004]]]}}, {"id": "70", "type": "Feature", "properties": {"index": 70, "n_sides": 4, "edges": "[(12, 14, 0), (14, 20, 0), (20, 15, 0), (15, 12, 0)]", "area": 9963.260828876537, "roundabout": false}, "geometry": {"type": "Polygon", "coordinates": [[[19.059867099999998, 47.49701540000003], [19.060698799999997, 47.49772710000004], [19.060794099999995, 47.497815300000035], [19.061709100000005, 47.497155499999984], [19.061836, 47.49704830000004], [19.06081999999999, 47.49666780000004], [19.0605925, 47.49663570000001], [19.059867099999998, 47.49701540000003]]]}}, {"id": "71", "type": "Feature", "properties": {"index": 71, "n_sides": 5, "edges": "[(12, 15, 0), (15, 11, 0), (11, 8, 0), (8, 7, 0), (7, 12, 0)]", "area": 9399.294421089187, "roundabout": false}, "geometry": {"type": "Polygon", "coordinates": [[[19.059867099999998, 47.49701540000003], [19.0605925, 47.49663570000001], [19.060466899999987, 47.496528299999994], [19.0599902, 47.4961209], [19.059841599999988, 47.495993899999995], [19.059646499999996, 47.495815900000046], [19.059613799999997, 47.49578680000003], [19.059581023575628, 47.49568582663531], [19.0594689, 47.49570280000002], [19.059257599999995, 47.49573570000006], [19.0590751, 47.49574610000003], [19.0589965, 47.4958402], [19.058779300000005, 47.495997900000035], [19.058860599999992, 47.496073900000034], [19.0592904, 47.49647590000004], [19.059867099999998, 47.49701540000003]]]}}, {"id": "72", "type": "Feature", "properties": {"index": 72, "n_sides": 4, "edges": "[(17, 10, 0), (10, 13, 0), (13, 18, 0), (18, 17, 0)]", "area": 9845.16909978749, "roundabout": false}, "geometry": {"type": "Polygon", "coordinates": [[[19.061094100000002, 47.49808970000004], [19.0602676, 47.49861750000002], [19.059868999999996, 47.49888680000003], [19.0602665, 47.49910550000005], [19.060553099999993, 47.499252100000035], [19.060490599999994, 47.499322], [19.060703699999987, 47.49942270000002], [19.060716400000008, 47.49941000000004], [19.060764299999992, 47.49936940000003], [19.060934699999997, 47.499224700000035], [19.0617357, 47.498680300000025], [19.061094100000002, 47.49808970000004]]]}}, {"id": "73", "type": "Feature", "properties": {"index": 73, "n_sides": 4, "edges": "[(17, 18, 0), (18, 23, 0), (23, 20, 0), (20, 14, 0), (14, 17, 0)]", "area": 17710.050462478936, "roundabout": false}, "geometry": {"type": "Polygon", "coordinates": [[[19.061094100000002, 47.49808970000004], [19.0617357, 47.498680300000025], [19.062371599999995, 47.49842360000002], [19.062464199999997, 47.49837210000005], [19.062788799999993, 47.49800020000003], [19.062889099999996, 47.497853400000025], [19.063125500000005, 47.49750750000002], [19.063034800000004, 47.4974752], [19.061836, 47.49704830000004], [19.061709100000005, 47.497155499999984], [19.060794099999995, 47.497815300000035], [19.061094100000002, 47.49808970000004]]]}}, {"id": "74", "type": "Feature", "properties": {"index": 74, "n_sides": 4, "edges": "[(11, 15, 0), (15, 20, 0), (20, 24, 0), (24, 11, 0)]", "area": 25813.463768559464, "roundabout": false}, "geometry": {"type": "Polygon", "coordinates": [[[19.059581023575628, 47.49568582663531], [19.059613799999997, 47.49578680000003], [19.059646499999996, 47.495815900000046], [19.059841599999988, 47.495993899999995], [19.0599902, 47.4961209], [19.060466899999987, 47.496528299999994], [19.0605925, 47.49663570000001], [19.06081999999999, 47.49666780000004], [19.061836, 47.49704830000004], [19.062779199999994, 47.49549650000001], [19.062813699999992, 47.495439700000006], [19.062567599999994, 47.49542650000001], [19.0623202, 47.4954246], [19.062066400000003, 47.49542310000001], [19.061656500000005, 47.495434800000005], [19.061617900000005, 47.49543589999999], [19.061505099999998, 47.49544380000002], [19.060849700000002, 47.495489600000056], [19.0607788, 47.49549460000002], [19.060722699999992, 47.49550070000002], [19.06025989999999, 47.49558450000004], [19.0601525, 47.495600500000066], [19.060140642315115, 47.4956022683546], [19.05992298897314, 47.49563472707981], [19.059922499999995, 47.495634800000026], [19.059907124152335, 47.49563710638365], [19.059822499999996, 47.49564980000004], [19.059649899999997, 47.495675399999996], [19.059581023575628, 47.49568582663531]]]}}, {"id": "75", "type": "Feature", "properties": {"index": 75, "n_sides": 3, "edges": "[(11, 24, 0), (24, 28, 0), (28, 8, 0), (8, 11, 0)]", "area": 24064.073176860533, "roundabout": false}, "geometry": {"type": "Polygon", "coordinates": [[[19.059581023575628, 47.49568582663531], [19.059649899999997, 47.495675399999996], [19.059822499999996, 47.49564980000004], [19.059907124152335, 47.49563710638365], [19.059922499999995, 47.495634800000026], [19.05992298897314, 47.49563472707981], [19.060140642315115, 47.4956022683546], [19.0601525, 47.495600500000066], [19.06025989999999, 47.49558450000004], [19.060722699999992, 47.49550070000002], [19.0607788, 47.49549460000002], [19.060849700000002, 47.495489600000056], [19.061505099999998, 47.49544380000002], [19.061617900000005, 47.49543589999999], [19.061656500000005, 47.495434800000005], [19.062066400000003, 47.49542310000001], [19.0623202, 47.4954246], [19.062567599999994, 47.49542650000001], [19.062813699999992, 47.495439700000006], [19.062956100000008, 47.49519560000001], [19.063027200000008, 47.495072000000015], [19.062840999999995, 47.495025200000015], [19.06259109999999, 47.494962400000034], [19.061120999999996, 47.4945961], [19.060803099999998, 47.494517600000044], [19.0605381, 47.49445210000002], [19.060463800000008, 47.49443510000004], [19.060074800000002, 47.49434050000002], [19.059930199999993, 47.494547800000014], [19.059910699999996, 47.49457510000006], [19.05974919999999, 47.49477890000001], [19.0594973, 47.4951283], [19.0592117, 47.49555710000001], [19.059169000000004, 47.49561290000003], [19.0590751, 47.49574610000003], [19.059257599999995, 47.49573570000006], [19.0594689, 47.49570280000002], [19.059581023575628, 47.49568582663531]]]}}, {"id": "76", "type": "Feature", "properties": {"index": 76, "n_sides": 4, "edges": "[(18, 13, 0), (13, 9, 0), (9, 16, 0), (16, 22, 0), (22, 18, 0)]", "area": 30122.4244641323, "roundabout": false}, "geometry": {"type": "Polygon", "coordinates": [[[19.0617357, 47.498680300000025], [19.060934699999997, 47.499224700000035], [19.060764299999992, 47.49936940000003], [19.060716400000008, 47.49941000000004], [19.060703699999987, 47.49942270000002], [19.060175699999995, 47.49995310000002], [19.0600329, 47.500096500000005], [19.06007569999999, 47.500126900000055], [19.060229199999995, 47.5002398], [19.060319, 47.50030590000003], [19.060782800000005, 47.50064720000006], [19.0611237, 47.50089750000001], [19.061439299999993, 47.501128100000074], [19.062097300000005, 47.50052720000005], [19.062911, 47.499731300000036], [19.0626997, 47.49954610000003], [19.062398500000004, 47.499282100000045], [19.062365799999995, 47.49925240000005], [19.0617357, 47.498680300000025]]]}}, {"id": "77", "type": "Feature", "properties": {"index": 77, "n_sides": 4, "edges": "[(18, 22, 0), (22, 27, 0), (27, 34, 0), (34, 23, 0), (23, 18, 0)]", "area": 23647.54621935471, "roundabout": false}, "geometry": {"type": "Polygon", "coordinates": [[[19.0617357, 47.498680300000025], [19.062365799999995, 47.49925240000005], [19.062398500000004, 47.499282100000045], [19.0626997, 47.49954610000003], [19.062911, 47.499731300000036], [19.062980400000004, 47.49966260000002], [19.0631188, 47.499525500000026], [19.063640799999998, 47.49900820000004], [19.064142899999997, 47.49844100000002], [19.064504000000003, 47.49803310000001], [19.063774199999997, 47.49775480000003], [19.063125500000005, 47.49750750000002], [19.062889099999996, 47.497853400000025], [19.062788799999993, 47.49800020000003], [19.062464199999997, 47.49837210000005], [19.062371599999995, 47.49842360000002], [19.0617357, 47.498680300000025]]]}}, {"id": "78", "type": "Feature", "properties": {"index": 78, "n_sides": 4, "edges": "[(28, 24, 0), (24, 35, 0), (35, 37, 0), (37, 28, 0)]", "area": 5741.474461149288, "roundabout": false}, "geometry": {"type": "Polygon", "coordinates": [[[19.063027200000008, 47.495072000000015], [19.062956100000008, 47.49519560000001], [19.062813699999992, 47.495439700000006], [19.0628895, 47.49546520000002], [19.064211100000005, 47.495882000000016], [19.0644318, 47.4955642], [19.064443100000002, 47.49554560000002], [19.0645018, 47.49544400000001], [19.0644133, 47.49542060000003], [19.064374000000004, 47.49541050000002], [19.064339200000003, 47.49540150000002], [19.063027200000008, 47.495072000000015]]]}}, {"id": "79", "type": "Feature", "properties": {"index": 79, "n_sides": 4, "edges": "[(24, 20, 0), (20, 23, 0), (23, 35, 0), (35, 24, 0)]", "area": 22086.055643959367, "roundabout": false}, "geometry": {"type": "Polygon", "coordinates": [[[19.062813699999992, 47.495439700000006], [19.062779199999994, 47.49549650000001], [19.061836, 47.49704830000004], [19.063034800000004, 47.4974752], [19.063125500000005, 47.49750750000002], [19.0631637, 47.49745030000002], [19.063314099999996, 47.4972252], [19.064211100000005, 47.495882000000016], [19.0628895, 47.49546520000002], [19.062813699999992, 47.495439700000006]]]}}, {"id": "80", "type": "Feature", "properties": {"index": 80, "n_sides": 4, "edges": "[(35, 45, 0), (45, 49, 0), (49, 37, 0), (37, 35, 0)]", "area": 8399.73173650622, "roundabout": false}, "geometry": {"type": "Polygon", "coordinates": [[[19.064211100000005, 47.495882000000016], [19.0642747, 47.495901400000044], [19.06547389999999, 47.496266300000045], [19.065893200000005, 47.496393300000044], [19.06596579999999, 47.49641520000005], [19.066284899999996, 47.49606220000005], [19.066372899999998, 47.495964800000046], [19.066161599999994, 47.49590140000004], [19.066073399999993, 47.49587490000006], [19.065909200000004, 47.495825600000025], [19.065711600000004, 47.49576620000001], [19.0653239, 47.49566110000001], [19.0645773, 47.49546290000001], [19.0645018, 47.49544400000001], [19.064443100000002, 47.49554560000002], [19.0644318, 47.4955642], [19.064211100000005, 47.495882000000016]]]}}, {"id": "81", "type": "Feature", "properties": {"index": 81, "n_sides": 4, "edges": "[(35, 23, 0), (23, 34, 0), (34, 45, 0), (45, 35, 0)]", "area": 26996.575195860238, "roundabout": false}, "geometry": {"type": "Polygon", "coordinates": [[[19.064211100000005, 47.495882000000016], [19.063314099999996, 47.4972252], [19.0631637, 47.49745030000002], [19.063125500000005, 47.49750750000002], [19.063774199999997, 47.49775480000003], [19.064504000000003, 47.49803310000001], [19.064828699999996, 47.49768480000002], [19.06508739999999, 47.49739560000004], [19.065528700000005, 47.49690420000002], [19.065906099999996, 47.496482], [19.06596579999999, 47.49641520000005], [19.065893200000005, 47.496393300000044], [19.06547389999999, 47.496266300000045], [19.0642747, 47.495901400000044], [19.064211100000005, 47.495882000000016]]]}}, {"id": "82", "type": "Feature", "properties": {"index": 82, "n_sides": 4, "edges": "[(84, 95, 0), (95, 87, 0), (87, 79, 0), (79, 84, 0)]", "area": 13144.787234259811, "roundabout": false}, "geometry": {"type": "Polygon", "coordinates": [[[19.0728525, 47.504653599999976], [19.073827899999994, 47.50395820000004], [19.074253300000002, 47.50365490000001], [19.0742992, 47.50361610000003], [19.0733754, 47.50319459999998], [19.073284999999995, 47.503153299999994], [19.0732185, 47.50321160000002], [19.072812799999994, 47.50356750000004], [19.0721384, 47.50413300000004], [19.072059199999988, 47.50419780000005], [19.07202609999999, 47.50422500000003], [19.072107499999998, 47.50426720000007], [19.0728525, 47.504653599999976]]]}}, {"id": "83", "type": "Feature", "properties": {"index": 83, "n_sides": 4, "edges": "[(59, 67, 0), (67, 79, 0), (79, 69, 0), (69, 59, 0)]", "area": 15205.676469127735, "roundabout": false}, "geometry": {"type": "Polygon", "coordinates": [[[19.069668699999998, 47.50435380000002], [19.070890699999996, 47.50508140000004], [19.07195769999999, 47.504275700000036], [19.07202609999999, 47.50422500000003], [19.0719538, 47.50418729999999], [19.070731600000006, 47.503549500000034], [19.069668699999998, 47.50435380000002]]]}}, {"id": "84", "type": "Feature", "properties": {"index": 84, "n_sides": 4, "edges": "[(87, 95, 0), (95, 101, 0), (101, 96, 0), (96, 93, 0), (93, 87, 0)]", "area": 9962.038794258742, "roundabout": false}, "geometry": {"type": "Polygon", "coordinates": [[[19.073284999999995, 47.503153299999994], [19.0733754, 47.50319459999998], [19.0742992, 47.50361610000003], [19.075113199999993, 47.50279910000005], [19.074674400000003, 47.50255280000003], [19.0746498, 47.50253870000005], [19.074626099999996, 47.50252970000004], [19.07459929999999, 47.50252270000002], [19.074565200000002, 47.502511500000054], [19.074517900000004, 47.5024887], [19.0742343, 47.50232620000001], [19.073937299999997, 47.50258490000005], [19.07334189999999, 47.5031105], [19.073284999999995, 47.503153299999994]]]}}, {"id": "85", "type": "Feature", "properties": {"index": 85, "n_sides": 4, "edges": "[(87, 86, 0), (86, 80, 0), (80, 69, 0), (69, 79, 0), (79, 87, 0)]", "area": 18546.902628883476, "roundabout": false}, "geometry": {"type": "Polygon", "coordinates": [[[19.073284999999995, 47.503153299999994], [19.0732194, 47.503119200000015], [19.072756899999998, 47.502878499999994], [19.0720623, 47.50248500000003], [19.070731600000006, 47.503549500000034], [19.0719538, 47.50418729999999], [19.07202609999999, 47.50422500000003], [19.072059199999988, 47.50419780000005], [19.0721384, 47.50413300000004], [19.072812799999994, 47.50356750000004], [19.0732185, 47.50321160000002], [19.073284999999995, 47.503153299999994]]]}}, {"id": "86", "type": "Feature", "properties": {"index": 86, "n_sides": 5, "edges": "[(87, 93, 0), (93, 100, 0), (100, 98, 0), (98, 91, 0), (91, 88, 0), (88, 86, 0), (86, 87, 0)]", "area": 21349.419527540904, "roundabout": false}, "geometry": {"type": "Polygon", "coordinates": [[[19.073284999999995, 47.503153299999994], [19.07334189999999, 47.5031105], [19.073937299999997, 47.50258490000005], [19.0742733, 47.50107490000004], [19.0742199, 47.501047400000026], [19.074166499999997, 47.501019800000016], [19.073165499999998, 47.50044790000002], [19.073006699999993, 47.501424400000055], [19.072973199999993, 47.50161939999998], [19.072756899999998, 47.502878499999994], [19.0732194, 47.503119200000015], [19.073284999999995, 47.503153299999994]]]}}, {"id": "87", "type": "Feature", "properties": {"index": 87, "n_sides": 3, "edges": "[(93, 96, 0), (96, 104, 0), (104, 100, 0), (100, 93, 0)]", "area": 5943.900134068484, "roundabout": false}, "geometry": {"type": "Polygon", "coordinates": [[[19.073937299999997, 47.50258490000005], [19.0742343, 47.50232620000001], [19.074371399999993, 47.50220520000005], [19.075106699999992, 47.50159660000002], [19.0742733, 47.50107490000004], [19.073937299999997, 47.50258490000005]]]}}, {"id": "88", "type": "Feature", "properties": {"index": 88, "n_sides": 3, "edges": "[(80, 86, 0), (86, 88, 0), (88, 80, 0)]", "area": 9023.659854864245, "roundabout": false}, "geometry": {"type": "Polygon", "coordinates": [[[19.0720623, 47.50248500000003], [19.072756899999998, 47.502878499999994], [19.072973199999993, 47.50161939999998], [19.073006699999993, 47.501424400000055], [19.0720884, 47.50134790000006], [19.07206469999999, 47.50237940000003], [19.0720623, 47.50248500000003]]]}}, {"id": "89", "type": "Feature", "properties": {"index": 89, "n_sides": 4, "edges": "[(121, 130, 0), (130, 136, 0), (136, 124, 0), (124, 121, 0)]", "area": 17840.488785811678, "roundabout": false}, "geometry": {"type": "Polygon", "coordinates": [[[19.0770515, 47.50004850000002], [19.07775629999999, 47.500215200000056], [19.078719499999995, 47.50046600000007], [19.07881627997295, 47.500472413595155], [19.079356529319586, 47.49987162556424], [19.079559393585576, 47.49974647472733], [19.079757509357197, 47.49967065370106], [19.0796108, 47.49961340000005], [19.079485299999998, 47.49957800000005], [19.079157299999995, 47.499484400000036], [19.078986299999993, 47.499418399999996], [19.0786248, 47.499325000000056], [19.077569900000004, 47.49905230000001], [19.077531, 47.49912720000003], [19.077501800000004, 47.49918330000005], [19.0770515, 47.50004850000002]]]}}, {"id": "90", "type": "Feature", "properties": {"index": 90, "n_sides": 4, "edges": "[(121, 111, 0), (111, 106, 0), (106, 113, 0), (113, 117, 0), (117, 121, 0)]", "area": 6837.418779370531, "roundabout": false}, "geometry": {"type": "Polygon", "coordinates": [[[19.0770515, 47.50004850000002], [19.075571599999996, 47.4996657], [19.075274099999994, 47.49994850000004], [19.076302699999996, 47.50044110000005], [19.076567299999986, 47.50056930000005], [19.076736099999994, 47.50065110000004], [19.0770515, 47.50004850000002]]]}}, {"id": "91", "type": "Feature", "properties": {"index": 91, "n_sides": 4, "edges": "[(121, 124, 0), (124, 118, 0), (118, 111, 0), (111, 121, 0)]", "area": 12205.11432576596, "roundabout": false}, "geometry": {"type": "Polygon", "coordinates": [[[19.0770515, 47.50004850000002], [19.077501800000004, 47.49918330000005], [19.077531, 47.49912720000003], [19.077569900000004, 47.49905230000001], [19.077290499999997, 47.498980100000004], [19.0770275, 47.49891210000004], [19.076471699999995, 47.49876850000003], [19.0763778, 47.49886140000001], [19.076320999999997, 47.498918300000035], [19.075571599999996, 47.4996657], [19.0770515, 47.50004850000002]]]}}, {"id": "92", "type": "Feature", "properties": {"index": 92, "n_sides": 4, "edges": "[(120, 117, 0), (117, 113, 0), (113, 104, 0), (104, 108, 0), (108, 120, 0)]", "area": 12273.273077960232, "roundabout": false}, "geometry": {"type": "Polygon", "coordinates": [[[19.0771329, 47.500843300000014], [19.07693169999999, 47.50074580000003], [19.076736099999994, 47.50065110000004], [19.076567299999986, 47.50056930000005], [19.076302699999996, 47.50044110000005], [19.075789800000003, 47.50093870000005], [19.075516399999994, 47.501204000000016], [19.075106699999992, 47.50159660000002], [19.075334499999997, 47.50173280000001], [19.075600199999997, 47.501891800000045], [19.075867599999988, 47.502051700000024], [19.07638830000001, 47.50155330000004], [19.07665709999999, 47.50129700000003], [19.0771329, 47.500843300000014]]]}}, {"id": "93", "type": "Feature", "properties": {"index": 93, "n_sides": 4, "edges": "[(151, 148, 0), (148, 155, 0), (155, 160, 0), (160, 156, 0), (156, 151, 0)]", "area": 17018.83725518364, "roundabout": false}, "geometry": {"type": "Polygon", "coordinates": [[[19.083433499999998, 47.5013894], [19.083379899999997, 47.50144530000001], [19.08264249999999, 47.50218430000004], [19.084406599999994, 47.5029926], [19.085101299999998, 47.50230760000004], [19.08512689999999, 47.50228230000002], [19.085199, 47.50220790000005], [19.0848485, 47.50204450000001], [19.084719500000006, 47.5019844], [19.084376099999993, 47.50183950000003], [19.083821299999993, 47.50157060000003], [19.0836443, 47.50149000000002], [19.083433499999998, 47.5013894]]]}}, {"id": "94", "type": "Feature", "properties": {"index": 94, "n_sides": 3, "edges": "[(166, 156, 0), (156, 160, 0), (160, 162, 0), (162, 164, 0), (164, 166, 0)]", "area": 8056.230827674717, "roundabout": false}, "geometry": {"type": "Polygon", "coordinates": [[[19.0868225, 47.50183960000005], [19.085218599999997, 47.501843400000006], [19.085135599999994, 47.50182170000006], [19.0850016, 47.50175190000005], [19.084831900000005, 47.50189520000002], [19.084806, 47.50191580000005], [19.084719500000006, 47.5019844], [19.0848485, 47.50204450000001], [19.085199, 47.50220790000005], [19.085697399999994, 47.502440100000015], [19.086118499999998, 47.50263639999999], [19.086178099999998, 47.502574300000006], [19.086534299999993, 47.50221610000003], [19.0867509, 47.501997499999995], [19.0868225, 47.50183960000005]]]}}, {"id": "95", "type": "Feature", "properties": {"index": 95, "n_sides": 5, "edges": "[(166, 164, 0), (164, 173, 0), (173, 174, 0), (174, 169, 1), (169, 166, 0)]", "area": 13404.02289789985, "roundabout": false}, "geometry": {"type": "Polygon", "coordinates": [[[19.0868225, 47.50183960000005], [19.0867509, 47.501997499999995], [19.086534299999993, 47.50221610000003], [19.087295600000004, 47.5025646], [19.087895599999996, 47.502839200000025], [19.088016500000002, 47.50289459999998], [19.088072699999998, 47.50292030000002], [19.088908199999995, 47.5033028], [19.08938689999999, 47.50352189999999], [19.089455799999993, 47.50346140000004], [19.089782699999997, 47.50317399999999], [19.0881836, 47.50243160000005], [19.087477200000002, 47.50210370000004], [19.087383499999998, 47.50206020000003], [19.087359800000005, 47.50203280000004], [19.0873615, 47.50183830000002], [19.0868225, 47.50183960000005]]]}}, {"id": "96", "type": "Feature", "properties": {"index": 96, "n_sides": 4, "edges": "[(16, 19, 0), (19, 26, 0), (26, 25, 0), (25, 22, 0), (22, 16, 0)]", "area": 19480.73872257425, "roundabout": false}, "geometry": {"type": "Polygon", "coordinates": [[[19.061439299999993, 47.501128100000074], [19.061534899999998, 47.50119200000004], [19.062093099999988, 47.50156670000001], [19.062417099999994, 47.50178120000004], [19.062501199999996, 47.50183740000004], [19.062547700000003, 47.5017896], [19.062799100000003, 47.50151780000006], [19.063788199999998, 47.50051669999999], [19.0637151, 47.50044750000005], [19.063657600000003, 47.50039410000001], [19.0634473, 47.50020739999999], [19.063439600000002, 47.50020050000001], [19.06306769999999, 47.49987040000004], [19.062911, 47.499731300000036], [19.062097300000005, 47.50052720000005], [19.061439299999993, 47.501128100000074]]]}}, {"id": "97", "type": "Feature", "properties": {"index": 97, "n_sides": 4, "edges": "[(22, 25, 0), (25, 33, 0), (33, 30, 0), (30, 27, 0), (27, 22, 0)]", "area": 10974.34425585672, "roundabout": false}, "geometry": {"type": "Polygon", "coordinates": [[[19.062911, 47.499731300000036], [19.06306769999999, 47.49987040000004], [19.063439600000002, 47.50020050000001], [19.0634473, 47.50020739999999], [19.063657600000003, 47.50039410000001], [19.0637151, 47.50044750000005], [19.0639539, 47.500221599999996], [19.064262300000006, 47.499929700000045], [19.064583299999995, 47.49961559999999], [19.06462629999999, 47.49957350000001], [19.06472009999999, 47.499500600000026], [19.0646305, 47.499454600000014], [19.0642975, 47.49930070000004], [19.064251300000006, 47.499279400000006], [19.064208699999995, 47.49925970000004], [19.063640799999998, 47.49900820000004], [19.0631188, 47.499525500000026], [19.062980400000004, 47.49966260000002], [19.062911, 47.499731300000036]]]}}, {"id": "98", "type": "Feature", "properties": {"index": 98, "n_sides": 4, "edges": "[(51, 49, 0), (49, 45, 0), (45, 50, 0), (50, 51, 0)]", "area": 3516.5528290975058, "roundabout": false}, "geometry": {"type": "Polygon", "coordinates": [[[19.067063799999996, 47.496172400000056], [19.0667952, 47.49609170000002], [19.066680499999993, 47.49605730000003], [19.066548099999995, 47.49601749999997], [19.066372899999998, 47.495964800000046], [19.066284899999996, 47.49606220000005], [19.06596579999999, 47.49641520000005], [19.066679299999993, 47.49666170000003], [19.066716400000004, 47.49661450000001], [19.067063799999996, 47.496172400000056]]]}}, {"id": "99", "type": "Feature", "properties": {"index": 99, "n_sides": 4, "edges": "[(50, 45, 0), (45, 34, 0), (34, 38, 0), (38, 39, 0), (39, 50, 0)]", "area": 12141.902938339763, "roundabout": false}, "geometry": {"type": "Polygon", "coordinates": [[[19.066679299999993, 47.49666170000003], [19.06596579999999, 47.49641520000005], [19.065906099999996, 47.496482], [19.065528700000005, 47.49690420000002], [19.06508739999999, 47.49739560000004], [19.064828699999996, 47.49768480000002], [19.064504000000003, 47.49803310000001], [19.065110199999996, 47.49829500000001], [19.065195599999992, 47.498206100000026], [19.065339399999992, 47.498056300000044], [19.0654849, 47.49790490000002], [19.065753499999992, 47.49762530000002], [19.066679299999993, 47.49666170000003]]]}}, {"id": "100", "type": "Feature", "properties": {"index": 100, "n_sides": 4, "edges": "[(50, 39, 0), (39, 43, 0), (43, 56, 0), (56, 50, 0)]", "area": 15292.246274576206, "roundabout": false}, "geometry": {"type": "Polygon", "coordinates": [[[19.066679299999993, 47.49666170000003], [19.065753499999992, 47.49762530000002], [19.0654849, 47.49790490000002], [19.065339399999992, 47.498056300000044], [19.0657693, 47.49824199999998], [19.065951900000005, 47.498329700000056], [19.0661019, 47.49839910000003], [19.066653999999993, 47.49797860000004], [19.067746099999997, 47.49714690000003], [19.066679299999993, 47.49666170000003]]]}}, {"id": "101", "type": "Feature", "properties": {"index": 101, "n_sides": 4, "edges": "[(153, 157, 0), (157, 152, 0), (152, 147, 0), (147, 143, 0), (143, 153, 0)]", "area": 22872.328707823224, "roundabout": false}, "geometry": {"type": "Polygon", "coordinates": [[[19.085096299999996, 47.507405200000036], [19.085404200000003, 47.5071072], [19.085755999999996, 47.50676100000006], [19.085657700000002, 47.506648500000004], [19.08513629999999, 47.50637240000005], [19.084300099999993, 47.50599220000005], [19.0832882, 47.50554840000001], [19.083222300000003, 47.50551960000002], [19.082496400000004, 47.50625290000001], [19.082532899999997, 47.50626910000003], [19.084444199999997, 47.507117500000035], [19.0848476, 47.50729650000005], [19.0848958, 47.50731790000003], [19.085096299999996, 47.507405200000036]]]}}, {"id": "102", "type": "Feature", "properties": {"index": 102, "n_sides": 4, "edges": "[(153, 143, 0), (143, 138, 0), (138, 149, 0), (149, 153, 0)]", "area": 24209.481204332275, "roundabout": false}, "geometry": {"type": "Polygon", "coordinates": [[[19.085096299999996, 47.507405200000036], [19.0848958, 47.50731790000003], [19.0848476, 47.50729650000005], [19.084444199999997, 47.507117500000035], [19.082532899999997, 47.50626910000003], [19.082496400000004, 47.50625290000001], [19.081761899999993, 47.506966899999995], [19.0817217, 47.507006000000054], [19.084031699999997, 47.50807760000001], [19.08423129999999, 47.50816800000003], [19.084883499999997, 47.507604300000025], [19.085096299999996, 47.507405200000036]]]}}, {"id": "103", "type": "Feature", "properties": {"index": 103, "n_sides": 4, "edges": "[(157, 165, 0), (165, 161, 0), (161, 159, 0), (159, 152, 0), (152, 157, 0)]", "area": 24513.38719230004, "roundabout": false}, "geometry": {"type": "Polygon", "coordinates": [[[19.085755999999996, 47.50676100000006], [19.0858483, 47.50666589999997], [19.0864035, 47.50615950000002], [19.0871447, 47.50549399999999], [19.087203100000004, 47.50544040000004], [19.087113, 47.50539670000005], [19.08678219999999, 47.505246700000015], [19.086449600000005, 47.50509600000001], [19.085629800000003, 47.504720400000025], [19.084300099999993, 47.50599220000005], [19.08513629999999, 47.50637240000005], [19.085657700000002, 47.506648500000004], [19.085755999999996, 47.50676100000006]]]}}, {"id": "104", "type": "Feature", "properties": {"index": 104, "n_sides": 4, "edges": "[(138, 143, 0), (143, 139, 0), (139, 134, 0), (134, 138, 0)]", "area": 8476.636212678266, "roundabout": false}, "geometry": {"type": "Polygon", "coordinates": [[[19.0817217, 47.507006000000054], [19.081761899999993, 47.506966899999995], [19.082496400000004, 47.50625290000001], [19.081572300000005, 47.505842800000046], [19.080851200000005, 47.506556700000004], [19.080801599999997, 47.50660580000001], [19.0817217, 47.507006000000054]]]}}, {"id": "105", "type": "Feature", "properties": {"index": 105, "n_sides": 4, "edges": "[(138, 134, 0), (134, 131, 0), (131, 133, 0), (133, 138, 0)]", "area": 8181.5274197251565, "roundabout": false}, "geometry": {"type": "Polygon", "coordinates": [[[19.0817217, 47.507006000000054], [19.080801599999997, 47.50660580000001], [19.080745699999994, 47.50666179999999], [19.080060800000002, 47.507337400000026], [19.080979099999997, 47.50774700000001], [19.0817217, 47.507006000000054]]]}}, {"id": "106", "type": "Feature", "properties": {"index": 106, "n_sides": 4, "edges": "[(165, 170, 0), (170, 167, 0), (167, 161, 0), (161, 165, 0)]", "area": 7523.9708275123385, "roundabout": false}, "geometry": {"type": "Polygon", "coordinates": [[[19.087203100000004, 47.50544040000004], [19.0872951, 47.50536350000006], [19.088067199999994, 47.50467249999998], [19.087652899999995, 47.50448350000006], [19.087276699999997, 47.50431190000004], [19.086449600000005, 47.50509600000001], [19.08678219999999, 47.505246700000015], [19.087113, 47.50539670000005], [19.087203100000004, 47.50544040000004]]]}}, {"id": "107", "type": "Feature", "properties": {"index": 107, "n_sides": 4, "edges": "[(152, 159, 0), (159, 154, 0), (154, 147, 0), (147, 152, 0)]", "area": 17103.838158560815, "roundabout": false}, "geometry": {"type": "Polygon", "coordinates": [[[19.084300099999993, 47.50599220000005], [19.085629800000003, 47.504720400000025], [19.0845342, 47.504218300000005], [19.083251699999998, 47.505490000000016], [19.083222300000003, 47.50551960000002], [19.0832882, 47.50554840000001], [19.084300099999993, 47.50599220000005]]]}}, {"id": "108", "type": "Feature", "properties": {"index": 108, "n_sides": 4, "edges": "[(162, 160, 0), (160, 155, 0), (155, 158, 0), (158, 162, 0)]", "area": 8902.934473787898, "roundabout": false}, "geometry": {"type": "Polygon", "coordinates": [[[19.086118499999998, 47.50263639999999], [19.085697399999994, 47.502440100000015], [19.085199, 47.50220790000005], [19.08512689999999, 47.50228230000002], [19.085101299999998, 47.50230760000004], [19.084406599999994, 47.5029926], [19.085329899999994, 47.503423800000036], [19.086005399999998, 47.50274930000001], [19.086118499999998, 47.50263639999999]]]}}, {"id": "109", "type": "Feature", "properties": {"index": 109, "n_sides": 4, "edges": "[(162, 168, 0), (168, 171, 0), (171, 172, 0), (172, 173, 0), (173, 164, 0), (164, 162, 0)]", "area": 15019.789043520454, "roundabout": false}, "geometry": {"type": "Polygon", "coordinates": [[[19.086118499999998, 47.50263639999999], [19.086199899999997, 47.502674700000036], [19.0871893, 47.50314100000002], [19.08804409999999, 47.503543800000074], [19.088734999999993, 47.50388550000005], [19.088893999999996, 47.50396410000006], [19.0890473, 47.50382660000002], [19.08938689999999, 47.50352189999999], [19.088908199999995, 47.5033028], [19.088072699999998, 47.50292030000002], [19.088016500000002, 47.50289459999998], [19.087895599999996, 47.502839200000025], [19.087295600000004, 47.5025646], [19.086534299999993, 47.50221610000003], [19.086178099999998, 47.502574300000006], [19.086118499999998, 47.50263639999999]]]}}, {"id": "110", "type": "Feature", "properties": {"index": 110, "n_sides": 4, "edges": "[(162, 158, 0), (158, 163, 0), (163, 168, 0), (168, 162, 0)]", "area": 10358.818296110301, "roundabout": false}, "geometry": {"type": "Polygon", "coordinates": [[[19.086118499999998, 47.50263639999999], [19.086005399999998, 47.50274930000001], [19.085329899999994, 47.503423800000036], [19.08641929999999, 47.50392080000001], [19.087112799999996, 47.503218500000045], [19.0871893, 47.50314100000002], [19.086199899999997, 47.502674700000036], [19.086118499999998, 47.50263639999999]]]}}, {"id": "111", "type": "Feature", "properties": {"index": 111, "n_sides": 2, "edges": "[(174, 169, 0), (169, 174, 1)]", "area": 24094.092340894018, "roundabout": false}, "geometry": {"type": "Polygon", "coordinates": [[[19.089782699999997, 47.50317399999999], [19.0907282, 47.502338900000034], [19.090959199999997, 47.50213010000006], [19.091137800000002, 47.50198530000001], [19.0910821, 47.5019217], [19.091052200000004, 47.50189250000001], [19.091020599999993, 47.5018682], [19.090942699999996, 47.50182990000002], [19.0905154, 47.501830899999995], [19.0873615, 47.50183830000002], [19.087359800000005, 47.50203280000004], [19.087383499999998, 47.50206020000003], [19.087477200000002, 47.50210370000004], [19.0881836, 47.50243160000005], [19.089782699999997, 47.50317399999999]]]}}, {"id": "112", "type": "Feature", "properties": {"index": 112, "n_sides": 4, "edges": "[(170, 172, 0), (172, 171, 0), (171, 167, 0), (167, 170, 0)]", "area": 7634.567448160345, "roundabout": false}, "geometry": {"type": "Polygon", "coordinates": [[[19.088067199999994, 47.50467249999998], [19.08865299999999, 47.50417380000004], [19.088695299999994, 47.504137000000036], [19.088893999999996, 47.50396410000006], [19.088734999999993, 47.50388550000005], [19.08804409999999, 47.503543800000074], [19.087966499999997, 47.503622400000026], [19.08762859999999, 47.50397820000002], [19.087276699999997, 47.50431190000004], [19.087652899999995, 47.50448350000006], [19.088067199999994, 47.50467249999998]]]}}, {"id": "113", "type": "Feature", "properties": {"index": 113, "n_sides": 4, "edges": "[(161, 167, 0), (167, 163, 0), (163, 159, 0), (159, 161, 0)]", "area": 8157.437986859201, "roundabout": false}, "geometry": {"type": "Polygon", "coordinates": [[[19.086449600000005, 47.50509600000001], [19.087276699999997, 47.50431190000004], [19.08641929999999, 47.50392080000001], [19.085801800000002, 47.50454620000004], [19.085673900000003, 47.50467580000004], [19.085629800000003, 47.504720400000025], [19.086449600000005, 47.50509600000001]]]}}, {"id": "114", "type": "Feature", "properties": {"index": 114, "n_sides": 4, "edges": "[(163, 167, 0), (167, 171, 0), (171, 168, 0), (168, 163, 0)]", "area": 8160.751797381363, "roundabout": false}, "geometry": {"type": "Polygon", "coordinates": [[[19.08641929999999, 47.50392080000001], [19.087276699999997, 47.50431190000004], [19.08762859999999, 47.50397820000002], [19.087966499999997, 47.503622400000026], [19.08804409999999, 47.503543800000074], [19.0871893, 47.50314100000002], [19.087112799999996, 47.503218500000045], [19.08641929999999, 47.50392080000001]]]}}, {"id": "115", "type": "Feature", "properties": {"index": 115, "n_sides": 4, "edges": "[(163, 158, 0), (158, 154, 0), (154, 159, 0), (159, 163, 0)]", "area": 10610.455691598885, "roundabout": false}, "geometry": {"type": "Polygon", "coordinates": [[[19.08641929999999, 47.50392080000001], [19.085329899999994, 47.503423800000036], [19.084707500000004, 47.50404520000002], [19.084564800000003, 47.5041877], [19.0845342, 47.504218300000005], [19.085629800000003, 47.504720400000025], [19.085673900000003, 47.50467580000004], [19.085801800000002, 47.50454620000004], [19.08641929999999, 47.50392080000001]]]}}, {"id": "116", "type": "Feature", "properties": {"index": 116, "n_sides": 4, "edges": "[(34, 27, 0), (27, 30, 0), (30, 38, 0), (38, 34, 0)]", "area": 6667.101478868191, "roundabout": false}, "geometry": {"type": "Polygon", "coordinates": [[[19.064504000000003, 47.49803310000001], [19.064142899999997, 47.49844100000002], [19.063640799999998, 47.49900820000004], [19.064208699999995, 47.49925970000004], [19.065110199999996, 47.49829500000001], [19.064504000000003, 47.49803310000001]]]}}, {"id": "117", "type": "Feature", "properties": {"index": 117, "n_sides": 4, "edges": "[(39, 38, 0), (38, 42, 0), (42, 43, 0), (43, 39, 0)]", "area": 2266.752637547897, "roundabout": false}, "geometry": {"type": "Polygon", "coordinates": [[[19.065339399999992, 47.498056300000044], [19.065195599999992, 47.498206100000026], [19.065110199999996, 47.49829500000001], [19.065509200000008, 47.49849280000004], [19.065820699999993, 47.498647200000015], [19.065922600000004, 47.498557299999995], [19.0661019, 47.49839910000003], [19.065951900000005, 47.498329700000056], [19.0657693, 47.49824199999998], [19.065339399999992, 47.498056300000044]]]}}, {"id": "118", "type": "Feature", "properties": {"index": 118, "n_sides": 4, "edges": "[(38, 30, 0), (30, 33, 0), (33, 42, 0), (42, 38, 0)]", "area": 7089.678999295171, "roundabout": false}, "geometry": {"type": "Polygon", "coordinates": [[[19.065110199999996, 47.49829500000001], [19.064208699999995, 47.49925970000004], [19.064251300000006, 47.499279400000006], [19.0642975, 47.49930070000004], [19.0646305, 47.499454600000014], [19.06472009999999, 47.499500600000026], [19.0648212, 47.499446100000014], [19.065193800000007, 47.499112100000026], [19.06550059999999, 47.498884600000025], [19.065820699999993, 47.498647200000015], [19.065509200000008, 47.49849280000004], [19.065110199999996, 47.49829500000001]]]}}, {"id": "119", "type": "Feature", "properties": {"index": 119, "n_sides": 4, "edges": "[(101, 108, 0), (108, 104, 0), (104, 96, 0), (96, 101, 0)]", "area": 8248.879370410219, "roundabout": false}, "geometry": {"type": "Polygon", "coordinates": [[[19.075113199999993, 47.50279910000005], [19.075573900000002, 47.50234260000002], [19.075867599999988, 47.502051700000024], [19.075600199999997, 47.501891800000045], [19.075334499999997, 47.50173280000001], [19.075106699999992, 47.50159660000002], [19.074371399999993, 47.50220520000005], [19.0742343, 47.50232620000001], [19.074517900000004, 47.5024887], [19.074565200000002, 47.502511500000054], [19.07459929999999, 47.50252270000002], [19.074626099999996, 47.50252970000004], [19.0746498, 47.50253870000005], [19.074674400000003, 47.50255280000003], [19.075113199999993, 47.50279910000005]]]}}, {"id": "120", "type": "Feature", "properties": {"index": 120, "n_sides": 4, "edges": "[(100, 104, 0), (104, 113, 0), (113, 106, 0), (106, 98, 0), (98, 100, 0)]", "area": 14305.039684558726, "roundabout": false}, "geometry": {"type": "Polygon", "coordinates": [[[19.0742733, 47.50107490000004], [19.075106699999992, 47.50159660000002], [19.075516399999994, 47.501204000000016], [19.075789800000003, 47.50093870000005], [19.076302699999996, 47.50044110000005], [19.075274099999994, 47.49994850000004], [19.0748977, 47.50031470000005], [19.074166499999997, 47.501019800000016], [19.0742199, 47.501047400000026], [19.0742733, 47.50107490000004]]]}}, {"id": "121", "type": "Feature", "properties": {"index": 121, "n_sides": 4, "edges": "[(114, 125, 0), (125, 131, 0), (131, 122, 0), (122, 114, 0)]", "area": 16549.16022023951, "roundabout": false}, "geometry": {"type": "Polygon", "coordinates": [[[19.077540900000002, 47.50733940000003], [19.0780703, 47.507577899999994], [19.079275599999992, 47.50812100000001], [19.080060800000002, 47.507337400000026], [19.079418399999994, 47.507047500000056], [19.0791506, 47.50692660000002], [19.078324, 47.50655350000003], [19.077644399999997, 47.5072355], [19.077540900000002, 47.50733940000003]]]}}, {"id": "122", "type": "Feature", "properties": {"index": 122, "n_sides": 4, "edges": "[(122, 131, 0), (131, 134, 0), (134, 127, 0), (127, 122, 0)]", "area": 15583.323041949003, "roundabout": false}, "geometry": {"type": "Polygon", "coordinates": [[[19.078324, 47.50655350000003], [19.0791506, 47.50692660000002], [19.079418399999994, 47.507047500000056], [19.080060800000002, 47.507337400000026], [19.080745699999994, 47.50666179999999], [19.080801599999997, 47.50660580000001], [19.080718299999997, 47.50656780000003], [19.079066900000004, 47.505814800000046], [19.078324, 47.50655350000003]]]}}, {"id": "123", "type": "Feature", "properties": {"index": 123, "n_sides": 4, "edges": "[(150, 154, 0), (154, 158, 0), (158, 155, 0), (155, 150, 0)]", "area": 9019.373064058107, "roundabout": false}, "geometry": {"type": "Polygon", "coordinates": [[[19.083612300000002, 47.5038029], [19.0845342, 47.504218300000005], [19.084564800000003, 47.5041877], [19.084707500000004, 47.50404520000002], [19.085329899999994, 47.503423800000036], [19.084406599999994, 47.5029926], [19.083612300000002, 47.5038029]]]}}]}